番号,title,住所,lat,lng,
GA001,三井寺観音道【道標】,滋賀県大津市横木一丁目,34.59291,135.49453,
GA002,牛尾山【道標】,滋賀県大津市横木一丁目,34.5928,135.49583,
GA003,東海道／逢坂関【道標】,滋賀県大津市横木一丁目(閑栖寺前),34.59282,135.50075,
GA004,柳緑花紅【道標】,滋賀県大津市追分町,34.59275,135.50107,
GA005,蓮如上人／是より十町【道標】,滋賀県大津市追分町,34.59275,135.50107,
GA006,旧藤尾小学校跡地,滋賀県大津市横木一丁目,34.59283,135.50027,
GA007,山崎院跡,京都府乙訓郡大山崎町大山崎上ノ田,34.53376,135.40555,
GA008,西川耕蔵招魂碑,滋賀県大津市園城寺町(三井寺内),35.0035,135.51166,
GA009,甲子烈士無名氏墓,京都府乙訓郡大山崎町大山崎白味才(安養院内),34.5354,135.41032,
GA010,是より東　山城国【道標】,京都府乙訓郡大山崎町大山崎西谷,34.53293,135.4044,
GA011,寺戸大塚古墳,京都府向日市寺戸町芝山,34.5721,135.412,
GA012,長岡宮大極殿遺址,京都府向日市鶏冠井町大極殿(大極殿公園内),34.56353,135.42122,
GA013,淀川渡船所,京都府久世郡久御山町西一口,34.541,135.4356,
GA014,安養寺,京都府久世郡久御山町東一口,34.54136,135.44237,
GA015,巨椋池干拓碑,京都府宇治市槇島町一ノ坪(巨椋池土地改良区事務所内),34.54157,135.47019,
GA016,柳緑花紅【道標】,滋賀県近江八幡市安土町下豊浦(滋賀県立安土城考古博物館内),35.08572,136.0851,
GA017,柳緑花紅【道標】,滋賀県大津市追分町(摂取院内),34.59269,135.50255,
GA018,粟生・善峰・柳谷方面／京都・嵐山方面,京都府向日市向日町南山,34.56344,135.42004,
GA019,向日町道路元標,京都府向日市寺戸町中之段,34.56438,135.42029,
GA020,大原野神社右一里【道標】,京都府向日市寺戸町梅ノ木,34.57059,135.42153,
GA021,淳和天皇御陵・桓武天皇皇后御陵【道標】,京都府向日市寺戸町梅ノ木,34.57059,135.42153,
GA022,宝菩提院観世音西三町【道標】,京都府向日市寺戸町梅ノ木,34.57059,135.42153,
GA023,灰方地蔵・岩蔵観世音道【道標】,京都府向日市寺戸町梅ノ木,34.57059,135.42153,
GA024,桓武天皇皇后御陵【道標】,京都府向日市寺戸町古城,34.57068,135.41427,
GA025,土御門天皇御陵【道標】,京都府長岡京市梅が丘一丁目,34.55095,135.4119,
GA026,参陵道【道標】,京都府長岡京市金ヶ原芝,34.55055,135.40277,
GA027,御陵道改修奉仕記念碑,京都府長岡京市金ヶ原芝,34.55055,135.40277,
GA028,土御門天皇御陵【道標】,京都府長岡京市金ヶ原金原寺,34.55044,135.40202,
GA029,弘文天皇御陵参拝道【道標】,滋賀県大津市御陵町,35.01115,135.51178,
GA030,莵道稚郎子皇子御墓【道標】,京都府宇治市宇治東内,34.53379,135.48263,
GA031,宇治村道路元標,京都府宇治市五ヶ庄西浦,34.54558,135.48037,
GA032,残念さん山本文之助墓,兵庫県尼崎市杭瀬南新町四丁目(杭瀬東墓地内),34.43063,135.25448,
GA033,聖武天皇・元明天皇・元正天皇陵【道標】,奈良県奈良市中筋町,34.41041,135.49393,
GA034,元明天皇・元正天皇陵【道標】,奈良県奈良市法蓮町,34.41299,135.49429,
GA035,孝元天皇御陵【道標】,奈良県橿原市石川町,34.28589,135.47461,
GA036,天武天皇・持統天皇・欽明天皇・孝元天皇御陵【道標】,奈良県橿原市貝瀬町(近鉄岡寺駅前),34.28279,135.47464,
GA037,垂仁天皇・安康天皇陵【道標】,奈良県奈良市尼辻西町,34.4054,135.46552,
GA038,聖武天皇皇太子那富山墓【道標】,奈良県奈良市法蓮佐保山三丁目,34.42007,135.49406,
GA039,応神天皇皇后仲姫命御陵参拝道【道標】,大阪府藤井寺市道明寺六丁目,34.33583,135.36462,
GA040,允恭天皇御陵参拝道【道標】,大阪府藤井寺市市林五丁目,34.34229,135.36536,
GA041,崇神天皇・景行天皇・継体天皇皇后衾田陵【道標】,奈良県天理市柳本町(JR柳本駅前),34.33341,135.50197,
GA042,崇神天皇・景行天皇陵他【道標】,奈良県天理市柳本町,34.33324,135.50433,
GA043,仁徳天皇皇后磐之媛命陵【道標】,奈良県奈良市法華寺町,34.41297,135.48236,
GA044,仲哀天皇御陵参拝道【道標】,大阪府藤井寺市藤井寺二丁目,34.34093,135.3545,
GA045,仁賢天皇・清寧天皇・日本武尊御陵参拝道【道標】,大阪府羽曳野市白鳥一丁目,34.33086,135.36255,
GA046,反正天皇・履中天皇・仁徳天皇御陵道【道標】,大阪府堺市堺区三国ヶ丘御幸通【道標】,34.34262,135.2902,
GA047,顕宗天皇陵・武烈天皇陵【道標】,奈良県香芝市下田西一丁目,34.32345,135.422,
GA048,孝霊天皇御陵・武烈天皇御陵【道標】,奈良県北葛城郡王寺町本町二丁目,34.35143,135.42207,
GA049,成務天皇陵・称徳天皇陵・神功皇后陵・狭木之寺間陵【道標】,奈良県奈良市二条町(西大寺橋東詰),34.41392,135.47098,
GA050,八幡町道路元標,京都府八幡市八幡山柴,34.52528,135.42134,
GA051,宇治町道路元標,京都府宇治市宇治妙楽,34.53319,135.482,
GA052,新神足村道路元標,京都府長岡京市開田二丁目,34.55343,135.41558,
GA053,元明天皇・元正天皇御陵【道標】,奈良県奈良市奈良阪町,34.42235,135.49573,
GA054,槇島村道路元標,京都府宇治市槇島町門口,34.54026,135.47578,
GA055,大津市道路元標,滋賀県大津市京町一丁目,35.00285,135.5143,
GA056,戊辰役東軍戦死者埋骨地,京都府八幡市八幡苗田(番賀共同墓地内),34.52272,135.42413,
GA057,戊辰史蹟念仏寺,京都府八幡市八幡山路(念仏寺内),34.52524,135.42202,
GA058,崇道天皇八嶋陵・円照寺宮墓【道標】,奈良県奈良市山町,34.38338,135.50173,
HI001,粟田焼発祥地,東山区三条通神宮道通東入南側(粟田神社参道),35.00339,135.47013,
HI002,和気亀亭宅跡,東山区五条通東大路西入北側,34.59401,135.4631,
HI003,仁阿弥高橋道八宅,東山区五条通東大路西入南側,34.59402,135.4631,
HI004,清水焼発祥地五条坂,東山区五条通東大路西入北側(若宮八幡宮前),34.59407,135.46287,
HI005,御陵衛士屯所跡,東山区下河原町(月真院前),35.00039,135.46482,
HI006,翠紅館跡,東山区桝屋町,34.59567,135.46525,
HI007,ＢＢＳ運動発祥地,東山区妙法院前側町(京都女子高校前),34.59213,135.46384,
HI008,今熊野猿楽,東山今熊野椥ノ森町(新熊野神社内),34.5905,135.46253,
HI009,法住寺殿蹟,東山区三十三間堂廻り(法住寺門前),34.59149,135.462,
HI010,法住寺殿址,東山区三十三間堂廻り(三十三間堂内),34.59184,135.46189,
HI011,六道の辻,東山区松原通東大路西入轆轤町(六道珍皇寺前),34.59517,135.46312,
HI012,小野篁卿旧跡,東山区松原通東大路西入轆轤町(六道珍皇寺前),34.59516,135.46313,
HI013,六道の辻,東山区松原通大和大路東入一筋目西南角(西福寺前),34.59519,135.46249,
HI014,愛宕念仏寺元地,東山区松原通大和大路東入北側,34.59533,135.46228,
HI015,たばこ製造工場発祥地,東山区上新シ町(社団法人関西厚生協会前),34.59373,135.46239,
HI016,粟田口,東山区神宮道通三条下る東側(粟田小学校前),35.0033,135.46572,
HI017,明治天皇御小休所下京第二十七区小学校阯,東山区正面通本町東入南側,34.59297,135.46136,
HI018,明保野亭跡,東山区清水二丁目(産寧坂東側),34.59378,135.46511,
HI019,月下氷人石,東山区祇園町北側(八坂神社南楼門外),35.00102,135.4642,
HI020,乾山記念碑,東山区清水一丁目(清水寺内),34.59378,135.47056,
HI021,仁清記念碑,東山区清水一丁目(清水寺内),34.59377,135.47056,
HI022,阿国歌舞伎発祥地,東山区川端通四条下る(南座西側),35.00125,135.46189,
HI023,奥田頴川宅蹟,東山区大黒町通五条上る東側,34.5948,135.46164,
HI024,青木聾米宅蹟,東山区川端通四条上る東側(白川畔),35.00187,135.46209,
HI025,松永貞徳柿園址,東山区本町通泉涌寺道上る東側(一橋小学校内),34.59023,135.46144,
HI026,七卿西竄紀念碑,東山区東山通七条(妙法院内),34.59275,135.46294,
HI027,明治天皇妙法院行在所,東山区東山通七条(妙法院内),34.59244,135.46294,
HI028,鳥羽伏見戦防長殉難者墓,東山区本町十五丁目,34.58267,135.46343,
HI029,小川亭跡,東山区縄手通若松下る西側,35.00268,135.46225,
HI030,竹内栖鳳邸跡,東山区八坂上町(高台寺南門前),34.59567,135.46468,
HI031,刃物発祥地,東山区祇園町北側(八坂神社内),35.00144,135.46434,
HI032,竹久夢二寓居の跡,東山区桝屋町,34.59534,135.46504,
HI033,平氏六波羅第・六波羅探題府址,東山区六原通松原下る西側(六波羅蜜寺内),34.5949,135.46245,
HI034,大雅堂旧跡,東山区鷲尾町(円山音楽堂内),35.00076,135.46502,
HI035,西行法師蔡華園院旧蹟,東山区鷲尾町(西行庵内),35.00065,135.46514,
HI036,明智光秀首塚碑,東山区三条通白川橋下る東入,35.00302,135.46495,
HI037,瓜生石,東山区林下町(知恩院黒門前),35.00229,135.46545,
HI038,大谷本願寺故地,東山区林下町(元大谷崇泰院前),35.0022,135.46546,
HI039,歌の中山清閑寺,東山区清閑寺山ノ内山町,34.59237,135.47135,
HI040,佐藤継信・忠信塚,東山区渋谷通東大路東入北側,34.5933,135.4632,
HI041,三条小鍛冶宗近古跡,東山区粟田口鍛冶町(仏光寺本廟内),35.00304,135.47095,
HI042,小松谷御坊旧跡,東山区上馬町(正林寺前),34.59282,135.46475,
HI043,療病院址,東山区粟田口三条坊町(青蓮院内),35.00275,135.46593,
HI044,青蓮院旧仮御所,東山区粟田口三条坊町(青蓮院前),35.00268,135.46574,
HI045,蓮如上人御誕生地,東山区林下町(元大谷崇泰院前),35.0022,135.46551,
HI046,月照・信海両上人遺蹟,東山区清水一丁目(清水寺北総門前),34.59422,135.47035,
HI047,--,,,,
HI048,真清水蔵六宅跡,東山区五条通大和大路東入北側,34.59429,135.46208,
HI049,孝明天皇御胞衣埋納所,東山区五条通東大路西入北側(若宮八幡宮内),34.59425,135.46293,
HI050,円光大師旧跡,東山区上馬町(正林寺門前),34.5928,135.46472,
HI051,戊辰役殉難士菩提所,東山区本町十五丁目(退耕庵前),34.58473,135.46179,
HI052,親鸞上人旧御廟所・本願寺発祥地・蓮如上人御誕生地,東山区林下町(元大谷崇泰院前),35.00221,135.46549,
HI053,北政所化粧御殿跡,東山区下河原町(円徳院前),35.00003,135.46474,
HI054,佛教大学建学地,東山区林下町(知恩院山門前),35.0017,135.4653,
HI055,元和キリシタン殉教の地,東山区川端通正面上る西側,34.5931,135.46035,
HI056,三条通白川橋【道標】,東山区三条通白川橋東詰,35.00334,135.4651,
HI057,平清の道【道標】,東山区三条通神宮道西北角,35.00343,135.46571,
HI058,尊勝院庚申堂参道【道標】,東山区粟田口三条坊町,35.00313,135.46575,
HI059,三条通・大津道【道標】,東山区三条通岡崎道東北角,35.00344,135.47034,
HI060,三条大橋／大津路【道標】,東山区三条通岡崎道東入北側(民家内),35.00326,135.47067,
HI061,祇園・東大谷・知恩院【道標】,東山区金園町(金剛寺前),34.59544,135.46434,
HI062,今熊野観音【道標】,東山区泉涌寺山内町(今熊野観音寺前),34.58454,135.46501,
HI063,京大仏・今熊野【道標】,東山区泉涌寺山内町(今熊野観音寺内),34.58461,135.46502,
HI064,大仏・清水【道標】,東山区泉涌寺山内町(善能寺前),34.58431,135.46488,
HI065,泉涌寺・東福寺道【道標】,所在不明(東山区泉涌寺門前町カ),,,
HI066,洛陽新熊野大権現道【道標】,東山区今熊野椥ノ森町(新熊野神社内),34.5904,135.46255,
HI067,今熊野観音寺近道【道標】,東山区泉涌寺山内町(今熊野観音寺内),34.58461,135.46502,
HI068,高台寺・清水寺・円山公園・知恩院【道標】,東山区鷲尾町,35.00073,135.46501,
HI069,高台寺・清水寺・円山公園・知恩院【道標】,東山区鷲尾町,35.00068,135.46488,
HI070,渋谷街道【道標】,東山区清閑寺山ノ内町,34.59205,135.47121,
HI071,清閑寺／山科・醍醐・大津道【道標】,東山区清閑寺山ノ内町,34.59237,135.47135,
HI072,山科大津道・清水観音【道標】,所在不明(東山区清閑寺山ノ内町カ),,,
HI073,高台寺・清水【道標】,東山区鷲尾町,35.00065,135.4651,
HI074,東梅宮並明智光秀墳【道標】,東山区三条通白川橋下る東側,35.00305,135.46491,
HI075,門前白川道【道標】,東山区東大路通白川西入北側,35.00235,135.46391,
HI076,豊国神社へ是より一町【道標】,東山区茶屋町,34.59216,135.46165,
HI077,東山聖天参道【道標】,東山区妙法院前側町,34.5922,135.46289,
HI078,--,,,,
HI079,--,,,,
HI080,--,,,,
HI081,道元禅師荼毘御遺跡塔,東山区鷲尾町,35.00064,135.46509,
HI082,法然上人御遺跡青龍寺,東山区八坂上町,34.59573,135.46447,
HI083,大谷道【道標】,東山区五条坂東大路東入,34.59393,135.46349,
HI084,大谷・鳥部野【道標】,東山区五条坂東大路東入,34.59393,135.46349,
HI085,清水寺道【道標】,東山区五条坂東大路東入,34.59393,135.46349,
HI086,豊国廟参道【道標】,東山区妙法院前側町,34.59216,135.46302,
HI087,成就院【道標】,東山区松原通東大路東入,34.59505,135.46399,
HI088,東大谷参道【道標】,東山区東大路四条下る東側,35.00096,135.46384,
HI089,鳥戸野陵・中尾陵参道【道標】,東山区今熊野池田町,34.59071,135.46272,
HI090,泉山御陵参道【道標】,東山区泉涌寺雀ヶ森町,34.58571,135.46255,
HI091,稲荷・東福寺道【道標】,東山区泉涌寺雀ヶ森町,34.5857,135.46256,
HI092,仲恭天皇九条陵・崇徳天皇中宮皇嘉門院月輪南陵参道【道標】,東山区本町十二丁目(JR・京阪東福寺駅東口前),34.58523,135.46132,
HI093,延喜式八坂墓,東山区八坂上町(法観寺内),34.59543,135.46449,
HI094,伏水街道一之橋旧趾,東山区本町十一丁目(宝樹寺前),34.58579,135.46132,
HI095,高山彦九郎先生皇居望拝趾,東山区三条大橋東詰南側,35.00322,135.46211,
HI096,西山国師御終焉地,東山区本町十九丁目(遣迎院前),34.58271,135.4615,
HI097,双林寺道【道標】,東山区鷲尾町,35.00073,135.46502,
HI098,是より東　山城国【道標】,東山区茶屋町(京都国立博物館内),34.59224,135.46202,
HI099,六条天皇陵参道【道標】,東山区清閑寺山ノ内町,34.59226,135.47131,
HI100,清水道【道標】,東山区祇園町南側,35.00093,135.46423,
HI101,茶わん坂【道標】,東山区白糸町,34.59428,135.46412,
HI102,西大谷・清水【道標】,東山区上馬町,34.59301,135.46411,
HI103,後白河天皇陵参道【道標】,東山区三十三間堂廻り(法住寺前),34.59156,135.46205,
HI104,那須与市墓参道【道標】,東山区泉涌寺山内町(即成院内),34.58536,135.46375,
HI105,駅伝の碑,東山区三条通川端角(三条大橋東詰北側),35.00331,135.46194,
HI106,--,,,,
HI107,法観寺境内,東山区八坂上町(法観寺前),34.59549,135.46439,
HI108,北政所御殿跡,東山区下河原町,35.00048,135.4648,
HI109,子安塔跡,東山区清水一丁目,34.59433,135.46582,
HI110,関西統一学舎碑,東山区下河原町(高台寺内),35.00021,135.46545,
HI111,歌舞練場碑,東山区祇園町南側(弥栄会館前),35.00054,135.463,
HI112,高台寺台所坂・ねねの道【道標】,東山区下河原町(高台寺前),35.00017,135.46476,
HI113,開山国阿上人参詣道【道標】,東山区桝屋町,34.59549,135.46509,
HI114,徳川家康公正室旭姫墓【道標】,東山区本町十五丁目(東福寺南明院前),34.58228,135.46238,
HI115,防長藩士墓所【道標】,東山区本町十五丁目(東福寺勅使門前),34.583,135.46243,
HI116,仲恭天皇九条陵参道【道標】,東山区本町十五丁目(東福寺勅使門前),34.583,135.46243,
HI117,旧鹿児島藩士招魂碑【道標】,東山区本町十五丁目(東福寺本坊南側),34.58349,135.46279,
HI118,鳥戸野陵・泉山御陵参道【道標】,東山区今熊野宝蔵町,34.59038,135.4635,
HI119,鳥戸野陵参道【道標】,東山区今熊野泉山町,34.58539,135.46441,
HI120,孝明天皇陵・英照皇太后陵・後堀河天皇陵参道【道標】,東山区泉涌寺山内町(泉涌寺内),34.58424,135.46493,
HI121,泉山御陵参道【道標】,東山区泉涌寺山内町,34.58456,135.46447,
HI122,三国幽民翁碑【道標】,東山区清水三丁目,34.59487,135.46516,
HI123,芳文翁之墓境内にあり【道標】,東山区清水三丁目,34.59487,135.46516,
HI124,菊池契月之墓此寺にあり【道標】,東山区清水三丁目,34.59487,135.46516,
HI125,頼山陽先生墓碑【道標】,東山区円山町,35.00112,135.46505,
HI126,京都霊山護国神社南へ三町【道標】,東山区円山町,35.00112,135.46505,
HI127,後宇多天皇菩提所,東山区本町十五丁目(桂昌院前),34.58314,135.46202,
HI128,見真大師御荼毘所道【道標】,東山区今熊野総山町(延仁寺前),34.58583,135.47024,
HI129,親鸞聖人御荼毘所,東山区今熊野総山町(延仁寺前),34.58577,135.47018,
HI130,北座跡,東山区川端通四条上る東側,35.00157,135.462,
HI131,大仏殿石垣,東山区茶屋町,34.59315,135.46172,
HI132,清水ちかみち【道標】,東山区白糸町,34.59428,135.46412,
HI133,合槌稲荷大明神参道【道標】,東山区中之町,35.0034,135.47036,
HI134,出世恵美須神社参道【道標】,東山区中之町,35.0033,135.4703,
HI135,青蓮院宮御墓参道【道標】,東山区粟田口三条坊町,35.00312,135.47006,
HI136,五条三位俊成卿墓道【道標】,東山区本町十五丁目(正覚庵前),34.58302,135.46238,
HI137,庚申堂登口【道標】,東山区粟田口鍛冶町(粟田神社前),35.00308,135.47037,
HI138,三十三間堂・大谷【道標】,東山区茶屋町(方広寺内),34.59306,135.46196,
HI139,水内杏平漆庵地,東山区正面通大和大路西入北側,34.59306,135.46147,
HI140,耳塚修営供養碑,東山区正面通大和大路西入南側,34.59295,135.46134,
HI141,豊太閤三百年祭記念碑,東山区今熊野北日吉町(豊国廟内),34.59181,135.46547,
HI142,坂本龍馬お龍「結婚式場」跡,東山区三条通白川橋東入南側,35.00332,135.46528,
HI143,霊山表忠碑,東山区清閑寺霊山町(京都霊山護国神社内),34.59565,135.46594,
HI144,坂本龍馬忠魂碑,東山区清閑寺霊山町(京都霊山護国神社内),34.59573,135.47,
HI145,木戸孝允神道碑,東山区清閑寺霊山町(京都霊山護国神社内),34.59571,135.46588,
HI146,土佐志士寓居跡,東山区新瓦町東組(三十三間堂南大門東),34.59127,135.46218,
HI147,池田屋事変殉難志士墓所跡,東山区若松町,35.0031,135.46251,
HI148,井上世外詩碑,東山区粟田口高台寺山町,34.59554,135.47182,
HI149,幕末志士葬送の道,東山区桝屋町(霊明神社神道墓地前),34.59552,135.46551,
HI150,佐藤継信・忠信墓,東山区渋谷通東大路東入北側,34.59335,135.46323,
HI151,佐藤政養招魂碑,東山区渋谷通東大路東入北側,34.59335,135.46326,
HI152,佐藤文褒翁碑,東山区渋谷通東大路東入北側,34.59335,135.46327,
HI153,明治天皇御小休所下京第二十七区小学校趾,東山区正面通本町東入南側,34.59297,135.46138,
HI154,六条天皇御陵・高倉天皇御陵参道【道標】,東山区清閑寺山ノ内町,34.59241,135.47173,
HI155,六条天皇陵・高倉天皇陵／天智天皇陵・僧正遍照墓参道,東山区清閑寺山ノ内町,34.59216,135.47137,
HI156,大西郷・月照謀議旧趾,東山区清閑寺山ノ内町(清閑寺内),34.59238,135.47179,
HI157,石崎先生堂射碑,東山区三十三間堂廻り(三十三間堂内),34.59171,135.46163,
HI158,百僧供養碑,東山区三十三間堂廻り(三十三間堂内),34.59172,135.46162,
HI159,漏世公子及寿芳夫人遷墓碑,東山区今熊野北日吉町(太閤坦),34.59199,135.46551,
HI160,伊藤春畝詩碑,東山区清閑寺清水上山町,34.59568,135.47054,
HI161,清水山登り口【道標】,東山区清水一丁目(清水寺内),34.5942,135.4706,
HI162,四条天皇外二十四御方御陵参道【道標】,東山区泉涌寺山内町(泉涌寺内),34.58408,135.4648,
HI163,九条陵・月輪南陵参道【道標】,東山区本町十五丁目,34.58302,135.46313,
HI164,山科・岩間寺・醍醐・大津三井寺【道標】,東山区泉涌寺山内町(今熊野観音寺内),34.58461,135.46502,
HI165,楊貴妃観世音・善能寺【道標】,東山区泉涌寺山内町(今熊野観音寺内),34.58461,135.46502,
HI166,花園天皇陵参道【道標】,東山区粟田口三条坊町,35.00252,135.46571,
HI167,戸田忠至碑,東山区今熊野泉山町(泉涌寺内),34.58364,135.46565,
HI168,前田正名碑,東山区林下町(知恩院内),35.00183,135.46556,
HI169,日本赤十字社京都支部病院開院紀念碑,東山区本町十五丁目(京都第一赤十字病院内),34.58503,135.46177,
HI170,いなり・東寺【道標】,東山区本町十三丁目,34.58507,135.46138,
HI171,維新戦役忠魂碑,東山区本町十五丁目(東福寺内),34.5832,135.46267,
HI172,維新戦役防長藩士墓,東山区本町十五丁目,34.583,135.46312,
HI173,防長藩士崇忠碑,東山区本町十五丁目,34.58272,135.46349,
HI174,建仁寺領新家地境界石,東山区本町通五条上る東側,34.59454,135.4613,
HI175,清水寺・将軍塚・伊藤博文詩碑・高台寺【道標】,東山区清閑寺清水上山町,34.59522,135.47118,
HI176,清水寺・将軍塚【道標】,東山区清閑寺清水上山町,34.59507,135.47126,
HI177,清水寺・将軍塚・稚児ヶ池・山科街道【道標】,東山区粟田口高台寺山町,34.59498,135.47155,
HI178,清水寺奥之院道【道標】,東山区清閑寺下山町(清水寺内),34.59349,135.47072,
HI179,清水寺測点標石,東山区清水一丁目(清水寺内),34.59437,135.46598,
HI180,京都霊山護国神社近道【道標】,東山区清水二丁目,34.59464,135.46509,
HI181,清水寺・清閑寺方面他【道標】,東山区清水二丁目,34.59464,135.46509,
HI182,忠僕重助碑,東山区清水一丁目(清水寺内),34.5943,135.47033,
HI183,青蓮院・都ホテル【道標】,東山区粟田口粟田山北町,35.00236,135.47128,
HI184,将軍塚・円山公園【道標】,東山区粟田口高台寺山町,35.00036,135.47106,
HI185,蛍が窟・知恩院【道標】,東山区粟田口粟田山南町,35.00101,135.47057,
HI186,将軍塚道【道標】,東山区円山町,35.00122,135.47023,
HI187,淡海槐堂先生旌褒碑,東山区清閑寺霊山町(京都霊山護国神社内),34.59592,135.46599,
HI188,玉松操碑,東山区清閑寺霊山町(京都霊山護国神社内),34.59593,135.47007,
HI189,清水寺・山県有朋紀念樹・高台寺【道標】,東山区粟田口高台寺山町,34.59584,135.47199,
HI190,山県有朋紀念樹・高台寺・大日如来・将軍塚等【道標】,東山区粟田口高台寺山町,34.59506,135.47157,
HI191,二天門碑,東山区五条橋東六丁目(大谷本廟内),34.59374,135.46406,
HI192,伊藤公の詩碑此山上にあり【道標】,東山区清閑寺霊山町(京都霊山護国神社内),34.59587,135.47019,
HI193,元三大師【道標】,東山区粟田口三条坊町,35.00306,135.47025,
HI194,琵琶湖疏水工事殉職者碑,東山区東小物座町,35.00304,135.47262,
HI195,博労尼講詰所趾碑,東山区五条橋東六丁目(大谷本廟内),34.59377,135.46385,
HU001,戊辰戦役東軍戦死者埋骨所,伏見区榎町(悟真寺内),34.56331,135.45317,
HU002,戊辰戦役東軍戦死者碑,伏見区榎町(悟真寺内),34.56334,135.45316,
HU003,魚市場遺跡碑,伏見区横大路草津町(羽束師橋東詰南),34.55437,135.44045,
HU004,戊辰役東軍戦死者埋骨地,伏見区横大路富ノ森町,34.54515,135.43244,
HU005,戊辰東軍戦死碑,伏見区下鳥羽三町(法伝寺内),34.56068,135.44275,
HU006,戊辰役東軍戦死者埋骨地,伏見区下鳥羽東柳長町(悲願寺共同墓地内),34.56156,135.44381,
HU007,明治維新伏見の戦跡,伏見区御香宮門前町(御香宮境内),34.56033,135.46032,
HU008,明智薮,伏見区小栗栖小坂町,34.56498,135.48079,
HU009,法琳寺跡,伏見区小栗栖北谷町,34.57002,135.48148,
HU010,深草弥生遺跡,伏見区深草西浦町五丁目(ＮＴＴ深草別館前),34.57343,135.46029,
HU011,京都歩兵聯隊跡,伏見区深草鳥居崎町(藤森神社内),34.57056,135.46173,
HU012,道元禅師入越足跡夢街道慕古の旅発願碑,伏見区西大文字町(宝福寺内),34.56042,135.45167,
HU013,石田杜,伏見区石田森東町(天穂日命神社参道),34.56224,135.481,
HU014,石田一里塚跡,所在不明(伏見区石田大山町カ),,,
HU015,栢杜遺跡,所在不明(伏見区醍醐柏森町カ),,,
HU016,醍醐寺境内栢杜遺跡,伏見区醍醐柏森町,34.56317,135.49022,
HU017,頼政道跡,伏見区醍醐伽藍町(長尾天満宮内),34.57069,135.49194,
HU018,太田垣蓮月仮寓跡,伏見区醍醐落保町,34.56566,135.49054,
HU019,式内真幡寸神社跡,伏見区竹田真幡木町(若宮八幡宮前),34.572,135.45108,
HU020,明治天皇御小休所安楽寿院,伏見区竹田中内畑町(安楽寿院内),34.57081,135.45166,
HU021,鳥羽離宮田中殿跡,伏見区竹田田中殿町(田中殿公園内),34.57016,135.44487,
HU022,車塚の跡,伏見区竹田浄菩薩院町(安楽寿院前),,,
HU023,西行寺址,伏見区竹田内畑町(地蔵堂前),34.57109,135.45048,
HU024,鳥羽伏見戦跡碑,伏見区中島御所ノ内町(鳥羽離宮跡公園内),34.56597,135.44375,
HU025,鳥羽伏見戦跡,伏見区中島秋ノ山町(小枝橋東詰),34.57019,135.44354,
HU026,明治天皇行在所真幡寸神社,伏見区中島鳥羽離宮町(城南宮内),34.5701,135.4453,
HU027,伏見城石垣,伏見区桃山町伊庭(桃山東小学校内),34.56084,135.47112,
HU028,維新戦跡,伏見区桃陵町(桃陵中学校内),34.5542,135.44581,
HU029,大石良雄遊興地よろづや,伏見区撞木町,34.56457,135.45553,
HU030,長明方丈石,伏見区日野船尾,34.56013,135.49279,
HU031,親鸞聖人ご誕生地,伏見区日野西大道町(日野誕生院内),34.56008,135.48561,
HU032,戊辰役東軍戦死者埋骨地,伏見区納所下野,34.54351,135.43431,
HU033,唐人雁木旧趾,伏見区納所町,34.54276,135.43059,
HU034,戊辰役戦場址,伏見区納所町(納所会館前),34.54331,135.43089,
HU035,淀小橋旧趾,伏見区納所町八番,34.54279,135.43114,
HU036,戊辰役東軍戦死者碑,伏見区納所北城堀(妙教寺内),34.54358,135.43081,
HU037,我国に於ける電気鉄道事業発祥の地,伏見区下油掛町,34.55524,135.45311,
HU038,伏見奉行所跡,伏見区西奉行町(桃陵団地内),34.55518,135.45571,
HU039,明治天皇御小休所福井与左衛門宅址,所在不明,,,
HU040,寺田屋,伏見区南浜町,34.55489,135.45348,
HU041,伏見銀座跡,伏見区銀座町一丁目,34.55597,135.45504,
HU042,戊辰役東軍戦死者埋骨地,伏見区淀下津町(大専寺内),34.54089,135.4313,
HU043,戊辰役東軍戦死者碑,伏見区淀新町(長円寺内),34.53588,135.43057,
HU044,戊辰役東軍戦死者埋骨地,伏見区淀新町(東運寺内),34.53574,135.43077,
HU045,戊辰役東軍戦死者埋骨地,伏見区淀新町(文相寺内),34.54072,135.43106,
HU046,天皇御駐輦趾,伏見区淀池上町(明親小学校内),34.54121,135.43161,
HU047,淀川瀬水車旧趾,伏見区淀本町,34.54205,135.42595,
HU048,淀城址,伏見区淀本町(淀城跡公園内),34.54181,135.43016,
HU049,明治天皇御駐蹕址,伏見区淀本町(淀城跡公園内),34.54195,135.43015,
HU050,唐人雁木旧趾,伏見区淀本町(淀城跡公園内),34.5418,135.4305,
HU051,撞木町廓碑,伏見区橦木町,34.56452,135.45539,
HU052,明治天皇御小休所旧伏見第二小学校,伏見区下板橋町(伏見板橋小学校内),34.56173,135.45395,
HU053,伏見工兵第十六大隊跡,伏見区西奉行町(桃陵団地入口),34.55515,135.45569,
HU054,陸軍省,伏見区桃山町立売(睦美幼稚園前),,,
HU055,愚庵終焉地,伏見区桃山町泰長老,34.55499,135.46271,
HU056,両替商旧跡,伏見区両替町三丁目,34.5551,135.45499,
HU057,明治天皇御駐輦所観月橋,伏見区豊後橋町(観月橋北詰堤防上),34.55403,135.46049,
HU058,白河法皇・鳥羽法皇院政地,伏見区竹田浄菩提院町,34.5708,135.45142,
HU059,鳥羽伏見の戦勃発の地小枝橋,伏見区中島御所ノ内町(鳥羽離宮跡公園内),34.56596,135.44382,
HU060,今出川菊亭右大臣鳥羽殿跡,伏見区下鳥羽長田町(常高寺前),34.5625,135.44357,
HU061,鳥羽伏見の戦跡,伏見区下鳥羽三町,34.56022,135.44258,
HU062,円光大師御旧跡,伏見区下鳥羽三町(一念寺前),34.55571,135.44221,
HU063,元政上人旧跡【道標】,伏見区深草直違橋七丁目,34.57408,135.46161,
HU064,一本松,伏見区深草直違橋九丁目,34.57468,135.46161,
HU065,山王権現大宮社の跡,伏見区竹田桶ノ井町(竹田小学校内),34.57162,135.45252,
HU066,蓮如上人由緒地,伏見区深草瓦町(善福寺前),34.57295,135.46424,
HU067,日観亭旧跡,伏見区深草真宗院山町(真宗院墓地内),34.5737,135.46421,
HU068,元政上人旧跡,伏見区深草坊町(瑞光寺内),34.57426,135.46278,
HU069,了性院・本久院・深信院廃寺跡,伏見区深草宝塔寺山町(宝塔寺内),34.57456,135.46295,
HU070,騎兵第二十聯隊跡,伏見区深草西伊達町,34.57231,135.46276,
HU071,京都陸軍病院跡,伏見区深草向畑町(京都医療センター内),34.56167,135.46161,
HU072,親鸞・玉日姫・九条関白旧蹟,伏見区深草直違橋二丁目(西岸寺内),34.57161,135.4615,
HU073,冠石,伏見区竹田浄菩提院町(鳥羽天皇安楽寿院陵南),34.57085,135.45141,
HU074,戊辰役東軍戦死者埋骨地,伏見区淀新町(長円寺内),34.53589,135.43052,
HU075,戊辰役東軍戦死者埋骨地,伏見区淀新町(長円寺内),34.53571,135.42045,
HU076,淀小橋旧趾,伏見区淀本町(淀城跡公園内),34.5418,135.4305,
HU077,京道【道標】,伏見区表町(伏見土木事務所内),34.55459,135.45298,
HU078,京橋舟乗場【道標】,伏見区表町(伏見土木事務所内),34.5546,135.45309,
HU079,京大仏街道・大津道【道標】,伏見区下板橋町(伏見板橋小学校内),34.56174,135.45397,
HU080,舟乗場／京都・大津道【道標】,伏見区下板橋町(伏見中学校内),34.5617,135.45376,
HU081,舟乗場／京・大津道【道標】,伏見区下板橋町(伏見青年の家前),34.56154,135.45394,
HU082,大阪舟乗場【道標】,伏見区丹後町(伏見南浜小学校内),34.55474,135.45453,
HU083,京橋舟乗場／大津道【道標】,伏見区桃陵町(桃陵中学校内),34.55421,135.45581,
HU084,京街道／大和街道【道標】,伏見区豊後橋町(京阪観月橋駅前),34.554,135.46051,
HU085,大坂舟乗場／京・大津道【道標】,伏見区御香宮門前町(御香宮内),34.56009,135.46033,
HU086,大岩・小栗栖道【道標】,伏見区表町(伏見土木事務所内),34.55461,135.4631,
HU087,桃山御陵・乃木神社十五町【道標】,伏見区南新地(京阪中書島駅前),34.55369,135.45351,
HU088,舟乗場／京・大津道【道標】,伏見区桃陵町,,,
HU089,子安地蔵尊【道標】,伏見区桃山羽柴長吉西町(聖恩寺前),34.56068,135.45546,
HU090,桓武天皇御陵東五町【道標】,伏見区桃山筒井伊賀西町(京阪丹波橋駅前),34.56229,135.45559,
HU091,大仏・知恩院・大谷道【道標】,伏見区深草大亀谷西寺町(西福寺内),34.56544,135.46289,
HU092,舟乗場／京・大津道【道標】,伏見区深草直違橋三丁目(深草小学校内),34.57224,135.46174,
HU093,京道／大坂舟乗場【道標】,伏見区深草直違橋三丁目(深草小学校内),34.57222,135.46177,
HU094,浄土深草流開祖円空上人旧跡真宗律院【道標】,伏見区深草直違橋六丁目,34.57345,135.46163,
HU095,ぬりこべ地蔵【道標】,伏見区深草直違橋十丁目,34.57523,135.46161,
HU096,大岩【道標】,伏見区深草大亀谷古御香町,34.56377,135.4703,
HU097,北向不動明王是より右二町半【道標】,伏見区竹田中内畑町,34.5715,135.45105,
HU098,城南宮参詣道【道標】,伏見区竹田浄菩提院町,34.57007,135.45073,
HU099,京道／城南離宮【道標】,伏見区中島秋ノ山町,34.57021,135.44352,
HU100,東寺・西本願寺五十町【道標】,伏見区下鳥羽長田町(下鳥羽小学校内),,,
HU101,北向見返天満宮【道標】,所在不明(伏見区横大路草津町カ),,,
HU102,稲荷参詣道【道標】,伏見区深草下川原町,34.5809,135.45467,
HU103,城南離宮【道標】,伏見区竹田桶ノ井町(竹田小学校内),34.57162,135.45245,
HU104,京竹田街道・八幡柳谷道【道標】,伏見区住吉町(伏見住吉小学校内),34.56369,135.45461,
HU105,羽束師川・丹波道・善峯・向日町【道標】,伏見区羽束師志水町(羽束師神社内),34.55447,135.43218,
HU106,一言寺観世音【道標】,伏見区醍醐槙ノ内町,34.56393,135.48521,
HU107,一言寺観世音【道標】,伏見区醍醐柏森町(一言寺前),34.56375,135.49006,
HU108,日野法界寺【道標】,伏見区石田内里町,34.56186,135.48263,
HU109,五条三位俊成卿・兆殿司墓道【道標】,伏見区深草願成町,34.58176,135.46263,
HU110,五条三位俊成卿・兆殿司墓道【道標】,伏見区深草願成町,34.58168,135.46248,
HU111,日野薬師是より六町【道標】,伏見区日野西大道町,34.56095,135.48506,
HU112,下鳥羽小学校旧校地,伏見区下鳥羽北ノ口町,34.56256,135.44367,
HU113,常盤御前就捕処,伏見区西奉行町,34.55485,135.45571,
HU114,淀城故址,伏見区淀本町(淀城跡公園内),34.5418,135.4305,
HU115,南天塚跡,伏見区竹田西桶ノ井町,34.57156,135.45181,
HU116,御幸ノ森跡,伏見区竹田桶ノ井町,34.57193,135.45233,
HU117,猿塚の跡,伏見区竹田三ツ杭町,34.57188,135.45315,
HU118,一口村安養寺／淀川渡場径【道標】,伏見区淀本町,34.54179,135.43078,
HU119,鳥羽離宮金剛心院跡,所在不明(伏見区竹田東小屋ノ内町カ),,,
HU120,城南宮参詣道【道標】,伏見区竹田桶ノ井町(地下鉄近鉄竹田駅西口),34.57243,135.452,
HU121,山科の里【道標】,伏見区稲荷山官有林,,,
HU122,深草十二帝陵【道標】,伏見区深草直違橋町六丁目,34.57345,135.46163,
HU123,荷田春満旧宅,伏見区深草藪之内町(伏見稲荷大社内東丸神社前),34.58011,135.46221,
HU124,古淀城薬師堂址,伏見区納所薬師堂,34.54356,135.45151,
HU125,鳥羽殿跡,伏見区中島前山町(鳥羽離宮公園南側),,,
HU126,納所村道路元標,伏見区納所町,34.54291,135.43057,
HU127,七面天女【道標】,伏見区深草ケナサ町(京阪深草駅東側),34.57471,135.46131,
HU128,夜泣地蔵尊参道【道標】,伏見区深草願成町,,,
HU129,羽束師坐高御産日神社境内,伏見区羽束師志水町(羽束師神社内),,,
HU130,明治天皇御駐輦所製工場阯,伏見区向島中島町,34.55311,135.46048,
HU131,淀古城址・戊辰戦争砲弾跡,伏見区納所北城堀町(妙教寺内),34.54364,135.43085,
HU132,薬師如来東半町【道標】,伏見区醍醐赤間南裏町,34.57125,135.49142,
HU133,--,,,,
HU134,藤原俊成卿墓道【道標】,伏見区深草願成町,,,
HU135,城南宮参詣道【道標】,伏見区竹田七瀬川町,34.57017,135.4531,
HU136,北向不動尊【道標】,伏見区竹田七瀬川町,34.57018,135.453,
HU137,鳥羽天皇陵・近衛天皇陵・白河天皇陵【道標】,伏見区竹田七瀬川町,34.57018,135.453,
HU138,北向不動明王・城南宮道【道標】,伏見区竹田七瀬川町,34.57018,135.453,
HU139,淀町道路元標,伏見区淀川顔町,34.53588,135.43,
HU140,恋塚寺碑,伏見区下鳥羽城ノ越町,34.56282,135.44374,
HU141,角倉了以水利紀功碑,伏見区三栖半町(伏見みなと公園内),34.55481,135.45203,
HU142,桃山天満宮碑,伏見区御香宮門前町(御香宮桃山天満宮内),34.56008,135.46031,
HU143,伏見義民碑,伏見区御香宮門前町(御香宮内),34.55591,135.46021,
HU144,薩摩藩義士碑,伏見区鷹匠町(大黒寺内),34.56121,135.45391,
HU145,伏見義民小林勘次碑,伏見区下板橋町(玄忠寺内),34.5616,135.45448,
HU146,伏見義民焼塩屋権兵衛碑,伏見区深草鳥居崎町(藤森神社内),34.56578,135.4617,
HU147,蒙古塚,伏見区深草鳥居崎町(藤森神社内),34.56596,135.46175,
HU148,伏見義民丸屋九兵衛碑,伏見区中之町(源光院内),34.56342,135.45452,
HU149,伏見義民伏見屋清左衛門碑,伏見区新町八丁目(真西寺内),34.56147,135.45473,
HU150,薩摩島津伏見屋敷跡,伏見区東境町,34.56153,135.45322,
HU151,京道／伏見道【道標】,伏見区桃山西町(大善寺前),34.56026,135.4728,
HU152,醍醐一言寺是より十七丁【道標】,伏見区桃山町西尾(六地蔵小橋西詰),34.55577,135.47402,
HU153,近藤勇遭難の地,伏見区越後屋敷町,34.56553,135.45558,
HU154,坂本龍馬避難の材木小屋跡,伏見区過書町(大手橋西詰北側),34.55584,135.45217,
HU155,伏見長州藩邸跡,伏見区表町(伏見土木事務所),34.5546,135.45312,
HU156,伏見口の戦い激戦地跡,伏見区南浜町(京橋北詰東側),34.55487,135.45319,
HU157,伏見土佐藩邸跡,伏見区南浜町,34.55501,135.45412,
HU158,会津藩駐屯地跡,伏見区大坂町(東本願寺伏見別院前),34.55539,135.45426,
HU159,坂本龍馬忠魂碑,伏見区南浜町(寺田屋東隣),34.55442,135.45347,
HU160,寺田屋恩賜紀念碑,伏見区南浜町(寺田屋東隣),34.55493,135.45347,
HU161,淀川渡船場道【道標】,伏見区淀下津町(大淀中学校内),34.54084,135.43244,
HU162,稲荷新道碑,伏見区深草下川原町,34.58085,135.45468,
HU163,桓武天皇御陵参道【道標】,伏見区桃山町治部小丸,34.56062,135.46309,
HU164,淀小橋増築碑,伏見区淀本町(京阪淀駅前広場),34.54229,135.43109,
HU165,田辺治之助君記念碑,伏見区淀本町(淀城跡公園内),34.54185,135.43016,
HU166,薩藩九烈士遺蹟表,伏見区南浜町(寺田屋東隣),34.55493,135.45345,
HU167,御大典記念埋立工事竣工記念碑,伏見区東柳町(蓬莱橋南詰),34.55475,135.45358,
HU168,八科峠【道標】,伏見区深草大亀谷敦賀町,34.56343,135.47047,
HU169,仁明天皇・深草十二帝御陵【道標】,伏見区深草極楽町(極楽橋西詰),34.57219,135.46129,
HU170,近衛天皇・鳥羽天皇・白河天皇御陵【道標】,伏見区竹田浄菩提院町,34.57082,135.45221,
HU171,仁明天皇陵・宇多天皇皇后陵,伏見区深草谷口町,34.57166,135.4649,
HU172,深草毘沙門天・桓武天皇陵,伏見区深草谷口町,34.57164,135.46489,
HU173,朱雀天皇御陵【道標】,伏見区醍醐新町裏町,34.57137,135.4903,
HU174,醍醐村道路元標,伏見区醍醐東大路町,34.57015,135.49035,
HU175,弘法大師独鈷水,伏見区醍醐上ノ山町,34.57206,135.48572,
HU176,向島村道路元標,伏見区向島橋詰町,34.55347,135.46089,
HU177,横大路村道路元標,伏見区横大路草津町,34.55503,135.44125,
HU178,柳谷道舟乗場【道標】,伏見区横大路草津町,34.55444,135.44052,
HU179,大円広慧国師碑,伏見区深草大亀谷古御香町(仏国寺内),34.5636,135.4708,
HU180,戊辰役東軍戦死者埋骨地,伏見区淀池上町(光明寺跡),34.54184,135.43171,
HU181,戊辰役東軍戦死者埋骨地,伏見区榎町(悟真寺内),34.56347,135.45316,
HU182,戊辰役東軍戦死者埋骨地,伏見区榎町(悟真寺内),34.56345,135.45322,
HU183,戊辰役東軍戦死者慰霊碑,伏見区納所下野,34.54351,135.43431,
KA001,花の御所,上京区烏丸通今出川上る西側(大聖寺内),35.01508,135.45328,
KA002,黒田如水邸趾,上京区一条通猪熊西入南側,35.01352,135.45016,
KA003,春日潜庵先生邸宅趾,上京区烏丸通一条上る三筋目西入南側,35.0139,135.45314,
KA004,土御門内裏跡,上京区烏丸通下長者町上る西側(京都ガーデンパレス前),35.01224,135.45331,
KA005,土御門内裏跡,所在不明(上京区烏丸通下長者町上る京都ガーデンパレス前カ),,,
KA006,薩摩藩邸跡,上京区烏丸通今出川上る東側(同志社大学西門前),35.01481,135.45339,
KA007,日本聖公会初代監督シ・エム・ウイリアムス師旧邸,上京区烏丸通出水下る西側,35.01147,135.45329,
KA008,藤井右門邸跡,上京区烏丸通上立売上る西側,35.01558,135.45336,
KA009,菅家邸址,上京区烏丸通椹木町上る西側(菅原院天満宮前),35.01097,135.45329,
KA010,水戸藩邸跡,上京区下長者町通烏丸西入北側,35.01209,135.45325,
KA011,京都慶応義塾跡碑,上京区下立売通釜座上る(京都府庁内),35.01133,135.4519,
KA012,旧二条城跡,上京区下立売通室町西南角,35.01119,135.45283,
KA013,平安宮内裏承明門跡,上京区下立売通浄福寺西入南側,35.01127,135.44399,
KA014,明治天皇御駐輦所合薬会社阯,上京区下立売通新町西入南側,35.01112,135.45207,
KA015,明治天皇行幸所京都府庁,上京区下立売通新町釜座上る(京都府庁内),35.01116,135.45205,
KA016,京都守護職屋敷址,上京区下立売通釜座上る(京都府庁内),35.01122,135.45204,
KA017,木村長門守重成公旧館地,上京区下立売通千本西入北側(弘誓寺前),35.01125,135.44257,
KA018,平安宮内裏内郭回廊跡,上京区下立売通土屋町西入南側,35.01121,135.44365,
KA019,鯖街道口,上京区河原町今出川上る(出町橋西詰),35.01492,135.4614,
KA020,療病院碑,上京区河原町通広小路(京都府立医科大学内),35.0123,135.46113,
KA021,日本最初盲唖院創建地,上京区釜座通丸太町上る東側(京あんしんこども館前),35.01043,135.45206,
KA022,女紅場址,上京区丸太町通河原町東入南側(丸太町橋西詰),35.01029,135.46152,
KA023,奇縁氷人石,上京区馬喰町(北野天満宮松向軒内),35.01426,135.44071,
KA024,大極殿遺址碑,上京区千本通丸太町上る西側(内野児童公園内),35.01089,135.4432,
KA025,所司代屋敷址,上京区丸太町通大宮東入南側,35.01022,135.44577,
KA026,平安宮主水司跡,上京区丸太町通日暮西入南側,35.01036,135.44509,
KA027,狩野元信邸跡,上京区元誓願寺通小川東入北側,35.01431,135.45172,
KA028,五辻殿址,上京区五辻通千本東入北側,35.01517,135.44377,
KA029,緒方光琳宅蹟,上京区上御霊前通烏丸東入上る西側,35.02136,135.45383,
KA030,応仁の乱勃発地,上京区御霊前通烏丸東入(上御霊神社前),35.02112,135.45386,
KA031,立命館学園発祥地,上京区広小路通河原町西入(京都府立医科大学図書館内),35.01242,135.46072,
KA032,法成寺址,上京区荒神口通寺町東入北側,35.0117,135.46039,
KA033,京都市電北野線記念碑,上京区今出川通御前東南角,35.01408,135.44105,
KA034,豊公遺跡湯たく山茶くれん寺浄土院,上京区今出川通千本西入北側(浄土院門前),35.01466,135.443,
KA035,禁裏道場蹟,上京区今出川通千本東入北側(嘉楽中学校前),35.01476,135.44368,
KA036,新島襄先生旧邸,上京区寺町通丸太町上る東側,35.01073,135.46021,
KA037,山口仏教会館址,上京区寺町通丸太町上る東側(京都市歴史資料館前),35.01074,135.46021,
KA038,明治天皇行幸所京都府尋常中学校阯,上京区寺町通丸太町上る東側(鴨沂高校前),35.01141,135.46026,
KA039,紫式部邸宅址,上京区寺町通広小路上る東側(廬山寺内),35.01272,135.46058,
KA040,富岡鉄斎邸跡,上京区室町通一条下る東側,35.0133,135.45284,
KA041,足利将軍室町第址,上京区室町通今出川東北角,35.01431,135.45275,
KA042,清和院并土御門内裏址,上京区室町通中長者町下る東側,35.01239,135.45293,
KA043,茶屋四郎次郎邸址,上京区小川通下長者町東南角,35.01209,135.45151,
KA044,千利休居士遺蹟不審庵,上京区小川通寺之内上る東側,35.02029,135.4512,
KA045,千利休居士・千宗旦居士遺蹟今日庵,上京区小川通寺之内上る東側,35.02048,135.4512,
KA046,賀茂斎院跡,上京区上御霊前通智恵光院東入(櫟谷七野神社内),35.02098,135.44503,
KA047,皆川淇園弘道館址,上京区上長者町通室町西入北側,35.01257,135.45265,
KA048,佐賀鍋島藩屋敷跡,上京区上長者町通智恵光院東入北側,35.01251,135.44051,
KA049,持明院殿址,所在不明(上京区上立売通新町西北角カ),,,
KA050,嶋村俊一邸跡,上京区新烏丸通下切通し上る西側,35.01098,135.46058,
KA051,持明院仙洞御所跡,上京区新町通上立売上る西側(光照院門跡・恵聖院前),35.01577,135.45208,
KA052,聚楽第址,上京区中立売通裏門西入南側,35.01295,135.44456,
KA053,小篠長兵衛旧宅跡,上京区西洞院通下立売下る東側,35.01096,135.45183,
KA054,大久保利通旧邸,上京区石薬師寺通寺町東入南側,35.01394,135.46051,
KA055,紀氏遺蹟碑,上京区京都御苑(仙洞御所庭園内),,,
KA056,禁門変長州藩殉難者塔,上京区相国寺門前町(相国寺総墓地内),35.01584,135.45382,
KA057,名和長年戦死地,上京区大宮通中立売上る東側(名和児童公園前),35.01321,135.44566,
KA058,唐津小笠原藩邸跡,上京区中立売通浄福寺東入南側,35.01299,135.44457,
KA059,富士谷成章宅址,上京区中立売通西洞院西入南側(京都府上京府税事務所前),35.01294,135.4517,
KA060,日本盲唖教育発祥地,上京区猪熊通下立売下る西側,35.01014,135.45014,
KA061,京都所司代跡,上京区猪熊通丸太町下る西側(旧待賢小学校前),35.01014,135.45025,
KA062,明治天皇行幸所京都府中学阯,上京区猪熊通丸太町下る西側(旧待賢小学校前),35.01014,135.45025,
KA063,天明大火横死者供養碑,上京区寺町通広小路上る(清浄華院内),35.01314,135.46054,
KA064,西陣碑,上京区堀川通今出川下る西側(西陣織会館前),35.01431,135.4505,
KA065,頼山陽山紫水明処,上京区東三本木通丸太町上る東側,35.01049,135.46131,
KA066,伊藤仁斎古義堂阯,上京区東堀川通下立売上る東側,35.01144,135.45075,
KA067,北野大茶湯址,上京区馬喰町(北野天満宮境内),35.01475,135.44082,
KA068,鵺池碑,上京区主税町(二条公園内),35.01016,135.44447,
KA069,千宗守居士遺蹟官休庵,上京区武者小路通小川東入北側,35.014,135.45181,
KA070,天満宮旧蹟,上京区北町(安楽寺天満宮内),35.01207,135.44022,
KA071,村雲御所跡,上京区堀川通今出川下る西側(西陣織会館前),35.01426,135.4506,
KA072,西陣舟橋,上京区堀川通今出川西北角,35.01469,135.45059,
KA073,孝学堂址,上京区堀川通上御霊前上る東側(水火天満宮内),35.02102,135.45057,
KA074,山名宗全旧蹟,上京区堀川通上立売下る一筋目西入北側,35.01533,135.45028,
KA075,板倉勝重・重宗屋敷跡,上京区堀川通竹屋町西北角(ひまわり幼稚園内),35.00571,135.45051,
KA076,楽焼家元楽吉左衛門宅,上京区油小路通一条下る西側,35.01336,135.45122,
KA077,本阿弥光悦京屋敷跡,上京区油小路通五辻下る東側,35.01504,135.45131,
KA078,慶長天主堂跡,上京区油小路通元誓願寺西南角,35.01427,135.4512,
KA079,山名宗全邸址,上京区堀川通上立売下る一筋目北西角,35.01534,135.45064,
KA080,斯波氏武衛陣・足利義輝邸遺址,上京区椹木町通室町上る東側(平安女学院内),35.01091,135.45287,
KA081,山崎闇斎邸址,上京区葭屋町通下立売上る東側,35.01141,135.45039,
KA082,皇后陛下行啓紀念碑,上京区玄武町(同志社女子大学内),35.01457,135.45504,
KA083,立命館草創の地,上京区東三本木通丸太町上る東側,35.01079,135.46132,
KA084,花御所八幡宮跡,上京区上御霊前通烏丸東入(上御霊神社内),35.02113,135.45386,
KA085,西陣碑,上京区今出川通大宮東入北側(京都市考古資料館前),35.01465,135.44591,
KA086,小野小町双紙洗水遺跡,上京区一条通堀川東入北側,35.01344,135.45092,
KA087,上田秋成翁終焉地,上京区寺町通広小路上る(梨木神社内),35.01245,135.46017,
KA088,名和長年公遺蹟,上京区大宮通中立売上る東側(名和児童公園前),35.01322,135.44563,
KA089,贈正三位名和君遺蹟碑,上京区大宮通中立売上る東側(名和児童公園内),35.01324,135.44573,
KA090,贈従一位名和長年公殉節所,上京区大宮通中立売上る東側(名和児童公園内),35.01323,135.44569,
KA091,尾形光琳菩提所・興善院旧跡,上京区寺之内通小川東入北側(泉妙院前),35.02009,135.45181,
KA092,文子天満宮旧址,上京区北町,35.01178,135.44038,
KA093,元阿弥陀寺跡,上京区行衛町(京和幼稚園前),35.01117,135.44002,
KA094,親鸞上人御草庵清水庵地,上京区中立売通松屋町西入北側(勝福寺前),35.01285,135.44529,
KA095,聚楽城鵲橋旧跡,上京区松屋町通出水上る東側(松永稲荷前),35.01183,135.4453,
KA096,安倍晴明公居館趾,上京区葭屋町通今出川下る西側(晴明神社前),35.01401,135.45019,
KA097,光格天皇御胞塚,上京区荒神口通河原町西入(清荒神内),35.01164,135.46066,
KA098,大原口【道標】,上京区今出川通寺町東北角,35.01451,135.46044,
KA099,上賀茂・天満宮【道標】,上京区今出川通新町東入北側(上京区役所前),35.01455,135.45239,
KA100,天満宮・嵯峨・愛宕道【道標】,上京区馬喰町(北野天満宮内),35.01422,135.44079,
KA101,頼山陽書斎山紫水明処【道標】,上京区丸太町通河原町東入北側,35.01032,135.46133,
KA102,佐久間象山墓【道標】,上京区今出川通御前南西角,35.01409,135.44085,
KA103,二条天皇陵・三条天皇陵・花山天皇陵参道【道標】,上京区馬喰町(北野天満宮前),35.0141,135.44079,
KA104,大極殿遺址道【道標】,上京区千本通丸太町上る西側,35.01084,135.44322,
KA105-1,是より洛中碑,上京区室町通寺之内下る(室町小学校内),35.01592,135.45287,
KA105-2,是より洛中碑,上京区室町通寺之内下る(室町小学校内),35.01592,135.45287,
KA105-3,是より洛中碑,上京区室町通寺之内下る(室町小学校内),35.01592,135.45287,
KA105-4,是より洛中碑,上京区室町通寺之内下る(室町小学校内),35.01592,135.45287,
KA106,是より洛中碑,上京区堀川通上御霊上る東側(水火天満宮境内),35.02103,135.45067,
KA107-1,是より洛中碑,上京区御前通一条下る(仁和小学校内),35.01286,135.44109,
KA107-2,是より洛中碑,上京区御前通一条下る(仁和小学校内),35.01286,135.44109,
KA107-3,是より洛中碑,上京区御前通一条下る(仁和小学校内),35.01293,135.44107,
KA108,近衛家旧邸跡,上京区新町通今出川上る(同志社大学新町校舎内),35.01518,135.45219,
KA109,中立小学校・中立幼稚園開校・閉校紀念碑,上京区中立売通新町角(新町小学校内),35.01305,135.45229,
KA110,諸侯屋敷・一条下り松遺跡,上京区一条通堀川東入北側,35.01348,135.45103,
KA111,待賢門跡,上京区猪熊通下立売下る西側,35.011,135.45015,
KA112,祐井碑,上京区京都御苑(中山家旧宅邸内),35.01401,135.45525,
KA113,四海唱導之霊蹟,上京区寺之内通小川東入北側(妙顕寺内),35.02024,135.45162,
KA114,旧京都市立二条高等女学校跡,上京区主税町(二条中学校内),35.00552,135.44428,
KA115,宴松原,上京区七番町,35.01175,135.44272,
KA116,菩提所泉妙院【道標】,上京区寺之内通小川東入北側(妙顕寺前),35.02013,135.45162,
KA117,幸神社【道標】,上京区寺町通今出川上る東側,35.01499,135.46037,
KA118,検非違使庁址,上京区葭屋町通出水上る西側,35.01181,135.45039,
KA119,源義経奥州首途地,上京区智恵光院通今出川上る西側(首途八幡宮内),35.01493,135.44484,
KA120,不焼寺記,上京区五辻通智恵光院西入(本隆寺内),35.01538,135.44473,
KA121,千利休居士聚楽屋敷趾,上京区葭屋町通一条上る(晴明神社内),35.01396,135.45046,
KA122,貽範碑,上京区京都御苑,35.01117,135.454,
KA123,是より洛中碑,上京区五辻通七本松西入(翔鸞小学校内),35.01522,135.44173,
KA124,茶家山田宗■出生之寺,上京区西洞院通上長者町上る西側(長徳寺前),35.01262,135.45179,
KA125,平安宮一本御書所跡,上京区下立売通智恵光院西入北側,35.01123,135.44459,
KA126,平安宮内裏綾綺殿跡,上京区浄福寺通下立売上る東側,35.01141,135.44415,
KA127,平安宮内裏弘徽殿跡,上京区土屋町通出水下る東入北側,35.0115,135.44384,
KA128,赤穂義士四十六士遺髪塔跡,上京区堀川通紫明下る西側,35.02156,135.45055,
KA129,空爆被災を記録する碑,上京区下長者町通智恵光院北東角(辰巳児童公園内),35.01218,135.44484,
KA130,藤原頼長墓副碑,上京区相国寺門前町(相国寺総墓地内),35.01585,135.45387,
KA131,御土居,上京区寺町通広小路上る東側(廬山寺墓地内),35.01278,135.46077,
KA132,蔵人町屋跡,上京区下立売通浄福寺西入北側,35.01122,135.44378,
KA133,平安宮内裏承香殿跡,上京区浄福寺通出水下る西入北側,35.01151,135.44398,
KA134,聚楽第南外濠跡,上京区浄福寺通出水下る東入南側(松林寺前),35.01152,135.44453,
KA135,平安宮内裏宜陽殿跡,上京区浄福寺通下立売上る東側,35.0113,135.44415,
KA136,平安宮内裏昭陽舎跡,上京区浄福寺通出水下る東入北側,35.01152,135.44425,
KA137,霊光殿菅公千年祭記念碑,上京区新町通今出川下る西側(霊光殿天満宮内),35.01415,135.45206,
KA138,和魂漢才碑,上京区馬喰町(北野天満宮内),35.01524,135.44074,
KA139,和魂漢才碑,上京区馬喰町(北野天満宮内),35.01552,135.44043,
KA140,宋紫石竹画碑,上京区馬喰町(北野天満宮内),35.01508,135.4407,
KA141,平安宮大蔵省跡,上京区中立売通裏門西入南側,35.01295,135.44453,
KA142,筆塚碑,上京区馬喰町(北野天満宮内),35.01467,135.44067,
KA143,桂昌院殿生家菩提寺,上京区葭屋町通下立売上る西側(真敬寺前),35.01132,135.45042,
KA144,小松帯刀寓居参考地・近衛家堀川邸跡他,上京区一条通堀川東入南側,35.01343,135.4509,
KA145,禁門変長州藩殉難者墓所,上京区相国寺門前町(相国寺総墓地前),35.01587,135.45387,
KA146,西陣名技碑,上京区馬喰町(北野天満宮北門前),35.01558,135.44067,
KA147,松永君紀功碑,上京区馬喰町(北野天満宮北門前),35.01558,135.4406,
KA148,艸冢銘,上京区馬喰町(北野天満宮内),35.01524,135.44072,
KA149,北野会碑,上京区七本松通一条上る,35.01364,135.44118,
KA150,上杉景勝屋敷跡,上京区黒門通一条上る,35.01363,135.44591,
KA151,直江兼続・上杉景勝屋敷跡,上京区椹木町通葭屋町東入,35.01074,135.45044,
KA152,聚楽第址,上京区中立売通大宮北西角,35.01298,135.44562,
KA153,新建石鳥居碑,上京区七本松通一条上る,35.01364,135.44126,
KA154,名和長年公殉節地【道標】,所在不明(上京区中立売通大宮北西角),,,
KA155,十津川屋敷跡地,上京区下切通新烏丸東入北側,35.01071,135.46055,
KA156,初代上京区役所跡,上京区小川通中立売東南角,35.013,135.45156,
KA157,西陣大火犠牲者供養碑,上京区五辻通千本西入南側(三會寺内),35.01506,135.4429,
KA158,立入宗継旌忠碑,上京区寺町通広小路上る(清浄華院内),35.01314,135.46053,
KA159,石牛縁起碑,上京区馬喰町(北野天満宮内),35.01522,135.44073,
KA160,山名氏清碑,上京区五辻通六軒町西入北側(大報恩寺内),35.01533,135.44228,
KA161,菅原道真神製碑,上京区馬喰町(北野天満宮内),35.01452,135.44065,
KA162,豊臣秀勝邸跡伝承地,上京区土屋町通出水上る東側,35.01183,135.44383,
KA163,昭和十年水害浸水被害記念碑,上京区上立売通油小路西南角,35.0155,135.4512,
KA164,二条家邸跡,上京区今出川通寺町西入二丁目北側(同志社女子大学東門前),35.01452,135.45581,
KA165,三条実美頌徳碑,上京区寺町通広小路上る西側(梨木神社内),35.01265,135.46024,
KA166,慶光天皇廬山寺陵【道標】,上京区寺町通広小路上る東側(廬山寺薬医門前),35.01276,135.46034,
KA167,廬山寺陵参道【道標】,上京区寺町通広小路上る東側(廬山寺内),35.01273,135.46052,
KA168,中山愛親表彰碑,上京区寺町通広小路上る東側(廬山寺墓地内),35.01293,135.46071,
KA169,中山家遠祖墳表記碑,上京区寺町通広小路上る東側(廬山寺墓地内),35.01293,135.46071,
KA170,中山家遠祖夫人霊名碑,上京区寺町通広小路上る東側(廬山寺墓地内),35.01293,135.46071,
KA171,清三宝大荒神尊,上京区荒神口通寺町東入南側(護浄院前),35.01167,135.46069,
KA172,出世稲荷跡,上京区千本通竹屋町下る東側,35.00558,135.44336,
KI001,牛若丸誕生井,北区紫竹牛若町,35.02551,135.44371,
KI002,牛若丸胞衣塚,北区紫竹牛若町,35.02554,135.44373,
KI003,春日潜庵邸址,所在不明(北区紫野雲林院町南側カ),,,
KI004,応仁永正戦跡舟岡山,北区紫野北舟岡町(船岡山公園内),35.02247,135.44302,
KI005,平安遊禽綿子池旧跡,北区大宮釈迦谷(尺八池南畔),35.03288,135.4402,
KI006,西園寺公邸址,北区衣笠氷室町(西園寺記念館内),35.02203,135.43377,
KI007,豊臣秀吉築造京都市街外郭御土居残墟,所在不明(北区北野紙屋川畔),,,
KI008,北野廃寺跡,北区北野上白梅町,35.0139,135.43541,
KI009,源義経産湯井遺址,北区紫竹牛若町,35.02513,135.44419,
KI010,長州人首塚碑,北区鞍馬口通寺町東入北側(上善寺内),35.02163,135.45479,
KI011,蓮月尼旧栖茶所,北区西賀茂神光院町(神光院内),35.03357,135.44367,
KI012,御土居,北区鷹峯旧土居町,35.02447,135.44095,
KI013,皇后陛下御野立所,北区大将軍坂田町(花園団地東北隅),35.01335,135.433,
KI014,京都工芸繊維大学繊維学部発祥地,北区大将軍坂田町(花園団地東北隅),35.01334,135.43298,
KI015,御土居,北区平野鳥居前町,35.01599,135.44057,
KI016,建勲神社本殿真御柱跡,北区紫野北舟岡町(建勲神社内),35.02171,135.44404,
KI017,岩倉具視公旧蹟,北区西賀茂北今原町(霊源寺前),35.03542,135.44231,
KI018,御土居,北区紫竹上堀川町,35.03191,135.45048,
KI019,寸松庵・梅巌庵趾,北区紫野大徳寺町(狐篷庵附近),35.02365,135.44216,
KI020,大光院趾・瑞源院趾,北区紫野大徳寺町(紫野高校附近),35.02376,135.44287,
KI021,金龍院趾,北区紫野大徳寺(紫野高校テニスコート南東角),35.02368,135.44321,
KI022,御土居,北区鷹峯旧土居町,35.02592,135.4406,
KI023,出雲路鞍馬口,北区出雲路立テ本町(出雲路橋東詰),35.02178,135.45556,
KI024,平野・金閣寺【道標】,北区北野上白梅町,35.01417,135.43582,
KI025,等持寺・竜安寺道【道標】,北区平野鳥居前町,35.01487,135.43588,
KI026,わら天神道【道標】,北区衣笠高橋町,35.02086,135.44011,
KI027,今宮神社参拝道【道標】,北区紫野南舟岡町,35.02143,135.44421,
KI028,花山天皇陵参道【道標】,北区衣笠北高橋町,35.02099,135.44012,
KI029,金閣寺・嵐山道【道標】,北区平野八丁柳町,35.01523,135.43462,
KI030,花山天皇陵参道【道標】,北区平野宮本町,35.01488,135.43588,
KI031,等持院・竜安寺・御室方面【道標】,北区等持院東町,35.0145,135.43397,
KI032,足利家菩提所等持院【道標】,北区等持院東町,35.0145,135.43397,
KI033,後朱雀天皇陵参道【道標】,北区小松原北町,35.0148,135.43397,
KI034,愛宕山十六里【道標】,所在不明(北区小松原北町カ),,,
KI035,花山天皇陵・二条天皇陵参道【道標】,北区北野東紅梅町,35.01418,135.43584,
KI036,三条天皇陵参道【道標】,所在不明(北区衣笠御所ノ内町カ),,,
KI037,霊源寺【道標】,所在不明(北区西賀茂角社町カ),,,
KI038,雲ヶ畑の道標【道標】,北区雲ヶ畑出谷町,35.0729,135.4252,
KI039,丹波道【道標】,所在不明(北区雲ヶ畑出谷町カ),,,
KI040,今宮・大徳寺・北野・金閣寺【道標】,北区紫竹上竹殿町(三叉路),35.03111,135.44527,
KI041,源頼光朝臣塚,北区紫野十二坊町(上品蓮台寺内),35.02212,135.44189,世界測地系の座標値は現地で再測定
KI042,神光院【道標】,所在不明(北区西賀茂角社町カ),,,
KI043,岩倉・木野・鞍馬【道標】,北区上賀茂深泥池町,35.03264,135.45597,
KI044,植物園北遺跡,北区上賀茂松本町,35.03098,135.46005,
KI045,京都特産すぐき発祥地,北区上賀茂土門町(穂根束児童公園内),35.03196,135.45476,
KI046,地蔵尊岩倉道【道標】,北区上賀茂狭間町,35.03311,135.4559,
KI047,地蔵尊京道【道標】,北区上賀茂狭間町,35.03309,135.4559,
KI048,弘法大師道【道標】,北区大宮中ノ社町,35.03299,135.44487,
KI049,氷室跡,北区西賀茂氷室町,35.05059,135.43119,
KI050,船岡山,北区紫野北舟岡町(建勲神社南参道),35.02174,135.44388,
KI051,西賀茂弘法大師道【道標】,北区紫野西泉堂町,35.02573,135.4428,
KI052,真珠庵・大仙院・芳春院【道標】,北区紫野大徳寺町(大徳寺内),35.02371,135.44443,
KI053,今宮参道【道標】,北区紫野大徳寺町(大徳寺内),35.02362,135.44392,
KI054,鷹峰光悦寺道【道標】,北区衣笠馬場町,35.02218,135.43549,
KI055,三条天皇北山陵参道【道標】,北区衣笠馬場町,35.02218,135.43549,
KI056,立命館大学理工学部発祥地,北区等持院北町(立命館大学修学館前),35.01566,135.43289,
KI057,新村出博士旧宅,北区小山中溝町,35.02179,135.45256,
KI058,下賀茂社へ五町【道標】,北区出雲路立テ本町(出雲路橋西詰),35.02169,135.4556,
KI059,上賀茂へ八丁【道標】,北区紫竹下竹殿町(久我神社前),35.03075,135.44516,
KI060,御土居,北区紫野西土居町,35.02106,135.44103,
KI061,御土居,北区大宮土居町,35.03062,135.44261,
KI062,師範桜碑,北区出雲路立テ本町(出雲路橋西詰),35.02176,135.45556,
KI063,参議小野公塋域碑,北区紫野西御所田町,35.02223,135.45048,
KI064,和香水銘,北区杉坂道風町(道風神社内),35.05144,135.42259,
KI065,夜泣塚地蔵尊【道標】,北区小山南大野町,35.02255,135.45262,
KI066,御室嵯峨道【道標】,北区衣笠天神森町(わら天神宮内),35.02105,135.43538,
KI067,新織繻子碑,北区紫野今宮町,35.02444,135.44354,
KI068,稲田玉鳳翁碑,北区紫野今宮町(今宮神社内),35.02444,135.44302,
KI069,鷹ヶ峰薬園跡,北区鷹峰藤林町,35.02527,135.44112,
KI070,常盤井碑,北区紫野下築山町,35.02219,135.4448,
KI071,本尊美君碑,北区西賀茂鎮守菴町(西方寺内),35.03319,135.44239,
KI072,蓮月尼碑,北区西賀茂神光院町(神光院内),35.03355,135.44368,
KI073,故蓮月尼紀念碑,北区西賀茂鎮守菴町(西方寺内),35.03321,135.4424,
KI074,金閣寺道／愛宕道【道標】,北区小山板倉町(今宮通新町東入北側),35.02471,135.45192,
KI075,洛北中部五地区土地区画整理碑,北区小山初音町(紫野柳児童公園内),35.02405,135.45146,
KI076,池田新兵衛・舩越嘉右衛門表彰碑,北区小山初音町(紫野柳児童公園内),35.02406,135.45148,
KI077,本阿弥光悦翁屋敷跡,北区鷹峯南鷹峯町,35.03097,135.43594,
KI078,本阿弥光悦翁旧蹟,北区鷹峯光悦町(光悦寺前),35.03148,135.4349,
MI001,硯の水,南区吉祥院政所町(吉祥院天満宮内),34.58247,135.44041,
MI002,綜芸種智院蹟,南区西九条池ノ内町(西福寺前),34.58587,135.45087,
MI003,西寺阯,南区唐橋西寺町(西寺児童公園内),34.58504,135.44159,
MI004,羅城門遺址,南区唐橋羅城門町(花園児童公園内),34.58454,135.44333,
MI005,北政所吉祥女住所蹟,南区吉祥院政所町(吉祥院天満宮参道入口),34.58216,135.44075,
MI006,円光大師法然上人光明橋趾,南区東九条上御霊町(九品寺前),34.58488,135.4545,
MI007,平安京東洞院大路東側溝跡,南区東九条南山王町(京都市南図書館内),34.58517,135.45405,
MI008,西寺大炊殿跡,南区唐橋西寺町,34.58541,135.44142,
MI009,鑑井銘,南区吉祥院政所町(吉祥院天満宮内),34.58231,135.44068,
MI010,苅萓道心旧跡,南区上鳥羽鍋ヶ淵町(誓祐寺前),34.57413,135.44316,
MI011,菅公御誕生地,南区吉祥院政所町(吉祥院天満宮内),34.58236,135.44063,
MI012,菅原院南庭七男畠蹟,南区吉祥院政所町(吉祥院天満宮内),34.58232,135.44047,
MI013,柳谷観世音菩薩【道標】,南区唐橋羅城門町(矢取地蔵前),34.58449,135.44332,
MI014,吉祥院天満宮への道【道標】,南区上鳥羽唐戸町,34.58244,135.44326,
MI015,愛宕道【道標】,南区上鳥羽山ノ本町,34.5753,135.44234,
MI016,菅原清公卿御墳墓通路【道標】,南区吉祥院稲葉町,34.5805,135.44186,
MI017,蔵王権現道【道標】,南区久世上久世町(蔵王堂前),34.57598,135.42532,
MI018,西寺旧跡,南区唐橋平垣町(西寺前),34.58549,135.44099,
MI019,西国街道【道標】,南区久世川原町,34.57488,135.43154,
MI020,東寺へ十八丁【道標】,南区吉祥院西浦町,34.58245,135.43457,
MI021,宇賀神社参道【道標】,南区東九条中札辻町,34.58339,135.45428,
MI022,奥田穂碑,南区吉祥院政所町(吉祥院天満宮内),34.58228,135.44033,
MI023,恋塚碑,南区上鳥羽岩ノ本町(浄禅寺内),34.57303,135.44353,
MI024,仏頂尊勝陀羅尼碑,南区九条町(東寺内),34.58528,135.44481,
MI025,教王護国寺境内,南区九条町(東寺東門前),34.58547,135.44563,
MI026,都城六勇士殉難記命碑,南区唐橋井園町(狐塚墓地内),34.59008,135.44239,
MI027,天神川改修碑,南区吉祥院東浦町,34.58132,135.44198,
MI028,平重衡受戒地,南区西九条池之内町,34.59029,135.45128,
MI029,上鳥羽村道路元標,南区上鳥羽城ヶ前町(JA京都市・上鳥羽支店内),34.57493,135.44329,
NA001,中沼了三先生講書所,中京区烏丸通夷川下る東側,35.00533,135.45352,
NA002,梅田雲浜邸址,中京区烏丸通御池上る東側,35.0041,135.45346,
NA003,少将井,所在不明(中京区烏丸通竹屋町下るカ),,,
NA004,東三条殿址,中京区押小路通釜座西北角,35.00438,135.45207,
NA005,豊臣秀吉妙顕寺城跡,中京区押小路通小川西入北側,35.00433,135.45132,
NA006,閑院内裏址,中京区押小路通小川西北角,35.00439,135.45143,
NA007,東町奉行所跡,中京区西ノ京職司町,35.00432,135.4449,
NA008,大学寮址,中京区西ノ京北聖町,35.00438,135.44424,
NA009,坂本龍馬寓居趾,中京区河原町通三条下る一筋目東入北側,35.00304,135.46116,
NA010,後藤象二郎寓居址,所在不明(中京区河原町通三条下る二筋目東入カ),,,
NA011,坂本龍馬・中岡慎太郎遭難地,中京区河原町通四条上る西側,35.0019,135.46098,経度疑義あり
NA012,中岡慎太郎寓居地,中京区河原町通四条上る東側,35.00167,135.46073,
NA013,明治天皇行幸所織工場阯,中京区河原町通二条下る東側(日本銀行京都支店前),35.00444,135.46079,
NA014,在原業平邸址,中京区間之町通御池下る東側,35.00382,135.45422,
NA015,中山内府威蹟地,中京区岩上通蛸薬師上る西側(中山神社前),35.00242,135.45038,
NA016,木下順庵邸址,中京区錦小路通烏丸西入南側,35.0018,135.45322,
NA017,浅見絅斎邸址,中京区錦小路通高倉西入南側,35.0018,135.45446,
NA018,四条坊門小路跡,中京区壬生馬場町(壬生坊城団地前),35.00219,135.4445,
NA019,藤本鉄石寓居址,中京区御幸町通三条上る東側,35.00329,135.45594,
NA020,明治天皇行幸所勧業場阯,中京区御池通河原町東入(京都ホテルオークラ前),35.00402,135.46105,
NA021,長州屋敷址,中京区御池通河原町東入(京都ホテルオークラ前),35.00406,135.46106,
NA022,足利尊氏邸・等持寺跡,中京区御池通高倉上る東側(保事協会館前),35.00416,135.45446,
NA023,弘文院址,中京区御池通千本東入北側,35.00395,135.44409,
NA024,療病院址,中京区御池通木屋町東入北側(御池大橋西詰),35.00399,135.46162,
NA025,菁々塾跡,中京区高倉通錦小路上る東側,35.00208,135.45452,
NA026,尊攘堂址,所在不明(中京区高倉通錦小路上るカ),,,
NA027,石田梅巌邸址,中京区堺町通蛸薬師上る東側,35.00235,135.45479,
NA028,三条烏丸御所跡,中京区三条通烏丸西入南側,35.00316,135.45319,
NA029,正五位長尾郁三郎武雄旧邸,中京区三条通西洞院西入南側,35.00312,135.45168,
NA030,奨学院址,中京区西ノ京南聖町,35.00316,135.44343,
NA031,西川耕蔵邸址,中京区三条通富小路西入北側,35.00311,135.45516,
NA032,勧学院址,中京区西ノ京勧学院町,35.00314,135.44403,
NA033,池田屋騒動址,中京区三条通木屋町西入北側,35.00328,135.46113,
NA034,朱雀院跡,中京区壬生花井町(日本写真印刷中央研究所内),35.00132,135.44222,
NA035,三条東殿遺址,中京区姉小路通烏丸東入南側,35.00324,135.45358,
NA036,高松殿址,中京区姉小路通釜座東入北側(高松神明社前),35.00354,135.45217,
NA037,橘逸勢邸址,中京区姉小路通東堀川東入上る東側,35.0035,135.45094,
NA038,横井小楠殉節地,中京区寺町通丸太町下る東側,35.01013,135.46018,
NA039,間部詮勝寓居跡,中京区寺町通二条下る東側,35.00447,135.46019,
NA040,藤原定家京極邸址,中京区寺町通二条上る西側,35.00503,135.46022,経度疑義あり
NA041,二条殿御池跡,中京区室町通押小路下る東側,35.00418,135.45285,
NA042,望月玉泉居住地,中京区室町通丸太町下る西側,35.01018,135.45286,
NA043,大黒庵武野紹鴎邸址,中京区室町通四条上る東側,35.00157,135.45277,
NA044,新宮凉亭居住地,中京区室町通竹屋町下る東側(路地奥),35.00566,135.45293,
NA045,森寛斎宅蹟,中京区室町通二条下る東側,35.00458,135.46289,
NA046,山脇東洋解剖碑所在墓地,中京区新京極通三条下る東入(誓願寺墓地入口),35.00289,135.4606,
NA047,林道春邸址,所在不明(中京区新町通錦小路上るカ),,,
NA048,肥前鹿島鍋島藩屋敷跡,中京区新町通御池西南角,35.00385,135.4523,
NA049,二条城撮影所跡,中京区西ノ京北聖町,35.00447,135.44424,
NA050,茶人珠光・織田信雄・加藤清正・紀州藩邸古蹟,中京区西洞院通三条下る東側,35.00278,135.45196,
NA051,平安京大内裏朱雀門址,中京区西ノ京小堀町,35.00495,135.44331,
NA052,西町奉行所跡,中京区西ノ京北聖町(中京中学校前),35.00451,135.44334,
NA053,南蛮寺跡,中京区蛸薬師通室町西入北側,35.00218,135.45268,
NA054,本能寺址,中京区蛸薬師通小川西南角,35.0022,135.45158,
NA055,冷然院跡,中京区竹屋町通堀川西入(二条城北側),35.00566,135.45039,
NA056,木戸孝允旧跡,中京区土手町通竹屋町下る(石長本館松菊園前),35.00545,135.46105,
NA057,日本最初盲唖院開学地,中京区東洞院通押小路下る東側,35.0042,135.45389,
NA058,岸駒居住地,中京区東洞院通丸太町下る東側,35.01017,135.4539,
NA059,呉春宅址,中京区東洞院通錦小路上る西側,35.00202,135.45406,
NA060,高倉宮趾,中京区東洞院通姉小路下る(こども相談センターパトナ前),35.00348,135.45398,
NA061,明治天皇行幸所上京第二十九組小学校,中京区東洞院通姉小路下る(こども相談センターパトナ前),35.00348,135.45398,
NA062,吉益東洞宅蹟,中京区東洞院通竹屋町下る東側(竹間公園内),35.00567,135.45398,
NA063,並河天民講学所堀木舎阯,中京区東堀川通丸太町上る東側,35.01037,135.45072,
NA064,藤堂藩藩邸跡,中京区東堀川通蛸薬師下る東側(堀川高校正門前),35.00186,135.45073,
NA065,橋本左内寓居跡,中京区東堀川通二条下る東側(京都国際ホテル跡),35.00489,135.4508,
NA066,松永昌三講習堂址,中京区東堀川通二条下る東側(ANAクラウンプラザホテル前),35.00461,135.45082,
NA067,二条富小路内裏址,中京区富小路通夷川下る西側(御所南小学校第二運動場前),35.00524,135.45537,
NA068,大炊御門万里小路殿址,中京区富小路通夷川上る西側,35.00547,135.45542,
NA069,手島堵庵五楽舎址,中京区富小路通六角上る西側,35.0028,135.45532,
NA070,新選組遺蹟,中京区壬生梛ノ宮町,35.00079,135.44395,
NA071,堀河天皇里内裏跡,中京区堀川通二条下る東側(京都国際ホテル跡),35.00482,135.45079,
NA072,二之船入跡,中京区木屋町通御池上る西側,35.00407,135.46132,
NA073,水の堰止めの石,中京区木屋町通御池下る西側,35.00373,135.46134,
NA074,佐久間象山寓居址,中京区木屋町通御池下る東側,35.00359,135.46135,
NA075,加賀藩邸跡,中京区木屋町通御池西南角,35.00385,135.4614,
NA076,彦根藩邸跡,中京区木屋町通三条下る二筋目(山崎橋西詰),35.00256,135.4614,
NA077,三之船入跡,中京区木屋町通御池下る西側,35.00371,135.46135,
NA078,吉村寅太郎寓居址,中京区木屋町通三条上る東側,35.00348,135.46134,
NA079,迷子しるべ石,中京区新京極通三条下る(誓願寺前),35.00265,135.46031,
NA080,平安宮朝堂院跡,中京区丸太町通千本西入北側,35.01062,135.44316,
NA081,武市瑞山先生寓居跡,中京区木屋町通三条上る東側,35.00566,135.45293,
NA082,本間精一郎遭難地,中京区木屋町通四条上る東側,35.00206,135.46132,
NA083,土佐藩邸跡,中京区木屋町通蛸薬師西南角,35.00228,135.46136,
NA084,大村益次郎卿遭難碑,中京区木屋町通御池上る西側,35.00423,135.46132,
NA085,角倉氏邸址,中京区木屋町通二条下る西側,35.00452,135.46132,
NA086,象山先生遭難碑,中京区木屋町通御池上る西側,35.00422,135.46134,
NA087,兵部大輔大村益次郎公遺址,中京区木屋町通二条下る東側,35.00427,135.46134,
NA088,桂小五郎・幾松寓居跡,中京区木屋町通二条下る東側(旅館幾松前),35.00421,135.46135,
NA089,見真大師遷化旧跡,中京区柳馬場通御池上る東側(京都御池創生館前),35.0042,135.45504,
NA090,大老土井利勝屋敷跡,中京区油小路通下る西側(京都堀川音楽高校内),35.0042,135.45119,
NA091,福井藩邸址,中京区油小路通二条下る西側(京都国際ホテル跡),35.00471,135.45075,
NA092,越前藩京屋敷,所在不明(中京区油小路通二条下る西側カ),,,
NA093,徳川時代金座遺址,中京区両替町通押小路下る東側,35.00431,135.45338,
NA094,二条殿址,中京区両替町通御池上る東側,35.00413,135.45314,
NA095,徳川時代銀座遺址,中京区両替町通御池上る東側,35.0041,135.45309,
NA096,日本近代医学発祥地,中京区六角通神泉苑西入南側,35.00266,135.46134,
NA097,平野国臣外数十名終焉趾,中京区六角通神泉苑西入南側,35.00266,135.44479,
NA098,山脇東洋観臓地,中京区六角通神泉苑西入南側,35.00266,135.44479,
NA099,平安宮豊楽殿跡,中京区聚楽廻西町,35.01051,135.44242,
NA100,竹内式部寓居址,中京区麩屋町通丸太町西南角,35.01023,135.45568,
NA101,八文字屋自笑翁邸跡,中京区麩屋町通六角下る西側,35.00247,135.45561,
NA102,木戸孝允旧跡,中京区土手町通竹屋町下る(ホテルイシチョウ前),35.00559,135.46128,
NA103,明治天皇行幸所木戸邸,中京区土手町通竹屋町上る東入(京都市職員会館かもがわ前),35.00557,135.46131,
NA104,隼神社旧蹟,中京区壬生御所ノ内町,35.00216,135.44399,
NA105,明治天皇行幸所木戸邸,中京区土手町通竹屋町上る東入(木戸孝允旧邸内),35.00559,135.46145,
NA106,島津製作所創業地,中京区木屋町通二条下る西側(島津製作所創業記念資料館内),35.00456,135.46132,
NA107,新選組屯所遺蹟,中京区壬生梛ノ宮町,35.00079,135.44393,
NA108,一条革堂,中京区寺町通竹屋町下る東側(行願寺前),35.00581,135.45535,経度疑義あり
NA109,日本最初小学校柳池校,中京区柳馬場通御池上る東側(京都御池創生館前),35.00399,135.45506,
NA110,京都市立商業実修学校跡,中京区富小路通二条上る西側(御所南小学校第二運動場前),35.00505,135.45536,
NA111,堀川御池橋跡,中京区堀川通御池東北角,35.00408,135.45067,
NA112,旧二条離宮二条城,中京区堀川通御池上る西側(二条城大手門前),35.00457,135.45044,
NA113,富有小学校の碑,中京区富小路通竹屋町下る西側,35.00562,135.4554,
NA114,京都電信電話発祥の地,中京区三条通東洞院北西角,35.00311,135.45394,
NA115,柳池幼稚園記念碑,中京区柳馬場通御池上る東側(京都御池創生館前),35.00402,135.45506,
NA116,堀川高校専修夜間部跡,中京区柳馬場通御池上る東側(京都御池創生館前),35.00402,135.45506,
NA117,神泉苑東端線,中京区押小路通大宮交叉点北側,35.00436,135.44556,
NA118,柳の水,中京区西洞院通三条下る東側,35.00285,135.45188,
NA119,平安京朱雀大路と朱雀門,中京区西ノ京栂尾町(ＪＲ二条駅東口),35.00397,135.4431,
NA120,一遍上人念仏賦算遺跡,中京区新京極通四条上る西側,35.00131,135.4603,
NA121,竹間小学校・竹間幼稚園の碑,中京区東洞院通竹屋町下る東側(竹間児童公園内),35.00562,135.45393,
NA122,若狭小浜藩邸跡,中京区西ノ京池ノ内町,35.00395,135.44463,
NA123,角倉了以別邸跡,中京区木屋町通二条下る東側,35.00452,135.46138,
NA124,高瀬川一之船入,中京区木屋町通二条下る西側,35.00441,135.46134,
NA125,薩摩屋敷址,中京区東洞院通錦小路下る東側,35.00166,135.45397,
NA126,日彰校記念碑,中京区高倉通六角下る西側(高倉小学校前),35.00248,135.45448,
NA127,新長谷寺古跡,中京区西ノ京中保町,35.01154,135.43489,
NA128,是より洛中碑,中京区木屋町通二条下る西側(日本銀行京都支店内),35.00442,135.46123,
NA129,佐久間象山・大村益次郎遭難碑北へ約一町【道標】,中京区三条通木屋町北西角,35.00321,135.46131,
NA130,膳所・大津道【道標】,中京区土手町通夷川北西角,35.00564,135.46118,
NA131,烏丸御池遺跡・平安京跡,中京区烏丸通御池北東角,35.00393,135.4536,
NA132,二条城二之丸庭園,中京区二条城町(二条城二の丸庭園内),35.00477,135.4459,
NA133,二条城二之丸庭園,中京区二条城町(二条城二の丸庭園内),35.00474,135.44582,
NA134,旧二条離宮二条城,中京区二条城町(二条城東大手門西側),35.00463,135.45032,
NA135,都太夫一中発祥地,中京区御池通堺町東入北側(明福寺内),35.00399,135.45481,
NA136,辨慶石,中京区三条通麩屋町東入北側,35.00313,135.45573,
NA137,御土居,中京区西ノ京原町(市五郎大明神内),35.00437,135.43581,
NA138,壺井地蔵尊,中京区西ノ京北壺井町,35.00573,135.43478,
NA139,壺井茶所,中京区西ノ京北壺井町,35.0057,135.43441,
NA140,大和街道【道標】,中京区壬生神明町,35.00241,135.44177,
NA141,尼ヶ池地蔵尊【道標】,中京区壬生天池町,35.00263,135.44217,
NA142,御鎮座旧跡,中京区木屋町通二条下る東側,35.00437,135.46141,
NA143,いけばな発祥の地,中京区六角通烏丸東入(六角堂内),35.00275,135.45377,
NA144,日扇聖人降誕之地,中京区蛸薬師通室町西入南側(誕生寺前),35.00193,135.45269,
NA145,長松清風大徳誕生地,中京区蛸薬師通室町西入南側(誕生寺前),35.00212,135.45275,
NA146,平安宮造酒司倉庫跡,中京区丸太町通七本松西入北側(京都アスニー内),35.01084,135.44174,
NA147,平安宮造酒司倉庫跡,中京区丸太町通七本松西入北側(京都アスニー内),35.01083,135.44174,
NA148,施薬院協会跡,中京区丸太町通七本松西入北側(京都アスニー内),35.01085,135.44174,
NA149,本能寺跡,中京区油小路通蛸薬師下る東側(本能特別養護老人ホーム前),35.00214,135.45132,
NA150,本能校跡,中京区油小路通蛸薬師下る東側(本能特別養護老人ホーム前),35.00204,135.45132,
NA151,神泉苑西端線,中京区押小路通美福東入北側,35.00442,135.44455,
NA152,京都市道路元標,中京区三条通烏丸東南角,35.00309,135.4535,
NA153,島津製作所創業記念碑,中京区木屋町通二条下る西側(島津製作所創業記念資料館内),35.00456,135.46128,
NA154,平安宮西限藻壁門跡,中京区西ノ京左馬町(朱雀第二小学校内),35.01066,135.44103,
NA155,山崎闇斎祠堂碑,中京区寺町通丸太町下る東側(下御霊神社内),35.01014,135.46024,
NA156,坂本龍馬妻お龍実家楢崎家跡,中京区柳馬場通三条下る東側,35.00294,135.45505,
NA157,尼ヶ池旧跡,中京区壬生天池町(福田寺内),35.00262,135.44242,
NA158,木戸孝允邸址,中京区土手町通竹屋町上る東入(京都市職員会館かもがわ内),35.00563,135.46142,
NA159,坂本龍馬妻お龍寓居跡,中京区木屋町通六角下る東側(高瀬川山崎橋東詰下る),35.00264,135.46129,
NA160,五之舟入址,中京区木屋町通三条下る西側,35.00298,135.46136,現地再測定
NA161,六之舟入址,中京区木屋町通山崎橋下る西側,35.00266,135.46139,現地再測定
NA162,七之舟入址,中京区木屋町通蛸薬師橋下る西側,35.00225,135.46132,
NA163,八之舟入址,中京区木屋町通紙屋橋上る西側,35.00196,135.46131,
NA164,九之舟入址,中京区木屋町通四条上る西側,35.00161,135.46135,
NA165,京都種痘術創始五十年紀念碑,中京区西ノ京栂尾町(京都府医師会館内),,,
NA166,京都市営交通事業記念碑,中京区壬生坊城町(みぶ操車場前),35.00214,135.4445,
NA167,前田又吉銅像記碑,中京区押小路通河原町東入南側(京都ホテルオークラ通用口前),35.00436,135.46114,
NA168,又吉泉記碑,中京区押小路通河原町東入南側(京都ホテルオークラ通用口前),35.00434,135.46114,
NA169,往来安全灯【道標】,中京区麩屋町通六角東北角,35.00266,135.45566,
NA170,石田梅岩心学講舎跡,中京区車屋町通御池上る東側,35.00418,135.4537,
NI001,勤王家殉難地,西京区樫原宇治井町,34.58284,135.41379,
NI002,興産紀功碑,西京区大原野上羽町(JA京都研修センター内),34.56463,135.41374,
NI003,一ノ井堰碑,西京区嵐山西一川町,35.00401,135.40428,
NI004,道昌大僧正遺業大堰,西京区嵐山上河原町(京都府嵐山公園管理事務所隣接河畔),35.00417,135.40455,
NI005,大倭国讃葛野聖地,西京区嵐山虚空蔵山町(法輪寺内),35.00356,135.40408,
NI006,西行法師旧跡,西京区嵐山山田町(西光院前),35.00271,135.40512,
NI007,大悲閣道【道標】,西京区嵐山元禄山町,35.00578,135.39595,
NI008,大悲閣道【道標】,西京区嵐山元禄山町,35.0043,135.40305,
NI009,西行桜跡・松尾神社・西芳寺林泉道【道標】,西京区嵐山中尾下町,35.00364,135.40434,
NI010,西芳寺南へ二十町【道標】,西京区嵐山中尾下町,35.0041,135.4038,
NI011,西芳寺南へ五町【道標】,西京区嵐山宮ノ前町,35.00009,135.41148,
NI012,西山御坊・善峯・大原野・岩蔵【道標】,西京区川島北裏町,34.584,135.42213,
NI013,西山久遠寺道【道標】,西京区川島北裏町(西山幼稚園前),34.58407,135.42148,
NI014,京都第五中学校記念碑,西京区上桂森上町(桂中学校前),34.59194,135.41415,
NI015,是より東　山城国【道標】,西京区大枝沓掛町(首塚東側),34.59124,135.382,
NI016,桓武天皇御母御陵参道【道標】,西京区大枝沓掛町,34.58402,135.3936,
NI017,孝子儀兵衛翁旧趾,西京区川島粟田町,34.58352,135.41579,
NI018,大原野神社鳥居跡,西京区大原野南春日町,34.57178,135.39571,
NI019,樫原廃寺跡,西京区樫原内垣外町,34.58141,135.41273,
NI020,仏頂国師旧跡【道標】,西京区樫原内垣外町(洞雲禅寺前),34.58167,135.41245,
NI021,維新勤王志士墓在此丘上【道標】,西京区樫原秤谷町,34.58215,135.4108,
NI022,松尾嵐山道【道標】,西京区樫原上ノ町(三ノ宮神社前),34.58267,135.41196,
NI023,天皇の杜古墳,西京区御陵塚ノ越町,34.58398,135.41202,
NI024,天皇ノ杜古墳,西京区御陵塚ノ越町,34.58386,135.41209,
NI025,孝子儀兵衛翁之墓【道標】,西京区川島北裏町,34.58403,135.42231,
NI026,孝子儀兵衛翁墓参道【道標】,西京区川島玉頭町,34.58352,135.41112,
NI027,押見宿祢霊社遺跡碑,西京区松室山添町(月読神社内),34.59483,135.41112,
NI028,地蔵院【道標】,西京区松室地家町,34.59315,135.41097,
NI029,西芳寺・桂・川岡方面【道標】,西京区松尾井戸町,34.59357,135.41237,
NI030,西芳寺【道標】,西京区松尾井戸町,34.59356,135.41239,
NI031,浄住寺【道標】,西京区松尾上ノ山町,34.59256,135.41241,
NI032,向日町・光明寺・長岡道【道標】,西京区大原野南春日町,34.57267,135.39367,
NI033,よし峯・岩くら【道標】,西京区大原野南春日町,34.57236,135.39311,
NI034,参陵道【道標】,西京区大原野南春日町,34.57236,135.39311,
NI035,淳和天皇御陵道【道標】,西京区大原野南春日町,34.57304,135.39167,
NI036,淳和天皇御陵道【道標】,西京区大原野灰方町,34.57093,135.40039,
NI037,善峯・岩倉道【道標】,西京区大原野南春日町,34.5721,135.39263,
NI038,長峰・阪本・灰谷・善峰【道標】,西京区大原野灰方町,34.57078,135.39257,
NI039,大原野寺【道標】,西京区大原野灰方町 ,34.57078,135.39257,
NI040,業平卿旧跡墳墓地,西京区大原野小塩町(十輪寺前),34.56398,135.39257,
NI041,業平朝臣塩汲道古跡,西京区大原野小塩町,34.56392,135.39306,
NI042,妙見道【道標】,西京区大原野石作山地,34.56449,135.39483,
NI043,孝子儀兵衛碑,西京区川島玉頭町(冷聲院内),34.5827,135.42062,
NI044,中路亨表彰碑,西京区桂御園(桂大橋西詰北側),34.59,135.42421,
NI045,義民市原清兵衛君碑,西京区嵐山宮ノ前町,35.0001,135.41147,
NI046,洛西用水竣工記念碑,西京区嵐山宮ノ前町,35.00008,135.41146,
NI047,松尾村道路元標,西京区嵐山宮ノ前町,35.00009,135.41148,
NI048,大原野村道路元標,西京区大原野灰方町,34.57093,135.40039,
NI049,善行碑,西京区川島滑樋町(川岡小学校内),34.58344,135.42138,
SA001,鬼一法眼古跡,左京区鞍馬本町(鞍馬小学校横),35.06204,135.45512,
SA002,宮本・吉岡決闘地,左京区一乗寺花ノ木町,35.02375,135.47366,経緯度疑義あり
SA003,大楠公戦陣蹟,左京区一乗寺花ノ木町,35.02374,135.47368,経緯度疑義あり
SA004,一乗寺趾,左京区一乗寺灯篭本町(集会所内),35.02411,135.47393,
SA005,宮内少輔城址,左京区一乗寺堀ノ内町(民家前),35.02457,135.47403,
SA006,忠成公隠棲地,左京区一乗寺堀ノ内町,35.02492,135.47422,
SA007,梅田雲浜先生旧蹟,左京区一乗寺葉山町(葉山観音内),35.02463,135.47521,
SA008,全国水平社創立の地,左京区岡崎最勝寺町(ロームシアター京都内),35.00516,135.46522,
SA009,楠部弥弌作陶地,左京区岡崎円勝寺町,35.00408,135.46563,
SA010,会津藩殉難者墓地,左京区黒谷町(金戒光明寺前),35.01051,135.47091,
SA010-10,会津墓地参道【道標】,左京区黒谷町(金戒光明寺墓地内),35.01112,135.47214,
SA010-11,会津墓地参道【道標】,左京区黒谷町(金戒光明寺墓地内),35.0111,135.4722,
SA010-12,会津墓地参道【道標】,左京区黒谷町(金戒光明寺墓地内),35.01113,135.4722,
SA010-13,会津墓地参道【道標】,左京区黒谷町(金戒光明寺墓地内),35.01112,135.47229,
SA010-2,会津墓地参道【道標】,左京区黒谷町(金戒光明寺内),35.0105,135.47118,
SA010-3,会津墓地参道【道標】,左京区黒谷町(金戒光明寺内),35.01048,135.47139,
SA010-4,会津墓地参道【道標】,左京区黒谷町(金戒光明寺内),35.01068,135.47152,
SA010-5,会津墓地参道【道標】,左京区黒谷町(金戒光明寺蓮池極楽橋前),35.01068,135.47171,
SA010-6,会津墓地参道【道標】,左京区黒谷町(金戒光明寺墓地入口),35.01073,135.47187,
SA010-7,会津墓地参道【道標】,左京区黒谷町(金戒光明寺墓地入口),35.01073,135.47187,
SA010-8,会津墓地参道【道標】,左京区黒谷町(金戒光明寺墓地内),35.01077,135.47205,
SA010-9,会津墓地参道【道標】,左京区黒谷町(金戒光明寺墓地内),35.01077,135.47205,
SA011,香川景樹宅址,左京区岡崎東福ノ川町,35.01089,135.47042,
SA012,法勝寺九重塔址,左京区岡崎法勝寺町(京都市動物園内),35.0046,135.47098,
SA013,白河院跡,左京区岡崎法勝寺町,35.00477,135.47162,
SA014,明治天皇御駐輩所寒天製造場阯,左京区下鴨宮河町,35.01042,135.46205,
SA015,小沢蘆庵宅址,左京区岡崎入江町,35.01019,135.47043,緯度疑義あり
SA016,蒲生君平先生仮寓御趾,左京区岡崎入江町,35.01019,135.47043,緯度疑義あり
SA017,白河北殿址,左京区丸太町通東大路西入南側(京都大学熊野寮内),35.01026,135.46323,
SA018,岩倉具視幽棲旧宅,左京区岩倉上蔵町,35.04416,135.46579,
SA019,解脱寺閼伽井碑,左京区岩倉長谷町,35.04535,135.47371,
SA020,朗詠谷,左京区岩倉長谷町朗詠谷,35.05057,135.47406,
SA021,京都名水中川の井,左京区岩倉幡枝町(妙満寺内),35.04039,135.46294,
SA022,八ツ橋発祥地,左京区聖護院山王町(熊野神社内),35.01034,135.46414,
SA023,後花園天皇御遺蹟地,左京区若王子町(熊野若王子神社前),35.00555,135.47461,
SA024,此奥俊寛山荘地,左京区鹿ヶ谷桜谷町(霊鑑寺南),35.0113,135.47439,
SA025,親鸞聖人御旧跡きらら坂,左京区修学院音羽谷,35.03057,135.48154,
SA026,千種忠顕卿戦死の地,左京区修学院音羽谷,35.03498,135.49097,
SA027,水飲対陣跡,左京区修学院音羽谷,35.03195,135.48475,
SA028,雲母寺跡,左京区修学院音羽谷,35.03074,135.48162,
SA029,小野毛人朝臣墓,左京区上高野西明寺山,35.03577,135.48052,
SA030,第一世本因坊算砂旧跡,左京区仁王門通東大路西入南側(寂光寺前),35.0043,135.46387,
SA031,剣聖内藤高治先生顕彰碑,左京区聖護院円頓美町(旧武徳殿内),35.00593,135.46497,
SA032,藤原惺窩市原山荘跡,左京区静市市原(北市原第二児童公園内),35.05178,135.45215,
SA033,梁川星巌邸址,左京区川端通丸太町上る東側,35.01069,135.46208,
SA034,熊谷直実腰掛石・鉈捨藪,左京区大原勝林院町(朱明橋畔),35.07128,135.50024,
SA035,御庵室遺蹟,左京区大原草生町(寂光院内),35.07272,135.49167,
SA036,吉田泉殿跡,左京区吉田泉殿町,35.01425,135.46445,
SA037,最勝寺跡,所在不明(岡崎最勝寺町カ),,,
SA038,延勝寺跡,左京区岡崎成勝寺町(疏水畔),35.00451,135.46474,
SA039,延勝寺跡,左京区岡崎成勝寺町(京都市勧業館内),35.00482,135.46493,
SA040,成勝寺跡,左京区岡崎成勝寺町(京都市勧業館内),35.00484,135.46539,
SA041,尊勝寺跡,左京区岡崎最勝寺町(ロームシアター京都前),35.00496,135.4654,
SA042,円勝寺跡,左京区岡崎成勝寺町,35.00483,135.47018,
SA043,白幽子巌居蹟,左京区北白川清沢口町(瓜生山中),35.0218,135.48006,
SA044,照高院宮址,左京区北白川山ノ元町,35.02022,135.47443,
SA045,滅苦寺跡,左京区一乗寺樋ノ口町,35.02125,135.47304,
SA046,白河南殿跡,左京区聖護院蓮華蔵町,35.00556,135.46379,
SA047,得長寿院跡,左京区岡崎徳成町,35.00554,135.46432,
SA048,御所谷碑,左京区八瀬秋元町(八瀬天満宮裏),35.04575,135.49139,
SA049,寛平法皇御旧跡法皇寺,左京区南禅寺福地町(牧護庵境内),35.00421,135.473,
SA050,おぼろの清水,左京区大原草生町,35.07195,135.49298,
SA051,明治天皇行幸所牧畜場阯,左京区吉田下阿達町(京都大学稲盛財団記念館内),35.0118,135.46207,
SA052,第三高等学校基督教青年会館跡,左京区吉田河原町,35.01211,135.46219,
SA053,親鸞上人御草庵御旧跡,左京区岡崎天王町(岡崎別院内),35.01003,135.4718,
SA054,岡崎神社御旅所跡,左京区岡崎北御所町,35.01004,135.47088,
SA055,俊寛僧都故居碑,左京区岡崎法勝寺町(満願寺内),35.0053,135.47115,
SA056,大日本武徳会武道専門学校碑,左京区岡崎円頓美町(京都市武道センター内),35.01007,135.46513,
SA057,広池千九郎先生仮寓趾,左京区仁王門通川端東入(頂妙寺内),35.00428,135.46252,
SA058,聖護院旧仮皇居,左京区聖護院中町(聖護院前),35.01067,135.46487,
SA059,我邦尚歯会発祥地,左京区修学院開根坊町(赤山禅院前),35.03201,135.48012,
SA060,親鸞聖人御旧跡,左京区一乗寺薬師堂町(本願寺北山別院前),35.02331,135.47416,
SA061,諸九尼湖白庵・幻阿蝶夢五升庵址,左京区岡崎法勝寺町(白河院前),35.00485,135.47161,
SA062,石川丈山先生旧蹟【道標】,左京区修学院仏者町,35.03114,135.47481,
SA063,石川丈山翁旧跡,左京区一乗寺門口町(詩仙堂前),35.02406,135.47463,
SA064,岩倉具視公旧蹟九兵衛宅址,左京区岩倉花園町,35.04245,135.47374,
SA065,細井桜発祥地,左京区岩倉幡枝町(専修寺内),35.03545,135.46229,
SA066,真盛上人御旧跡,左京区八瀬秋元町(黒谷青竜寺前),35.04588,135.50035,
SA067,円光大師旧跡,左京区八瀬秋元町(黒谷青竜寺前),35.04588,135.50035,
SA068,後醍醐天皇御旧跡,左京区八瀬秋元町(八瀬八幡宮内),35.05009,135.49128,
SA069,大原小学校創立跡,左京区大原大長瀬町(左京消防署大原出張所前),35.06597,135.49426,
SA070,芹生神旧跡,左京区大原勝林院町(芹生神前),35.07371,135.49556,
SA071,権中納言敦忠・鷲尾家山荘跡,左京区一乗寺谷田町,35.02433,135.47384,
SA072,第一蹴の地,左京区下鴨泉川町(賀茂御祖神社内),35.02087,135.46198,
SA073,水力発電事業発祥地,左京区粟田口鳥居町(関西電力蹴上発電所内),35.00381,135.47177,
SA074,牧畜場記念碑,左京区吉田下阿達町(京都大学稲盛財団記念館内),35.0118,135.46207,
SA075,坂本・唐崎・白川道【道標】,左京区吉田本町,35.01315,135.46429,
SA076,三条大橋二十五町・祇園・清水【道標】,左京区北白川西町,35.0143,135.47086,
SA077,雲母道【道標】,左京区一乗寺谷田町(民家内),35.02433,135.47385,
SA078,浄土寺吉田方面【道標】,左京区銀閣寺町,35.01377,135.47501,
SA079,親鸞聖人御旧跡是より東一町【道標】,左京区一乗寺花ノ木町,35.02336,135.47375,
SA080,芭蕉菴・金福寺【道標】,左京区一乗寺花ノ木町,35.02336,135.47375,
SA081,詩仙堂・円光寺道【道標】,左京区一乗寺釈迦堂町,35.02391,135.47379,
SA082,狸谷不動明王道六町【道標】,左京区一乗寺釈迦堂町,35.02391,135.47379,
SA083,比叡山【道標】,左京区一乗寺釈迦堂町,35.02391,135.47379,
SA084,葉山馬頭観音・比叡山無動寺道【道標】,左京区一乗寺東浦町,35.02493,135.47413,
SA085,雲母坂千種忠顕卿遺跡是より三十町【道標】,左京区山端壱町田町,35.03025,135.47317,
SA086,林丘寺道【道標】,左京区修学院中新開,35.0311,135.47574,
SA087,赤山道【道標】,左京区修学院室町,35.03139,135.47536,
SA088,赤山禅院内の道標【道標】,左京区修学院開根坊町,35.03198,135.48007,
SA089,大黒天・稲荷社【道標】,左京区松ヶ崎東山(白雲稲荷神社前),35.03116,135.47115,
SA090,横川道【道標】,左京区八瀬秋元町(黒谷青竜寺前),35.04587,135.5003,
SA091,黒谷へ十二町【道標】,左京区八瀬秋元町(黒谷青竜寺から八瀬方面へ下りる山中),35.05141,135.49253,
SA092,元三大師道【道標】,左京区八瀬秋元町,35.0516,135.4917,
SA093,円光大師旧跡黒谷青龍寺是より十五町【道標】,左京区八瀬秋元町,35.0516,135.49172,
SA094,若狭道【道標】,所在不明(左京区大原戸寺町カ),,,
SA095,寂光院十八町【道標】,左京区大原戸寺町,35.06096,135.49272,
SA096,寂光院道【道標】,左京区大原井手町(宮川橋南詰),35.06318,135.49153,
SA097,寂光院・鞍馬道【道標】,左京区大原井手町(宮川橋南詰),35.06318,135.49253,
SA098,横川元三大師道【道標】,左京区大原上野町,35.06534,135.49401,
SA099,第二十一番札所勝林院【道標】,左京区大原大長瀬町,35.07004,135.49431,
SA100,魚山是より六町【道標】,左京区大原大長瀬町,35.07004,135.4943,
SA101,大原里の道【道標】,左京区大原来迎院町,35.07127,135.49482,
SA102,証拠の阿弥陀・若狭・古知谷道【道標】,左京区大原勝林院町,35.07109,135.49463,
SA103,寂光院【道標】,左京区大原来迎院町,35.07175,135.49451,
SA104,寂光院【道標】,左京区大原草生町,35.07123,135.49372,
SA105,寂光院【道標】,左京区大原草生町,35.07233,135.49218,
SA106,寂光院【道標】,左京区大原草生町,35.0709,135.49321,
SA107,寂光院【道標】,左京区大原草生町,35.07066,135.49331,
SA108,金毘羅・鞍馬道【道標】,所在不明(左京区大原井出町カ),,,
SA109,金毘羅山の町石・一町【道標】,左京区静市静原町(江文峠入口),35.06456,135.48289,
SA110,金毘羅山の町石・二町【道標】,左京区静市静原町(江文峠山中),35.06503,135.48303,
SA111,後鳥羽天皇・順徳天皇御陵参道【道標】,左京区大原勝林院町,35.07088,135.50016,
SA112,三千院道【道標】,左京区大原上野町,35.06465,135.49404,
SA113,惟喬親王御墓参道【道標】,左京区大原上野町,35.06399,135.49388,
SA114,惟喬親王御墓参道【道標】,左京区大原上野町,35.06401,135.49315,
SA115,古知谷阿弥陀寺本堂六町【道標】,左京区大原古知平町,35.08161,135.50056,
SA116,松ヶ崎・岩倉・赤山【道標】,所在不明(左京区下鴨松ノ木町カ),,,
SA117,松ヶ崎・山端方面【道標】,左京区松ヶ崎西町,35.03088,135.46397,
SA118,松ヶ崎・下鴨方面【道標】,左京区松ヶ崎東池ノ内町(末刀岩上神社前),35.03137,135.46379,
SA119,岩倉観音【道標】,左京区岩倉上蔵町,35.04352,135.47033,
SA120,観音道【道標】,左京区岩倉木野町(叡山電鉄木野駅前),35.04155,135.46303,
SA121,愛宕社【道標】,左京区岩倉木野町(叡山電鉄木野駅前),35.04155,135.46303,
SA122,鎮宅妙見道是より三町【道標】,左京区岩倉花園町,35.04188,135.47334,
SA123,岩倉公幽栖地【道標】,左京区岩倉上蔵町(実相院前),35.04438,135.46573,
SA124,観音道【道標】,左京区岩倉中町,35.04383,135.4721,
SA125,鞍馬道【道標】,左京区岩倉中在地町,35.04436,135.47075,
SA126,惺窩先生幽栖址是より西二町【道標】,左京区静市市原町,35.05139,135.45414,
SA127,観音道是より三町【道標】,左京区静市市原町,35.05142,135.45415,
SA128,帰雲院／永観堂・銀閣寺【道標】,左京区南禅寺福地町(南禅寺内),35.00418,135.47339,
SA129,金地院東照宮・蹴上大津行電車近道【道標】,左京区南禅寺福地町(金地院前),35.00355,135.47277,
SA130,黒谷／知恩院【道標】,左京区岡崎入江町,35.01062,135.47054,
SA131,真如堂・白川【道標】,左京区岡崎東福ノ川町(公安院内),35.01149,135.47102,
SA132,安楽寺・法然院・銀閣寺道【道標】,左京区鹿ヶ谷上宮ノ前町,35.0113,135.47379,
SA133,石川丈山先生旧蹟詩仙堂北十二町【道標】,左京区北白川東久保田町,35.0113,135.47287,
SA134,御所・両本願寺／下り松【道標】,左京区一乗寺花ノ木町,35.02379,135.47376,
SA135,蕪村翁再興芭蕉庵・金福寺【道標】,左京区一乗寺門口町,35.02384,135.47376,
SA136,円光寺【道標】,左京区一乗寺小谷町,35.02388,135.47447,
SA137,岩倉陵・実相院宮墓参道【道標】,左京区岩倉上蔵町,35.04455,135.46551,
SA138,大文字山【道標】,所在不明(左京区銀閣寺町カ),,,
SA139,新田・白川【道標】,所在不明(左京区北白川上終町カ),,,
SA140,俊寛僧都鹿谷山荘跡碑,左京区鹿ヶ谷大黒谷町,35.01078,135.48198,
SA141,北白川小学校開校地の跡,左京区北白川仕伏町(乗願院前),35.01546,135.47483,
SA142,平安京造営瓦窯址,左京区上高野小野町,35.03509,135.47397,
SA143,皇都鎮護埋経地,左京区岩倉上蔵町,35.0453,135.46447,
SA144,女三宮御茶屋旧蹟地,左京区岩倉上蔵町,35.04489,135.46568,
SA145,奉先堂碑,左京区鞍馬二ノ瀬町,35.05557,135.45427,
SA146,八大天王社宮跡,左京区一乗寺松原町,35.02303,135.47454,
SA147,岩倉具視公避匿所,左京区岩倉上蔵町,35.04408,135.46338,
SA148,東松ヶ崎の生活用水井戸跡,左京区松ヶ崎東町,35.03125,135.47046,
SA149,三宅八幡宮・岩倉観世音【道標】,左京区静市市原町(頼光橋西詰),35.04193,135.46055,
SA150,金毘羅山の町石・四町【道標】,左京区静市静原町(江文峠山中),35.0659,135.48297,
SA151,江文寺の趾,左京区静市静原町(江文峠山中),35.06561,135.48309,
SA152,妙源庵跡,左京区岩倉長谷町,,,
SA153,孝明天皇御衣更処茶屋跡,左京区下鴨松原町,35.02154,135.46144,
SA154,糺の森,左京区下鴨泉川町,35.0203,135.46159,
SA155,吉田松陰拝闕詩碑,左京区岡崎成勝寺町(京都府立図書館内),35.00455,135.46561,
SA156,唱導師日像聖人巡錫地,左京区下鴨松ノ木町,35.02223,135.4614,
SA157,今宮社址,左京区吉田神楽岡町(吉田神社内),,,
SA158,徳富蘇峰先生勉学処,左京区田中西樋ノ口町(田中神社内),35.02059,135.46552,
SA159,北白川宮元精米所御殿車,左京区北白川琵琶町,35.01545,135.48024,
SA160,--,,,,
SA161,--,,,,
SA162,--,,,,
SA163,--,,,,
SA164,真如堂【道標】,左京区浄土寺石橋町,35.01381,135.47391,
SA165,--,,,,
SA166,粟田山陵・亀山天皇分骨所【道標】,左京区南禅寺福地町,35.00403,135.47182,
SA167,粟田山陵・亀山天皇分骨所【道標】,左京区南禅寺福地町(南禅寺内),35.00398,135.47302,
SA168,駒ヶ瀧最勝院是ヨリ一丁【道標】,左京区南禅寺福地町,35.0039,135.47381,
SA169,最勝院【道標】,左京区南禅寺風呂山町(南禅寺南禅院前),35.00376,135.47392,
SA170,駒ヶ瀧最勝院【道標】,左京区南禅寺福地町(南禅寺最勝院前),35.00383,135.47416,
SA171,--,,,,
SA172,--,,,,
SA173,--,,,,
SA174,--,,,,
SA175,--,,,,
SA176,勝軍地蔵尊【道標】,左京区北白川別当町,35.01468,135.47303,
SA177,別所・京道【道標】,左京区花脊別所町,35.0955,135.46499,
SA178,銀閣寺道【道標】,左京区下鴨北園町,35.02506,135.46174,
SA179,二本松【道標】,左京区下鴨貴船町,35.02359,135.46034,
SA180,見真大師聖蹟法泉寺,左京区下鴨松ノ木町(法泉寺前),35.02296,135.46156,
SA181,新島襄先生墓地登り口【道標】,左京区若王子町,35.00558,135.4737,
SA182,粟田山陵・冷泉天皇陵【道標】,左京区若王子町,35.0056,135.4737,
SA183,光雲寺【道標】,左京区南禅寺北ノ坊町,35.01017,135.47455,
SA184,安楽寺・法然院・銀閣寺道【道標】,左京区鹿ヶ谷寺ノ前町,35.01128,135.47379,
SA185,光雲寺【道標】,左京区鹿ヶ谷下宮ノ前町,35.01006,135.47366,
SA186,後一条天皇陵・陽成天皇陵参道【道標】,左京区浄土寺西田町,35.01407,135.47247,
SA187,行者の森・大文字山参道【道標】,左京区銀閣寺町,35.01403,135.47535,
SA188,銀閣寺・北白川方面【道標】,左京区浄土寺大山町,35.01243,135.48161,
SA189,勝軍地蔵参道【道標】,左京区北白川山ノ元町,,,
SA190,黒谷・真如堂【道標】,左京区岡崎東天王町(岡崎神社内),35.01018,135.47207,
SA191,永観堂道【道標】,左京区岡崎東天王町(岡崎神社内),35.01018,135.47207,
SA192,後一条天皇陵・陽成天皇陵参道【道標】,左京区黒谷町,35.01059,135.47089,
SA193,平安神宮是ヨリ東北へ三丁【道標】,左京区聖護院蓮華蔵町,35.00513,135.46374,
SA194,皇太子慶頼王墓・中宮安子火葬塚参道【道標】,左京区吉田牛ノ宮町,35.01307,135.46377,
SA195,後二条天皇陵・後一条天皇陵・冷泉天皇陵参道【道標】,左京区吉田神楽岡町,35.01435,135.47103,
SA196,栗栖野瓦窯跡,左京区岩倉幡枝町,,,
SA197,比叡山無動寺大弁財天道【道標】,左京区高野玉岡町,35.02388,135.46591,
SA198,くろたに道【道標】,左京区浄土寺真如町(真正極楽寺内),35.01125,135.47233,
SA199,法然上人旧跡しうん石【道標】,左京区黒谷町(金戒光明寺墓地入口),35.01073,135.47187,
SA200,藤村庸軒翁墓【道標】,左京区黒谷町(金戒光明寺墓地入口),35.01073,135.47187,
SA201,山崎闇斎先生墳墓【道標】,左京区黒谷町(金戒光明寺墓地入口),35.01073,135.47187,
SA202,竹内栖鳳先生墓【道標】,左京区黒谷町(金戒光明寺墓地入口),35.01073,135.47187,
SA203,--,,,,
SA204,楠木正成塚,左京区修学院室町,35.03151,135.47548,
SA205,岩倉観世音・三宅八幡宮道【道標】,左京区静市野中町,,,
SA206,松ヶ崎大黒天道【道標】,左京区山端壱町田町,35.0303,135.47259,
SA207,新島襄先生墓所参道【道標】,左京区若王子町,35.00553,135.47455,
SA208,坂本道【道標】,左京区北白川山ノ元町,35.01545,135.47474,
SA209,--,,,,
SA210,俊寛僧都旧跡道【道標】,左京区鹿ヶ谷栗木谷町,,,
SA211,三条通【道標】,左京区南禅寺草川町,35.00388,135.47053,
SA212,摩利支天堂道【道標】,左京区南禅寺草川町,35.00425,135.47303,
SA213,帰雲院【道標】,左京区永観堂町(正的院前),35.00452,135.47371,
SA214,正的院墓参道【道標】,左京区南禅寺草川町(正的院前),35.00452,135.47371,
SA215,粟田山陵・亀山天皇分骨所参道【道標】,左京区南禅寺風呂山町(南禅院西側),35.00375,135.47362,
SA216,円光大師旧跡しうん石【道標】,左京区黒谷町(金戒光明寺墓地内),35.01077,135.47205,
SA217,赤松小三郎先生墓所【道標】,左京区黒谷町(金戒光明寺墓地内),35.01077,135.47205,
SA218,旧錦林第二小学校跡,左京区吉田近衛町(近衛中学校前),35.01185,135.46457,
SA219,京都博覧会碑,左京区岡崎成勝寺町(京都市勧業館内),35.00467,135.46538,緯度疑義あり
SA220,重修白幽子墓,左京区浄土寺下馬場町(吉田神葬墓地内),35.01249,135.47208,
SA221,崇道神社碑,左京区上高野西明寺山(崇道神社内),35.03549,135.48017,
SA222,阿弥陀経石碑,左京区田中門前町(知恩寺内),35.01457,135.46506,
SA223,大典記念植物園設立記念碑,左京区下鴨半木町(京都府立植物園内),35.025,135.45412,
SA224,高野河原開墾来歴碑,左京区高野上竹屋町(加茂波爾神社内),35.02351,135.46563,
SA225,幡枝切通碑,左京区岩倉幡枝町(圓通寺前),35.0351,135.4603,
SA226,大正大礼記念碑,左京区岡崎西天王町(平安神宮内),35.0055,135.46545,
SA227,右三条／左大原【道標】,左京区高野東開町(高野第三住宅内),35.02228,135.46467,
SA228,琵琶湖疏水工事殉難者碑,左京区粟田口山下町,35.00264,135.47272,
SA229,田辺朔郎紀功碑,左京区粟田口山下町,35.00294,135.47276,
SA230,平安遷都紀念塔,左京区上高野東山,35.03565,135.4834,
SA231,ワグネル碑,左京区岡崎成勝寺町,35.0048,135.46547,
SA232,レオン・ジュリー碑,左京区吉田泉殿町(関西日仏学館内),35.01336,135.46413,
SA233,韓国合併奉告祭碑,左京区上高野三宅町(三宅八幡神社内),35.04049,135.47393,
SA234,北白川石工共和組紀念碑,左京区北白川山ノ元町,,,
SA235,今井庄治郎君碑,左京区黒谷町(金戒光明寺墓地内),35.01111,135.47222,
SA236,白川女碑,左京区北白川下池田町(北白川天神宮内),35.01465,135.47439,
SA237,小野蘭山顕頌碑,左京区下鴨半木町(京都府立植物園内),35.02548,135.45507,
SA238,今尾景年画龍碑,左京区南禅寺福地町(南禅寺内),35.00419,135.47339,
SA239,洛北地区土地区画整理竣工記念碑,左京区下鴨萩ヶ垣内町(萩児童公園内),35.02572,135.46097,
SA240,小林君碑,左京区浄土寺真如町(真正極楽寺内),35.0115,135.4723,
SA241,復租紀恩碑,左京区八瀬秋元町(八瀬天満宮内),35.05015,135.4906,
SA242,五味藤九郎碑,左京区上高野西明寺山(崇道神社内),35.03524,135.48019,
SA243,林又一郎顕彰碑,左京区黒谷町(金戒光明寺内),35.01081,135.47177,
SA244,是より西南山城国・是より東北近江国【道標】,左京区北白川重石町,35.0226,135.48587,
SA245,後一条天皇陵・陽成天皇陵・冷泉天皇陵参道【道標】,左京区浄土寺真如町,35.01206,135.47182,
SA246,粟田陶隠木米記念碑,左京区粟田口三条坊町(青蓮院内),35.00289,135.46592,
SA247,売茶翁没後二百五十年記念碑,左京区下鴨半木町(北大路橋東詰),35.02402,135.45462,
SA248,東方斎荒尾先生碑,左京区若王子町,35.00556,135.47455,
SA249,東方斎居址,左京区若王子町,35.00555,135.47476,
SA250,征清殉難九烈士表紹碑,左京区若王子町,35.00553,135.47455,
SA251,修学院村道路元標,左京区山端川原町,35.03036,135.47248,
SA252,二宮尊徳像,左京区岡崎成勝寺町(京都府立図書館前),35.00476,135.46565,
SA253,静市野村道路元標,左京区静市野中町(専称寺前),35.05268,135.45511,
SA254,芭蕉翁碑銘,左京区一乗寺才形町(金福寺内),35.02315,135.47438,
SA255,金福寺,左京区一乗寺才形町(金福寺前),35.0232,135.47419,
SA256,尊攘堂,左京区吉田本町(京都大学内),35.01366,135.46451,
SA257,蓼倉川水路開鑿碑,左京区下鴨宮崎町(下鴨小学校内),35.02125,135.46058,
SA258,加茂之荘地区土地区画整理竣功記念碑,左京区下鴨北茶ノ木町(茶ノ木原児童公園内),35.03174,135.46184,
SA259,葵公園碑,左京区下鴨宮河町(鴨川公園内),35.0154,135.46169,
SA260,松賀茂地区土地区画整理竣功記念碑,左京区松ヶ崎芝本町(松賀茂児童公園内),35.03004,135.46256,
SA261,下鴨地区土地区画整理竣工記念碑,左京区下鴨東梅ノ木町(あおい児童公園内),35.02432,135.46259,
SA262,冷泉天皇陵参道【道標】,左京区銀閣寺前町(銀閣寺橋西詰),35.01381,135.47419,
SA263,伏見淀鳥羽戦死者道しるべ,左京区黒谷町(金戒光明寺会津墓地内),35.01124,135.47234,
SA264,岩倉陵・実相院宮墓参道六丁【道標】,左京区岩倉中町(旧左京区役所岩倉出張所内),35.04312,135.47185,
SI001,本居宣長先生修学地,下京区綾小路室町西入南側,35.00091,135.45258,
SI002,鈴屋大人寓講学旧地,下京区烏丸通四条下る東側,35.00118,135.45354,
SI003,電気鉄道事業発祥地,下京区塩小路通東洞院南西角,34.59137,135.45397,
SI004,桜田儀兵衛氏碑,下京区下之町(京都市崇仁隣保館前),34.59106,135.45521,
SI005,古高俊太郎邸址,下京区河原町通四条上る一筋目東入南側,35.00142,135.46113,
SI006,松永貞徳花咲亭址,下京区間之町通松原上る西側(花咲大明神前),34.59579,135.45425,
SI007,妙満寺跡・二十六聖人発祥地,下京区岩上通綾小路東北角,35.00091,135.45044,
SI008,柴田鳩翁脩正舎址,所在不明(下京区五条通東洞院東入北側カ),,,
SI009,道元禅師遺蹟地,下京区高辻通西洞院西入北側,35.00006,135.45168,
SI010,源語伝説五条辺夕顔墳,下京区堺町通松原上る西側,34.59586,135.45476,
SI011,鉄輪跡,下京区堺町通万寿寺上る西側,34.59533,135.45479,
SI012,円山応挙宅址,下京区四条通堺町東入南側,35.00141,135.4548,
SI013,成徳尋常小学校跡,下京区室町通綾小路下る東側,35.0007,135.45286,
SI014,松本宗悟邸址,下京区室町通仏光寺上る東側,35.00067,135.45279,
SI015,北村季吟先生遺蹟,下京区松原通烏丸西入南側(新玉津嶋神社前),34.5956,135.45326,
SI016,丹波国亀山藩京屋敷跡,下京区松原通室町西入北側(花月明神前),34.5956,135.45266,
SI017,幸野楳嶺生誕地,下京区新町通四条下る西側,35.0011,135.45241,
SI018,明治天皇行幸地,下京区新町通万寿寺上る東側(修徳特別養護老人ホーム内),34.59515,135.45239,
SI019,東鴻臚館址,下京区西新屋敷揚屋町(角屋前),34.59332,135.44348,
SI020,長州藩士久坂玄瑞の密議の角屋,下京区西新屋敷揚屋町(角屋前),34.59329,135.44359,
SI021,化粧水,下京区西洞院通四条東南角,35.00129,135.45186,
SI022,菅家邸址,下京区仏光寺通西洞院東入南側,35.00045,135.45209,
SI023,三善清行邸跡,下京区醒ヶ井通松原下る東側(醒泉小学校内),34.59537,135.45095,
SI024,贈従五位赤松小三郎先生記念,下京区東洞院通鍵屋町下る西側,34.59409,135.45395,
SI025,与謝蕪村宅跡,下京区仏光寺通烏丸西入南側,35.00047,135.45322,
SI026,肥後藩屋敷跡,下京区仏光寺通壬生川西南角,35.00045,135.44448,
SI027,八幡太郎義家誕生地,下京区若宮通六条下る東側(若宮八幡宮前),34.59365,135.45213,
SI028,菅家邸址,下京区仏光寺通西洞院東入北側,35.00047,135.45212,
SI029,当道職屋敷址,下京区仏光寺通東洞院東入北側(洛央小学校前),35.00048,135.45421,
SI030,左女牛井跡,下京区堀川通五条下る西側,34.59398,135.45079,
SI031,源融河原院址,下京区木屋町通五条下る東側,34.59425,135.46018,
SI032,芹根水,下京区木津屋橋通堀川西入下る東側,34.59142,135.45077,
SI033,中井正五郎殉難地,下京区油小路通旧花屋町下る西側,34.59313,135.45136,
SI034,山本亡羊読書室旧蹟,下京区油小路通五条上る西側,34.59479,135.45135,
SI035,伊東甲子太郎外数名殉難跡,下京区油小路通木津屋橋上る東側(本光寺前),34.59165,135.45134,
SI036,平清盛公西八条殿跡,下京区七条御所ノ内本町(若一神社内),34.59038,135.43581,
SI037,島原西門碑,下京区西新屋敷下之町(島原住吉稲荷神社前),34.59354,135.44339,
SI038,新開道路碑,下京区花屋町通堀川西南角,34.59344,135.45096,
SI039,長曽我部盛親公埋首地,下京区富小路通五条下る(蓮光寺前),34.594,135.45498,
SI040,石門心学脩正舎,下京区麩屋町通五条上る東側,34.5947,135.45559,
SI041,明治天皇行幸所下京第二十四組小学校,下京区鍵屋町通室町西入北側(下京中学校前),34.5942,135.45269,
SI042,八橋検校道場跡,下京区室町通綾小路上る西側,35.00097,135.45285,
SI043,亀山藩邸鎮守社白滝・花月大明神碑,下京区松原通室町西入(白滝・花月大明神内),34.59569,135.45265,
SI044,大雲院跡,下京区寺町通四条下る西側,35.00112,135.46008,
SI045,鎮西聖光上人遺蹤,下京区寺町通仏光寺上る東側(聖光寺前),35.00068,135.46007,
SI046,豊園小学校の碑,下京区仏光寺通東洞院東入北側(洛央小学校前),35.00047,135.45432,
SI047,豊園幼稚園記念碑,下京区仏光寺通東洞院東入北側(洛央小学校前),35.00048,135.45417,
SI048,道元禅師示寂聖地,下京区高辻通西洞院西入北側,35.00007,135.45166,
SI049,天満宮降誕地,下京区高辻通西洞院東入北側,35.00012,135.45209,
SI050,天満宮降誕地,下京区西洞院通高辻上る東側,35.00014,135.45183,
SI051,天満宮降誕地,下京区仏光寺通西洞院東入南側,35.00045,135.45208,
SI052,元六条御所長講堂,下京区富小路通六条上る東側(長講堂前),34.59388,135.45495,
SI053,是より洛中碑,下京区大宮通塩小路下る(梅逕中学校内),34.59112,135.4459,
SI054,悪王子社趾,下京区東洞院通四条下る西側,35.00123,135.45402,
SI055,道了大薩■【道標】,下京区西七条北西野町,34.59217,135.4401,
SI056,明治天皇御小休所枳殻邸,下京区下珠数屋町通間之町東入(渉成園内),34.59271,135.45464,
SI057,平安京朱雀大路跡,下京区中堂寺坊城町,34.59427,135.44351,
SI058,歌舞練場跡記念碑,下京区西新屋敷中之町,,,
SI059,佐賀鍋島藩屋敷跡,下京区四条通堺町通南東角,35.0013,135.45505,
SI060,銭座場跡,下京区下之町(柳原銀行記念資料館前),34.59103,135.45522,
SI061,尚徳中学校の碑,下京区鍵屋町通室町西入北側(下京中学校前),34.5942,135.45269,
SI062,医祖神碣,下京区西洞院通松原下る西側(五条天神社内),34.59546,135.45173,
SI063,是より洛中碑,下京区朱雀堂ノ口町(京都市中央卸売市場第一市場内),34.59213,135.44323,
SI064,文房四神碑,下京区木津屋橋通堀川西入下る東側,34.59142,135.45077,
SI065,是より南　六条御境内【道標】,下京区堀川通五条下る西側,34.59387,135.45079,
SI066,明治天皇御小休所本願寺旧大教校,下京区大工町(龍谷大学正門前),34.59234,135.45023,
SI067,新選組洛中最後の屋敷跡,下京区西洞院通塩小路下る西側,34.5913,135.45185,
SI068,道路開鑿紀念碑,下京区下之町(崇仁コミュニティセンター内),34.59104,135.45524,
SI069,源為義塚移建碑,下京区朱雀裏畑町(権現寺前),34.59196,135.44232,
SI070,六条判官源為義公塚,下京区朱雀裏畑町(権現寺前),34.59196,135.44232,
SI071,小野寺十内妻丹女墓,下京区岩上通五条上る東側,34.59511,135.45053,
UK001,陶工仁清窯址,右京区御室竪町,35.01326,135.42563,
UK002-1,千代の古道,右京区嵯峨釣殿町(児神社内),35.01331,135.4115,
UK002-2,千代の古道,右京区山越中町(山越交叉点南西角),35.0137,135.41431,
UK002-3,千代の古道,右京区嵯峨大沢落久保町,35.01386,135.4108,
UK002-4,千代の古道,右京区太秦御領田町,35.01282,135.41508,
UK002-5,千代の古道,右京区山越東町,35.01241,135.41537,
UK002-6,千代の古道,右京区太秦開日町,35.01163,135.41531,
UK003,源融公栖霞観地,右京区嵯峨釈迦堂藤ノ木町(清凉寺前),35.01212,135.40286,
UK004,祇王祇女仏刀自旧跡,右京区嵯峨鳥居本小坂(祇王寺境内),35.00129,135.40007,
UK005,桓武天皇勅営角倉址・了以翁邸址・平安初期鋳銭司旧址,右京区嵯峨天龍寺角倉町(公立学校共済組合嵐山保養所花のいえ前),35.00499,135.40526,
UK006,西行法師庵の跡,右京区嵯峨二尊院門前長神町(二尊院境内),35.01187,135.40097,
UK007,小倉山荘旧址厭離庵,右京区嵯峨二尊院門前北中院町,35.012,135.40157,
UK008*,さざれ石,右京区山越中町入亀山山麓及び山頂,,,
UK009,平塚瓢斎先生宅趾,右京区西院坤町,35.00129,135.43369,
UK010,淳和院跡,右京区西院高山寺町(高山寺前),35.00131,135.43564,
UK011,大映京都撮影所跡地,右京区太秦多藪町,35.00467,135.42113,
UK012,日本最古の茶園,右京区梅ヶ畑栂尾町(高山寺内),35.03387,135.40418,
UK013,名古曽滝址,右京区北嵯峨名古曽町,35.01486,135.40506,
UK014,京都市登録史跡御堂ヶ池一号墳,所在不明(右京区鳴滝音戸山町カ),,,
UK015,尾形乾山宅跡,右京区鳴滝泉谷町(法蔵寺前),35.01553,135.42199,
UK016,琴きき橋跡,右京区嵯峨天龍寺造路町(渡月橋北詰),35.00491,135.40413,
UK017,旧川村曼舟画伯邸,所在不明(右京区嵐山渡月橋畔内),,,
UK018,清水山古墳跡,右京区太秦松本町,35.00307,135.42444,
UK019,小倉百人一首編纂の地,右京区嵯峨小倉山町(常寂光寺境内),35.0112,135.40083,
UK020,壇林寺旧跡・前中書王遺跡,右京区嵯峨天龍寺茫ノ馬場町,35.01036,135.40279,
UK021,太郎坊の井戸,右京区太秦宮ノ前町,35.01107,135.41599,
UK022,牛若丸首途の井,右京区花園艮北町,35.0116,135.43262,
UK023,法眼宅間勝賀終焉地,右京区鳴滝宅間町(周山街道三宝寺橋南詰),35.01563,135.4211,
UK024,法輪寺道昌遺業大堰阯,右京区嵯峨天龍寺芒ノ馬場町,35.00479,135.40293,
UK025,兼好法師旧跡,右京区御室岡ノ裾町(長泉寺門前),35.01254,135.42566,
UK026,生の六道　小野篁公遺跡,右京区嵯峨釈迦堂藤ノ木町(薬師寺内),35.01237,135.40253,
UK027,夕霧大夫遺跡,右京区嵯峨二尊院門前北中院町,35.0123,135.40234,
UK028,天龍寺塔中招慶院旧址,右京区嵯峨釈迦堂大門町(右京区役所嵯峨出張所前),35.01146,135.40325,
UK029,小督局墳,右京区嵯峨天龍寺芒ノ馬場町,35.00487,135.4035,
UK030,旧御室御所茶所,右京区山越西町(印空寺前),35.01358,135.4141,
UK031,了海上人遺跡,右京区山越西町(印空寺前),35.01358,135.41409,
UK032,中御所阯,右京区北嵯峨名古曽町,35.01487,135.405,
UK033,若宮社旧蹟,右京区山ノ内瀬戸畑町,35.00205,135.43217,
UK034,東衣手町遺跡,右京区西京極東衣手町(三宮社衣手神社前),34.59517,135.42383,
UK035,尾形乾山陶窯跡地,右京区鳴滝泉谷町(法蔵寺前),35.01553,135.42199,
UK036,大沢池附名古曽滝趾,右京区嵯峨大沢町,35.01392,135.40447,
UK037,御室・高雄【道標】,右京区花園寺ノ内町(ＪＲ花園駅前),35.01089,135.43051,
UK038,栂尾・槙尾・丹波道【道標】,右京区梅ヶ畑檜社町(清滝大権現前),35.03143,135.40347,
UK039,愛宕道【道標】,右京区竜安寺衣笠下町,35.01538,135.43098,
UK040,愛宕道【道標】,右京区嵯峨大覚寺門前六道町,35.01239,135.40398,
UK041,野々宮【道標】,右京区嵯峨釈迦堂門前南中院町,35.012,135.40165,
UK042,愛宕道【道標】,右京区嵯峨二尊院門前長神町,35.01199,135.40102,
UK043,愛宕道／祇王寺【道標】,右京区嵯峨二尊院門前往生院町,35.01233,135.40073,
UK044,愛宕山道／念仏寺【道標】,右京区嵯峨鳥居本化野町,35.01344,135.40005,
UK045,愛宕道／化野念仏寺【道標】,右京区嵯峨鳥居本化野町(化野念仏寺前),35.01366,135.39563,
UK046,三条通・六条・伏見【道標】,右京区嵯峨野嵯峨ノ段町(甲塚橋東詰),35.01116,135.41296,
UK047,高雄・田尻・丹波・山【道標】,右京区愛宕山上,35.04179,135.38339,
UK048,丹波・桂渡し・善峯道【道標】,右京区西院春日町(西院小学校内),35.00199,135.4348,
UK049,祇王寺【道標】,右京区嵯峨鳥居本小坂町(祇王寺内),35.01239,135.40022,
UK050,祇王寺・久保田米僊・金子静枝墓【道標】,右京区嵯峨二尊院門前往生院町,35.01236,135.40066,
UK051,大覚寺近道【道標】,右京区嵯峨鳥居本六反町,35.01329,135.40045,
UK052,大覚寺北十町【道標】,右京区嵯峨天竜寺造路町,35.00491,135.40412,
UK053,大覚寺北八町【道標】,右京区嵯峨天竜寺車道町,35.0059,135.40484,
UK054,天龍寺・嵐山【道標】,右京区嵯峨天竜寺立石町,35.01035,135.40348,
UK055,大覚寺・大沢池・広沢池【道標】,右京区嵯峨観空寺明水町,35.01377,135.40383,
UK056,化野・一の鳥居・愛宕道【道標】,右京区嵯峨釈迦堂藤ノ木町,35.01315,135.40334,
UK057,大覚寺東三町【道標】,右京区嵯峨釈迦堂藤ノ木町(清凉寺前),35.01216,135.40297,
UK058,釈迦堂前街道【道標】,右京区嵯峨小倉山緋明神町,35.01142,135.40175,
UK059,小倉山・常寂光寺・歌仙祠【道標】,右京区嵯峨小倉山小倉町,35.01111,135.40137,
UK060,大覚寺西五丁／広沢の池【道標】,右京区嵯峨広沢町,35.0131,135.41223,
UK061,大覚寺・大沢池・名古曽滝址道【道標】,右京区嵯峨大覚寺門前六道町,35.01262,135.40435,
UK062,遍照寺山【道標】,右京区北嵯峨赤阪町,35.01501,135.40582,
UK063,広沢池・御室街道【道標】,右京区北嵯峨赤阪町,35.01501,135.40582,
UK064,高雄道・長刀坂・後宇多帝陵【道標】,右京区北嵯峨名古曽町,35.01479,135.40425,
UK065,直指庵【道標】,右京区北嵯峨北ノ段町,35.01481,135.40425,
UK066,春日潜庵先生墓【道標】,右京区鳴滝泉谷町(法蔵寺前),35.01552,135.42199,
UK067,三条・二条・下立売・太秦広隆寺門前【道標】,右京区太秦森ヶ東町(木島神社前),35.00499,135.42489,
UK068,蚕神社【道標】,右京区太秦森ヶ東町(木島神社前),35.00499,135.42486,
UK069,泉谷・高雄【道標】,所在不明(右京区宇多野福王子町カ),,,
UK070,愛宕道【道標】,所在不明(右京区嵯峨広沢西裏町カ),,,
UK071,愛宕道【道標】,所在不明(右京区嵯峨鳥居本深谷町カ),,,
UK072,篠山藩周山代官所・北桑田郡役所・京都府京北事務所跡,右京区京北周山町上代,35.09229,135.37514,
UK073,小楠公御首塚の寺【道標】,右京区嵯峨釈迦堂藤ノ木町(清凉寺前),35.01212,135.40286,
UK074,小倉山・二尊院西二町【道標】,右京区嵯峨釈迦堂藤ノ木町(清凉寺前),35.01212,135.40286,
UK075,嵯峨帝陵東北十六町【道標】,右京区嵯峨釈迦堂藤ノ木町(清凉寺前),35.01212,135.40286,
UK076,御室・北野方面【道標】,右京区嵯峨釈迦堂藤ノ木町(清凉寺前),35.01212,135.40286,
UK077,嵐山【道標】,右京区嵯峨天龍寺芒ノ馬場町,35.00528,135.40285,
UK078,花園村道路元標,右京区花園寺ノ前町(妙心寺勅使門前),35.01154,135.43117,
UK079,新田公首塚碑道【道標】,右京区嵯峨二尊院門前往生院町,35.01236,135.40067,
UK080,檀林寺門跡【道標】,右京区嵯峨二尊院門前往生院町,35.01233,135.40072,
UK081,梅宮参詣道【道標】,右京区嵯峨野宮ノ元町,35.0051,135.41373,
UK082,福王子神社祭神班子皇后北一町【道標】,右京区宇多野福王子町(福王子神社内),35.01442,135.42319,
UK083,松尾・梅宮道【道標】,右京区梅津中村町(梅津小学校内),35.00044,135.42035,
UK084,松尾神社・嵐山道【道標】,右京区梅津前田町,35.00126,135.41459,
UK085,七保天満宮旧蹟,右京区花園艮北町(成願寺内),35.0116,135.43308,
UK086,西院村道路元標,右京区西院春日町(西院春日神社内),35.0017,135.43456,
UK087,釈迦堂・清瀧方面【道標】,右京区嵯峨天龍寺立石町,35.01033,135.40351,
UK088,文徳帝陵東南二十五町【道標】,右京区北嵯峨赤阪町,35.01502,135.40581,
UK089,今林陵参拝道【道標】,右京区嵯峨大覚寺門前六道町,35.01252,135.40348,
UK090,愛宕道【道標】,右京区西院巽町,35.0014,135.43482,
UK091,日本最古の洋紙製紙場跡,右京区梅津大縄場町,34.59588,135.41447,
UK092,神護寺・和気公墓方面【道標】,右京区梅ヶ畑高雄町,35.03178,135.40229,
UK093,高雄神護寺道【道標】,右京区梅ヶ畑高雄町,35.03178,135.40228,
UK094,和気清麿公墓参道【道標】,右京区梅ヶ畑高雄町,35.03187,135.40108,
UK095,地蔵院へ近道【道標】,右京区梅ヶ畑高雄町,35.03173,135.40098,
UK096,和気公墓道【道標】,右京区梅ヶ畑高雄町,35.03169,135.4013,
UK097,仏足石参詣道【道標】,右京区梅ヶ畑栂尾町(高山寺内),35.03411,135.40413,
UK098,仏足石参道【道標】,右京区梅ヶ畑栂尾町(高山寺内),35.0338,135.40418,
UK099,仏足石参道【道標】,右京区梅ヶ畑栂尾町(高山寺前),35.03332,135.40405,
UK100,宅間勝賀塚碑,右京区鳴滝宅間町(周山街道三宝寺橋南詰),35.01562,135.4211,
UK101,--,,,,
UK102,--,,,,
UK103,--,,,,
UK104,--,,,,
UK105,清和天皇水尾山陵【道標】,右京区嵯峨鳥居本深谷町,35.0143,135.39455,
UK106,嵐山指定【道標】,右京区嵯峨鳥居本深谷町,35.0143,135.39455,
UK107,愛宕・伏見【道標】,右京区山ノ内荒木町(猿田彦神社内),35.00304,135.43024,
UK108,子安地蔵【道標】,右京区太秦安井奥畑町,35.00535,135.43074,
UK109,親鸞聖人御往生旧地【道標】,右京区山ノ内北ノ口町,35.00303,135.43158,
UK110,三条道【道標】,右京区嵯峨野嵯峨ノ段町(甲塚橋東詰),35.01117,135.41297,
UK111,長栄丸移据の由来,右京区太秦野元町(千石荘公園内),35.00303,135.42457,
UK112,斎宮旧趾,右京区嵯峨野々宮町(野宮神社内),35.01042,135.40268,
UK113,佐久間象山先生墓道【道標】,右京区花園妙心寺町(妙心寺内),,,
UK114,龍安寺御陵道【道標】,右京区谷口園町,35.01332,135.43131,
UK115,一条天皇陵・後朱雀天皇陵・後冷泉天皇陵他参道【道標】,右京区龍安寺池ノ下町,35.0151,135.431,
UK116,龍安寺駅・妙心寺方面【道標】,右京区龍安寺衣笠下町,35.01497,135.43133,
UK117,龍安寺御陵道【道標】,右京区龍安寺衣笠下町,35.01497,135.43133,
UK118,二条天皇陵・一条天皇陵・光孝天皇陵参道【道標】,右京区龍安寺衣笠下町,35.01497,135.43133,
UK119,松尾・梅の宮,右京区西京極東衣手町(三の宮神社内),,,
UK120,--,,,,
UK121,--,,,,
UK122,明治天皇行在所山中邸阯,右京区嵯峨天龍寺芒ノ馬場町(京都年金基金センターらんざん内),35.0051,135.40276,
UK123,橋本経亮邸址,右京区梅津前田町(鳥居脇),35.00101,135.41412,
UK124,千代の古道,右京区嵯峨野高田町,35.00311,135.41359,
UK125,千代の古道,右京区嵯峨野内田町,35.00363,135.41353,
UK126,千代の古道,右京区嵯峨野千代の道町(嵯峨野保育園前),35.00449,135.41374,
UK127,千代の古道,右京区嵯峨野宮ノ元町,35.00516,135.41375,
UK128,千代の古道,右京区嵯峨野神ノ本町,35.00512,135.41409,
UK129,車折神社碑,右京区嵯峨朝日町(車折神社内),35.00557,135.41199,
UK130,広沢池碑,右京区嵯峨釣殿町(児神社内),35.01329,135.41168,
UK131,角倉了以像副碑,右京区嵯峨亀ノ尾町(亀山公園内),35.00515,135.40203,
UK132,源融碑,右京区嵯峨釈迦堂藤ノ木町(清凉寺内),35.01222,135.40271,
UK133,菖蒲谷池碑,右京区北嵯峨北ノ段町(北嵯峨会議所内),35.01512,135.40418,
UK134,小倉餡発祥地,右京区嵯峨二尊院門前長神町(二尊院内),35.01179,135.40048,
UK135,御室川治水碑,右京区西京極西川町,34.59191,135.43072,
UK136,明治天皇歌碑,右京区太秦野元町(千石荘公園内),35.00303,135.42456,
UK137,瑞典皇太子同妃殿下御台覧記念碑,右京区太秦野元町(千石荘公園内),35.00302,135.42457,
UK138,瑞典皇太子・暹羅王族天塚古墳御台覧記念碑,右京区太秦松本町(白清稲荷大明神内),35.00262,135.42427,
UK139,一条天皇・堀河天皇陵道【道標】,右京区龍安寺朱山,35.02072,135.431,
UK140,宇多源氏始祖追遠碑,右京区御室住吉山町,35.01571,135.42587,
UK141,後嵯峨天皇陵・亀山天皇陵【道標】,右京右京区嵯峨天龍寺芒ノ馬場町(天龍寺前),35.00572,135.40373,
UK142,宇多天皇陵・光孝天皇陵参道【道標】,右京区御室大内(仁和寺西門前),35.01509,135.42456,
UK143,光孝天皇陵【道標】,右京区宇多野御池町(光孝天皇陵入口),35.01383,135.42407,
UK144,光孝天皇陵【道標】,右京区宇多野御池町(光孝天皇陵入口),35.01398,135.42394,
UK145,仁孝天皇皇子常寂光院御墓【道標】,右京区宇多野鳴滝松本町,35.01589,135.42084,
UK146,文徳帝御陵道【道標】,右京区太秦三尾町,35.01242,135.4209,
UK147,光孝天皇陵・後宇多天皇陵参道【道標】,右京区太秦三尾町,35.01243,135.42094,
UK148,仲野親王墓参拝道【道標】,右京区太秦箕山町,35.00552,135.42055,
UK149,(花園陵カ)【道標】,右京区花園扇野町,35.0113,135.43018,
UK150,嵯峨帝陵・後宇多帝陵・今林陵【道標】,右京区嵯峨釈迦堂藤ノ木町,35.01231,135.40345,
UK151,後亀山天皇嵯峨小倉陵参拝道【道標】,右京区嵯峨鳥居本小坂町,35.01291,135.40044,
UK152,一条天皇外五陵・花園陵【道標】,右京区谷口園町,35.01402,135.43146,
UK153,右真言宗広沢派根元遍照寺【道標】,右京区嵯峨広沢西裏町(遍照寺内),35.01251,135.41215,
UK154,文徳帝御陵・鳴瀧停留場近道【道標】,右京区嵯峨広沢池下町,35.01308,135.4131,
UK155,千代の古道【道標】,右京区太秦堀池町,35.01252,135.41512,
UK156,千代の古道,右京区梅津前田町,35.00126,135.41459,
UK157,後嵯峨天皇・亀山天皇・後伏見天皇火葬塚【道標】,右京区嵯峨亀ノ尾町,35.00482,135.40209,
UK158,円融天皇陵・文徳天皇陵参道【道標】,右京区鳴滝桐ヶ淵町,35.01362,135.42252,
UK159,文徳天皇陵・暲子内親王墓参道【道標】,右京区鳴滝嵯峨園町,35.01271,135.42222,
UK160,嵯峨天皇嵯峨山上陵参拝道【道標】,右京区北嵯峨朝原山町,35.01527,135.4034,
UK161,広沢池中島由来碑,右京区嵯峨広沢町,35.01367,135.41184,
YA001,蓮如上人御往生地,山科区西野広見町(西宗寺前),34.59011,135.48283,
YA002,旧東海道,山科区安朱桟敷町(ホテルブライトンシティ山科南側),34.59286,135.48283,
YA003,明治天皇御遺跡,山科区安朱桟敷町(ホテルブライトンシティ山科南側),34.59286,135.49014,
YA004,山科本願寺南殿跡,山科区音羽伊勢宿町(光照寺内),34.59042,135.492,
YA005,宮道朝臣列子墓,山科区勧修寺西栗栖野町,34.58135,135.48195,
YA006,中臣遺跡,山科区勧修寺東栗栖野町(勧修小学校内),34.58115,135.48278,
YA007,大日寺跡,山科区勧修寺北大日,34.57383,135.47343,
YA008,たたら遺跡,山科区御陵大岩(本圀寺東側),34.59575,135.48284,
YA009,安祥寺上寺跡,山科区御陵沢ノ川町,35.00165,135.48424,
YA010,後山階陵遺跡,山科区御陵沢ノ川町,35.00105,135.48585,
YA011,人康親王山荘跡,山科区四ノ宮柳山町(諸羽神社参道),34.59369,135.49154,
YA012,旧東海道線山科駅跡,山科区小野蚊ヶ瀬町(名神高速道路南側盛土内),34.57515,135.48442,
YA013,小野小町化粧井戸,山科区小野御霊町(随心院内),34.57319,135.48541,
YA014,山科本願寺跡,山科区西野山階町,34.58535,135.48321,
YA015,中臣群集墳跡,山科区西野山中臣町(折上神社境内),34.58202,135.4811,
YA016,山科本願寺土塁跡,山科区西野阿芸沢町(山科中央公園内),34.59042,135.48438,
YA017,西野山古墓,山科区西野山岩ヶ谷町(滑石越畔),34.58423,135.47262,
YA018,大宅一里塚跡,山科区大宅甲ノ辻町,34.58068,135.49132,
YA019,大宅廃寺跡,山科区大宅奥山田(大宅中学校内),34.58024,135.49193,
YA020,仏光寺旧址,山科区東野百拍子町,34.58401,135.48524,
YA021,日本最初の鉄筋コンクリ－ト橋,山科区日ノ岡堤谷町(疏水墜道前),35.00003,135.4755,
YA022,旭山古墳群,山科区北花山旭山町(京都市中央斎場前),34.59121,135.47197,
YA023,大石良雄君隠棲旧址,山科区西野山桜ノ馬場町(岩屋寺内),34.58095,135.47472,
YA024,山科本願寺土塁跡南西角,山科区西野左義長町,34.58475,135.48277,
YA025,志賀直哉旧居跡,山科区竹鼻立原町,34.59189,135.49082,
YA026,蓮如上人南殿御旧地是より二町【道標】,山科区竹鼻四丁野町(山科青年の家前),34.59081,135.48544,
YA027,熊谷蓮心表徳碑,山科区東野八反畑町(西雲寺内),34.58401,135.48496,
YA028,旧東海道,山科区北花山山田町,34.59542,135.47408,
YA029,本邦最初鉄筋混凝土橋,山科区日ノ岡堤谷町(疏水墜道前),35.00008,135.47545,
YA030,蓮如上人御往生地,山科区西野広見町(西宗寺前),34.59017,135.48282,
YA031,花山稲荷道【道標】,山科区北花山山田町,34.59422,135.47539,
YA032,妙見道【道標】,山科区北花山山田町,34.59422,135.47539,
YA033,三条通／五条橋【道標】,山科区御陵中内町,34.59286,135.48406,
YA034,本願寺山科両別院是より左六町【道標】,山科区安朱中小路町,34.59312,135.49028,
YA035,東海道【道標】,山科区安朱北屋敷町,34.59287,135.49048,
YA036,毘沙門尊天是より北へ八町【道標】,山科区安朱南屋敷町,34.59288,135.49103,
YA037,伏見・六地蔵【道標】,山科区四ノ宮泉水町,34.59277,135.49147,
YA038,今熊野道【道標】,山科区御陵三蔵町,34.59213,135.48406,
YA039,毘沙門堂是より北三町【道標】,山科区安朱馬場ノ西町(安朱橋北詰),34.59491,135.49092,
YA040,後山階陵・輪王寺宮御墓参道【道標】,山科区安朱稲荷山町,35.00009,135.4909,
YA041,花山稲荷大明神【道標】,所在不明(山科区北花山大林町カ),,,
YA042,今熊野観音道【道標】,山科区北花山中道町(現在地：大阪府枚方市北中振三丁目),34.47501,135.37414,
YA043,上醍醐・福応寺【道標】,山科区上花山講田町(福応寺内),34.59058,135.4754,
YA044,花山稲荷【道標】,所在不明(山科区北花山市田町カ),,,
YA045,蓮如上人御往生旧地西宗寺道【道標】,山科区西野今屋敷町,34.59132,135.48272,
YA046,蓮如上人御塚道【道標】,山科区西野大手先町,34.59027,135.48511,
YA047,蓮如上人南殿御旧地・両御坊道【道標】,山科区音羽中芝町,34.5906,135.49255,
YA048,清水寺奥之院牛尾山道【道標】,山科区音羽稲芝町,34.59034,135.49343,
YA049,大石良雄旧跡【道標】,山科区西野山中鳥井町,34.58169,135.47541,
YA050,大石蔵之助旧跡【道標】,山科区勧修寺仁王堂町(勧修寺前),34.57405,135.4832,
YA051,京道・滑石越・大仏道【道標】,山科区勧修寺仁王堂町(勧修寺前),34.57405,135.48319,
YA052,山科御坊【道標】,所在不明(山科区勧修寺東栗栖野町),,,
YA053,今熊野観音道【道標】,山科区川田土仏,34.58469,135.4749,
YA054,今熊野観音道十八町【道標】,山科区川田西浦町,34.58478,135.48012,
YA055,蓮如上人御塚道【道標】,所在不明(山科区西野八幡田町),,,
YA056,赤穂義士旧跡,山科区安朱堂ノ後町(瑞光院前),34.59568,135.49099,
YA057,佐治城碑,山科区勧修寺仁王堂町,34.57431,135.48316,
YA058,天智天皇山科陵【道標】,山科区御陵下御廟野町,34.59412,135.48149,
YA059,醍醐大津方面【道標】,山科区勧修寺仁王堂町(勧修寺前),34.57405,135.48319,
YA060,人康親王墓【道標】,山科区四ノ宮泉水町,34.59287,135.49177,
YA061,蓮如上人御塚道【道標】,山科区音羽稲芝町,,,
YA062,琵琶湖疏水煉瓦工場跡,山科区御陵原西町(地下鉄京阪御陵駅入口),34.59449,135.48089,
YA063,明智光秀胴塚,山科区勧修寺御所内町,34.5722,135.48362,
YA064,愚堂国師入定地,山科区北花山河原町(華山寺前),34.59208,135.48053,
YA065,皇塚,山科区大塚西浦町,34.5847,135.49255,
YA066,いなり山【道標】,山科区北花山大林町,34.5904,135.47565,
YA067,牛尾山道【道標】,山科区音羽珍事町,34.59126,135.4956,
YA068,追分京津国道【道標】,山科区小山松原畑町(京の田舎民具資料館横),34.59056,135.50089,
YA069,追分京津国道【道標】,山科区小山御坊ノ内町,34.58546,135.50182,
YA070,宇治道【道標】,山科区大塚森町,34.58498,135.49269,
YA071,大石旧跡岩屋寺【道標】,山科区西野山桜ノ馬場町,34.58268,135.47267,
YA072,大石神社【道標】,山科区西野山桜ノ馬場町,34.58268,135.47267,
YA073,折上神社参詣道【道標】,山科区西野山桜ノ馬場町,34.58268,135.47267,
YA074,山科の棲家岩屋寺【道標】,山科区西野山桜ノ馬場町,34.58102,135.47498,
YA075,岩屋寺【道標】,山科区西野山桜ノ馬場町,34.58115,135.47499,
YA076,大石大夫閑居址【道標】,山科区西野山桜ノ馬場町,34.58102,135.47508,
YA077,妙見道【道標】,山科区大塚南溝町,34.584,135.49254,
YA078,三条大橋・旧渋谷道【道標】,山科区竹鼻西ノ口町,34.59228,135.49073,
YA079,花山道路碑,山科区厨子奥花鳥町(東山ドライブウエイ北側),35.00019,135.47296,
YA080,元慶寺【道標】,山科区北花山河原町(元慶寺内),34.59185,135.48037,
YA081,遍照僧正墓【道標】,山科区北花山河原町(元慶寺内),34.5918,135.48037,
YA082,牛尾山法厳寺参詣道【道標】,山科区小山鎮守町,34.59128,135.49562,
YA083,粟田口名号碑,山科区日ノ岡朝田町,34.59528,135.47519,
YA084,大石良雄遺髪塚碑,山科区西野山桜ノ馬場町(岩屋寺内),34.581,135.47465,
YA085,日時計碑,山科区御陵上御廟野町,34.59365,135.48215,
YA086,坂上田村麻呂碑,山科区勧修寺東栗栖野町,34.58144,135.48288,
YA087,坂上田村麻呂墓【道標】,山科区勧修寺東栗栖野町,34.58131,135.48266,
YA088,坂上田村麻呂墓【道標】,山科区勧修寺東栗栖野町,34.58138,135.48295,
YA089,日岡峠修路碑,山科区厨子奥花鳥町,35.0006,135.4733,
YA090,御日山神宮碑,山科区日ノ岡一切経谷(日向大神宮内),35.00226,135.47422,
YA091,北花山水路紀念碑,山科区北花山寺内町,34.59158,135.47546,
YA092,元慶寺再興碑,山科区北花山河原町(元慶寺内),34.59179,135.48034,
YA093,山階寺跡,山科区御陵大津畑町,34.59237,135.4841,
YA094,名神高速道路起工地,山科区小野蚊ヶ瀬町(名神高速道路南側盛土内),34.57509,135.48447,
YA095,大石神社創立記念碑,山科区西野山桜ノ馬場町(大石神社内),34.58119,135.47447,
YA096,京津国道改良工事竣工紀念碑,山科区日ノ岡朝田町,34.59533,135.47472,
YA097,瑞光院遺躅碑,山科区安朱堂ノ後町(瑞光院内),34.59572,135.49081,
YA098,小野寺十内室丹子招魂碑,山科区安朱堂ノ後町(瑞光院内),34.59573,135.49081,
YA099,義士遺髪復旧碑,山科区安朱堂ノ後町(瑞光院内),34.5957,135.49082,
YA100,大石遺愛梅,山科区安朱堂ノ後町(瑞光院内),34.5957,135.49083,
YA101,将軍塚大日堂由来碑,山科区厨子奥花鳥町(将軍塚大日堂内),35.00061,135.47157,
YA102,後山階陵参道【道標】,山科区御陵沢ノ川町,35.00109,135.48555,
YA103,後山階陵・輪王寺宮御墓【道標】,山科区安朱稲荷山町,35.00064,135.4902,
