title,所在地,備考,lat,lng,,,,
五反田文化センター,東京都品川区西五反田6-5-1,所在地:西五反田6-5-1 電話:3492-2451 施設内容:第1〜3講習室　第1〜6会議室　講習和室　第1〜5スタジオ　託児室　音楽ホール　第1〜3楽屋　プラネタリウム 休館日:年末年始・毎月第4月曜日利用時間:午前9時〜午後9時30分 (日曜・祝日は午前9時〜午後4時30分),35.6226453,139.7166191,,,,
荏原文化センター,東京都品川区中延1-9-15,所在地:中延1-9-15電話:3785-1241 施設内容:第1〜4講習室　中会議室(託児室兼用)　小会議室　講習和室　料理講習室　レクリエーションホール　大ホール　グループ室　温水プール 休館日:年末年始・毎月第4月曜日,35.6121257,139.7106906,,,,
旗の台文化センター,東京都品川区旗の台5-19-5,所在地:旗の台5-19-5電話:3786-5191 施設内容:第1〜2会議室 レクリエーションホール スポーツ室 グループ室 休館日:年末年始・毎月第4日曜日,35.6038448,139.7002532,,,,
東品川文化センター,東京都品川区東品川3-32-10,所在地:東品川3-32-10電話:3472-2941 施設内容:第1〜3講習室　会議室　講習和室　美術工芸室　視聴覚室　グループ室　レクリエーションホール　スポーツ室　軽スポーツ室　託児室 休館日:年末年始・毎月第1日曜日,35.6129526,139.7504552,,,,
南大井文化センター,東京都品川区南大井1-12-6,所在地:南大井1-12-6 電話:3764-6511 施設内容:第1〜3講習室　美術工芸室　レクリエーションホール　スポーツ室　託児室　グループ室 休館日:年末年始・毎月第4日曜日,35.5962353,139.7375818,,,,
品川図書館,東京都品川区北品川2-32-3,品川区北品川2-32-3,35.6168807,139.7423369,,,,
二葉図書館,東京都品川区二葉1-4-25保育園と併設,品川区二葉1-4-25併設二葉保育園,35.608058,139.7268669,,,,
荏原図書館,東京都品川区中延1-9-15文化センターと併設,品川区中延1-9-15併設荏原文化センター,35.6121614,139.7105618,,,,
南大井図書館,東京都品川区南大井3-7-13保育園等と併設,品川区南大井3-7-13併設南大井児童センター南大井保育園南大井シルバーセンター,35.5915864,139.7343977,,,,
源氏前図書館,東京都品川区中延4-14-17保育園と併設,品川区中延4-14-17併設源氏前保育園,35.6054776,139.7099039,,,,
ゆたか図書館,東京都品川区豊町1-17-7,品川区豊町1-17-7,35.6115833,139.7224334,,,,
大井図書館,東京都品川区大井5-19-14滝王子児童センターと併設,品川区大井5-19-14併設滝王子児童センター,35.5981956,139.7291339,,,,
五反田図書館,東京都品川区西五反田6-5-1教育総合会館,品川区西五反田6-5-1電話　3492-2131利用時間日曜、月曜、祝日:午前9時〜午後5時火曜〜土曜日:午前9時〜午後8時休館日第2・4日曜日第2木曜日(祝日の場合は翌日)特別整理期間、年末年始,35.6224934,139.7167534,,,,
大崎図書館,東京都品川区大崎2-4-8,品川区大崎2-4-8,35.6185888,139.7257251,,,,
八潮図書館,東京都品川区八潮5-10-27地域センター内,品川区八潮5-10-27併設八潮地域センター八潮児童センター,35.5998508,139.7516856,,,,
品川歴史館,東京都品川区大井6-11-1,品川区大井6-11-1電話:3777-4060 交通:大井町駅から東急バス「鹿島神社前」下車徒歩1分、JR大森駅山王北口下車徒歩10分 開館時間:午前9時〜午後5時(入館は4時30分まで) 休館日:年末年始、月曜日および祝日,35.596791,139.7301024,,,,
メイプルセンター,東京都品川区西大井1-4-25,(公財)品川文化振興事業団が運営するカルチャーセンター。 多様な講座を開催。所在地:西大井1-4-25電話:3774-5050 交通:JR横須賀線西大井駅 休館日:毎月第4日曜日、年末年始 開館時間:午前9時〜午後9時30分(土・日・祝日は午後5時まで),35.6020613,139.722429,,,,
O美術館,東京都品川区大崎1-6-2大崎ニューシティ2号館2階,絵画や書道、彫刻、工芸、写真をはじめ多目的に利用できる美術館です。所在地　大崎1-6-2 大崎ニューシティ2号館2階 電話　3495-4040 交通　JR大崎駅 休館日　毎週木曜日、年末年始、特別展前後約1週間 開館時間　午前10時〜午後6時30分,35.6207867,139.7292687,,,,
品川区民ギャラリー,東京都品川区大井1-3-6イトーヨーカドー大井町店8階,作品の発表などに、ギャラリーをご利用いただけます。所在地　大井1-3-6 イトーヨーカドー大井町店8階電話　3774-5151 交通　大井町駅 休館日　毎週火曜日、年末年始 開館時間　午前10時〜午後8時,35.6071335,139.7340314,,,,
しながわ水族館,東京都品川区勝島3-2-1しながわ区民公園内,品川区勝島3-2-1しながわ区民公園内電話:3762-3431 交通: JR大井町駅から無料バス開館時間: 午前10時〜午後5時(入館は午後4時30分まで) 休館日: 毎週火曜日、1月1日 *春休み、ゴールデンウィーク、夏休みは営業,35.5886339,139.7373639,,,,
久米美術館,東京都品川区上大崎2-25-5久米ビル8階,所在地　上大崎2-25-5久米ビル8階電話　3491-1510 交通　目黒駅徒歩1分 開館時間　午前10時〜午後5時(入館は4時30分まで) 休館日　水曜日、年末年始、展示替期間 入館料　一般500円、大学・高校生300円、小・中学生200円,35.6345473,139.714759,,,,
原美術館,東京都品川区北品川4-7-25,所在地　北品川4-7-25電話　3445-0651 開館時間　午前11時〜午後5時、水曜のみ午後8時まで(祝日の場合を除く) 休館日　月曜日(祝日にあたる場合は開館し翌日休館) ,35.6210782,139.7360376,,,,
船の科学館,東京都品川区東八潮3-1,品川区東八潮3-1,35.6201925,139.7721938,,,,
杉野学園衣裳博物館,東京都品川区上大崎4-6-19,品川区上大崎4-6-19,35.631742,139.7158541,,,,
総合体育館,東京都品川区北品川5-6-11,品川区東五反田2-11-2電話 :3449-4400開館時間 : 8:30〜21:30　交通 : JR山手線、りんかい線　大崎駅より徒歩6分JR山手線、都営浅草線、東急池上線　五反田駅より徒歩6分休館日: 第3月曜日(祝日と重なった時は、その翌日),35.6245295,139.7284885,,,,
天王洲公園野球場,東京都品川区東品川2-5-42,品川区東品川2-5-42野球、サッカー等様々なスポーツを行える多目的広場が敷地の大部分を占める特殊な公園で、天王洲再開発地区の端部に位置するため周辺の夜景が美しい。,35.620512,139.7498021,,,,
八潮北公園野球場,東京都品川区八潮1-3-1,品川区八潮1-3-1八潮地区の北側に位置し、昭和54.4.1東京都海上公園として開設。テニスコート4面、野球場1面、便所1棟設計された公園。,35.612284,139.7544038,,,,
大井ふ頭中央海浜公園野球場,東京都品川区八潮4-1-19,品川区八潮4-1-19,35.5909394,139.7524388,,,,
子供の森野球場,東京都品川区北品川3-10-13,品川区北品川3-10-13,35.6162182,139.7375654,,,,
しながわ区民公園野球場,東京都品川区勝島3-2-2,品川区勝島3-2-2 京浜急行　立会川駅、大森海岸駅から徒歩約5分公園内には、しながわ水族館、野球場、庭球場、ディキャンプ場、プール(夏季)あり。,35.5944787,139.7402054,,,,
東品川公園庭球場,東京都品川区東品川3-14-9,品川区東品川3-14-9身障者用トイレや車椅子で遊べる遊具等、障害者への配慮が数多くなされている。弓道場、テニスコート2面、噴水,35.6143635,139.7461634,,,,
八潮北公園庭球場,東京都品川区八潮1-3-1,品川区八潮1-3-1,35.6129967,139.7540129,,,,
しながわ区民公園庭球場,東京都品川区勝島3-2-2,品川区勝島3-2-2 野球場、庭球場ディキャンプ場あり,35.5936557,139.7393529,,,,
しながわ中央公園庭球場,東京都品川区西品川1-27,品川区西品川1-27噴水や流れ、ロックガーデンがある広場、トリム広場がある新しい公園グラウンド、テニス場あり,35.6097377,139.7279341,,,,
大井ふ頭中央海浜公園,東京都品川区八潮4-1-19,品川区八潮4-1-19,35.5925026,139.7522894,,,,
東品川公園弓道場,東京都品川区東品川3-14-9,品川区東品川3-14-9,35.6140525,139.7460328,,,,
大井ふ頭中央海浜公園陸上競技場・球技場,東京都品川区八潮4-1-19,品川区八潮4-1-19,35.5940313,139.7538181,,,,
しながわ区民公園デイキャンプ場,東京都品川区勝島3-2-2,品川区勝島3-2-2 野球場、テニス場ディキャンプ場あり,35.5928626,139.7386287,,,,
大井ふ頭野外活動広場,東京都品川区八潮2-1,品川区八潮2-1,35.6126052,139.7600531,,,,
都立林試の森公園,東京都品川区小山台2,品川区小山台2丁目地内,35.624815,139.7009359,,,,
戸越公園,東京都品川区豊町2-1-30,品川区豊町2-1-30,35.6105921,139.7223832,,,,
池田山公園,東京都品川区東五反田5-4-35,品川区東五反田5-4-35,35.6323459,139.7236052,,,,
五反田公園,東京都品川区東五反田5-4-35,品川区東五反田5-25-27・5-24-6,35.6278208,139.7237145,,,,
子供の森公園,東京都品川区北品川3-10-13,品川区北品川3-10-13,35.6166914,139.7381085,,,,
東品川海上公園,東京都品川区東品川2-6-22,品川区東品川2-6-22、東品川3-9-21,35.6186916,139.7491971,,,,
権現山公園,東京都品川区北品川3-9-5,品川区北品川3-9-5,35.6187142,139.7376057,,,,
八ッ山公園,東京都品川区北品川1-14-7,品川区北品川1-14-7港区境近く、東八ッ山公園に隣接する休憩施設中心の小さな公園。公園東側には「しながわ百景」に選ばれた稲荷堂があり、その周囲は和風に整備されている。,35.6247364,139.7430093,,,,
聖蹟公園,東京都品川区北品川2-7-21,品川区北品川2-7-21,35.6189521,139.7443715,,,,
東品川公園,東京都品川区東品川3-14-9,品川区東品川3-14-9,35.614099,139.7463244,,,,
天王洲公園,東京都品川区東品川2-5-42,品川区東品川2-5-42、東品川2-6-23,35.6204067,139.7499533,,,,
五反田南公園,東京都品川区東五反田2-1-14,品川区東五反田2-1-14,35.6246215,139.7251167,,,,
東八ツ山公園,東京都品川区北品川1-15-11,品川区北品川1-15-11,35.6246366,139.7436804,,,,
品川浦公園,東京都品川区東品川1-7-17,品川区東品川1-7-17,35.6211219,139.7422478,,,,
東海公園,東京都品川区東品川3-29-6,品川区東品川3-29-6,35.6130943,139.7492899,,,,
品海公園,東京都品川区北品川1-30-9,品川区北品川1-30-9,35.6202825,139.7425247,,,,
北品川公園,東京都品川区北品川2-12-5,品川区北品川2-12-5,35.6187939,139.7418989,,,,
東海第二公園,東京都品川区東品川3-17-15,品川区東品川3-17-15,35.6141392,139.7501659,,,,
上大崎公園,東京都品川区上大崎1-3-13,品川区上大崎1-3-13,35.6344771,139.7220198,,,,
そよかぜ公園,東京都品川区西品川2-17-8,品川区西品川2-17-8,35.6119056,139.726801,,,,
希望ケ丘公園,東京都品川区上大崎3-10-25,品川区上大崎3-10-25,35.6316661,139.7181967,,,,
東品川一丁目公園,東京都品川区東品川1-2-11,品川区東品川1-2-11,35.6228223,139.7439585,,,,
西五反田公園,東京都品川区西五反田5-6-4,品川区西五反田5-6-4,35.6240105,139.7154566,,,,
大崎公園,東京都品川区大崎5-5-17,品川区大崎5-5-17,35.6229714,139.7242114,,,,
西の台公園,東京都品川区西品川1-4-8,品川区西品川1-4-8,35.6140173,139.7292998,,,,
横丁公園,東京都品川区南品川5-4-9,品川区南品川5-4-9,35.6104742,139.7416732,,,,
二日市公園,東京都品川区南品川6-7-15,品川区南品川6-7-15,35.6114153,139.7392199,,,,
洲崎公園,東京都品川区東品川1-36-15,品川区東品川1-36-15,35.6181179,139.7464779,,,,
敬老公園,東京都品川区東品川3-32-8,品川区東品川3-32-8,35.6125913,139.7504909,,,,
西八丁公園,東京都品川区西五反田8-11-4,品川区西五反田8-11-4,35.6198083,139.7192194,,,,
御成橋公園,東京都品川区東五反田2-15-20,品川区東五反田2-15-20,35.6221878,139.7290515,,,,
浅間台公園,東京都品川区南品川6-18-19,品川区南品川6-18-19,35.6083817,139.7367316,,,,
西霧ケ谷公園,東京都品川区西五反田5-28-16,品川区西五反田5-28-16,35.6232095,139.7118827,,,,
北浜公園,東京都品川区北品川2-28-12,品川区北品川2-28-12,35.6174921,139.7449993,,,,
広町公園,東京都品川区広町1-3-30,品川区広町1-3-30,35.6123605,139.7351918,,,,
鎗ケ崎公園,東京都品川区西品川3-12-2,品川区西品川3-12-2,35.6156122,139.7243818,,,,
三ツ木公園,東京都品川区西品川2-6-11,品川区西品川2-6-11,35.6139413,139.7264799,,,,
西品川公園,東京都品川区西品川1-8-7,品川区西品川1-8-7,35.6128802,139.7310941,,,,
仙台坂公園,東京都品川区南品川5-16-1,品川区南品川5-16-1,35.6086452,139.7414579,,,,
台場浦公園,東京都品川区東品川1-8-34,品川区東品川1-8-34,35.6216698,139.7431657,,,,
小関公園,東京都品川区北品川5-8-21,品川区北品川5-8-21,35.6191593,139.7334377,,,,
かむろ坂公園,東京都品川区西五反田4-28-9,品川区西五反田4-28-9,35.6252248,139.7115793,,,,
南品川広場公園,東京都品川区南品川5-10-27,品川区南品川5-10-27,35.6091608,139.7399649,,,,
西品川おさんぽ公園,東京都品川区西品川3-9-24,品川区西品川3-9-24,35.6161546,139.7238086,,,,
南五公園,東京都品川区南品川5-2-5,品川区南品川5-2-5,35.6121,139.7412136,,,,
天王洲アイル第一公園,東京都品川区東品川2-3-21,品川区東品川2-3-21,35.6238252,139.7516914,,,,
天王洲アイル第四公園,東京都品川区東品川2-2-2,品川区東品川2-2-2,35.6236929,139.7487608,,,,
天王洲アイル第三公園,東京都品川区東品川2-2-12,品川区東品川2-2-12,35.6224955,139.7492579,,,,
天王洲アイル第二公園,東京都品川区東品川2-2-17,品川区東品川2-2-17,35.6217557,139.7496532,,,,
天王洲アイル第九公園,東京都品川区東品川2-4-3,品川区東品川2-4-3,35.619101,139.7512037,,,,
居木橋公園,東京都品川区大崎1-14-4,品川区大崎1-14-4,35.6186203,139.7327293,,,,
大井海岸公園,東京都品川区南大井3-27-5,品川区南大井3-27-5,35.5884632,139.7336472,,,,
大井水神公園,東京都品川区南大井5-16-1,品川区南大井5-16-1、南大井6-14-2、南大井6-15-2,35.5953553,139.7324926,,,,
鈴ケ森公園,東京都品川区南大井4-18-14,品川区南大井4-18-14,35.5935095,139.7349352,,,,
大井駅前公園,東京都品川区大井1-2-5,品川区大井1-2-5,35.6053196,139.7346978,,,,
大井公園,東京都品川区東大井4-8-4,品川区東大井4-8-4、東大井4-3-18,35.605024,139.7409681,,,,
東大井公園,東京都品川区東大井3-4-4,品川区東大井3-4-4,35.6038641,139.7388023,,,,
大井中央公園,東京都品川区大井1-46-8,品川区大井1-46-8,35.6045173,139.7323525,,,,
鮫浜公園,東京都品川区東大井2-2-3,品川区東大井2-2-3,35.6030276,139.7415602,,,,
大井坂下公園,東京都品川区南大井6-23-11,品川区南大井6-23-11,35.5895156,139.7307857,,,,
金子山公園,東京都品川区西大井4-11-6,品川区西大井4-11-6,35.5958295,139.7207333,,,,
新浜川公園,東京都品川区東大井2-26-18,品川区東大井2-26-18,35.597859,139.7409281,,,,
わかくさ公園,東京都品川区勝島1-6-1,品川区勝島1-6-1,35.5980432,139.7439051,,,,
峰原公園,東京都品川区大崎3-17-27,品川区大崎3-17-27,35.6179556,139.7211907,,,,
原っぱ公園,東京都品川区西大井6-1-14,品川区西大井6-1-14,35.6010988,139.7147961,,,,
宮下公園,東京都品川区大井2-7-16,品川区大井2-7-16,35.6052129,139.7283995,,,,
浜川公園,東京都品川区南大井4-8-22,品川区南大井4-8-22,35.597232,139.735757,,,,
滝王子公園,東京都品川区大井5-19-5,品川区大井5-19-5,35.598389,139.7288059,,,,
出石公園,東京都品川区西大井3-16-27,品川区西大井3-16-27,35.5948663,139.7220948,,,,
浜川北公園,東京都品川区東大井3-26-6,品川区東大井3-26-6,35.5991428,139.7375333,,,,
桐畑公園,東京都品川区南大井6-1-17,品川区南大井6-1-17,35.5930521,139.7316701,,,,
西の森公園,東京都品川区西大井4-2-1,品川区西大井4-2-1,35.5977248,139.7213155,,,,
関ケ原公園,東京都品川区東大井6-12-21,品川区東大井6-12-21,35.6021738,139.7356259,,,,
倉田公園,東京都品川区大井4-29-23,品川区大井4-29-23,35.5985102,139.7323597,,,,
西大井広場公園,東京都品川区西大井1-4-10,品川区西大井1-4-10、二葉2-19-7,35.6022575,139.7234259,,,,
元芝公園,東京都品川区東大井3-7-18,品川区東大井3-7-18,35.6027444,139.739034,,,,
西大井緑地公園,東京都品川区西大井6-10-16,品川区西大井6-10-16,35.6003331,139.720565,,,,
八潮公園,東京都品川区八潮5-11-16,品川区八潮5-11-16,35.6004044,139.753707,,,,
しおじ公園,東京都品川区八潮5-8-1,品川区八潮5-8-1、八潮5-6-9,35.596166,139.7506565,,,,
大井鹿島公園,東京都品川区大井6-8-2,品川区大井6-8-2,35.5969544,139.7324428,,,,
谷垂公園,東京都品川区西大井6-13-10,品川区西大井6-13-10,35.5999544,139.7178919,,,,
やまなか公園,東京都品川区大井3-22-3,品川区大井3-22-3,35.6010389,139.7278306,,,,
大森貝塚遺跡庭園,東京都品川区大井6-21-6,品川区大井6-21-6,35.5934543,139.729945,,,,
八潮北公園,東京都品川区八潮1-3-1,品川区八潮1-3-1,35.6125983,139.7539033,,,,
平塚公園,東京都品川区荏原4-5-2,品川区荏原4-5-2,35.6157671,139.708228,,,,
荏原南公園,東京都品川区荏原6-16-4,品川区荏原6-16-4,35.6113692,139.7033671,,,,
小山台公園,東京都品川区小山台2-2-1,品川区小山台2-2-1,35.6248922,139.6981314,,,,
荏原中央公園,東京都品川区荏原5-1-2,品川区荏原5-1-2,35.6159767,139.7041853,,,,
西中延公園,東京都品川区西中延2-7-14,品川区西中延2-7-14,35.6105541,139.7085285,,,,
戸越台公園,東京都品川区戸越1-7-17,品川区戸越1-7-17,35.6161321,139.7177248,,,,
旗の台公園,東京都品川区旗の台5-19-9,品川区旗の台5-19-9,35.6040258,139.7004152,,,,
小山台東公園,東京都品川区小山台1-26-12,品川区小山台1-26-12,35.6223239,139.7064386,,,,
旗の台南公園,東京都品川区旗の台5-11-11,品川区旗の台5-11-11,35.6037154,139.7027102,,,,
中原公園,東京都品川区小山1-4-4,品川区小山1-4-4,35.6219746,139.7124807,,,,
東中延公園,東京都品川区東中延2-10-2,品川区東中延2-10-2,35.6068908,139.7126514,,,,
中原東公園,東京都品川区荏原1-21-9,品川区荏原1-21-9,35.6185943,139.7148479,,,,
荏原町公園,東京都品川区中延5-14-5,品川区中延5-14-5,35.6022758,139.7089365,,,,
荏三公園,東京都品川区荏原3-3-10,品川区荏原3-3-10,35.6181535,139.70724,,,,
平塚中央公園,東京都品川区平塚2-2-12,品川区平塚2-2-12,35.6185059,139.7171993,,,,
荏原西公園,東京都品川区荏原6-5-5,品川区荏原6-5-5,35.6134663,139.7046724,,,,
大原公園,東京都品川区戸越6-14-1,品川区戸越6-14-1,35.6070604,139.7142801,,,,
豊町公園,東京都品川区豊町6-16-3,品川区豊町6-16-3,35.6046453,139.7164018,,,,
後地公園,東京都品川区小山2-9-16,品川区小山2-9-16,35.620416,139.7091543,,,,
京陽公園,東京都品川区平塚2-12-3,品川区平塚2-12-3,35.6168582,139.7130085,,,,
二葉公園,東京都品川区二葉4-13-5,品川区二葉4-13-5,35.6036677,139.7181245,,,,
中延公園,東京都品川区西中延1-9-8,品川区西中延1-9-8,35.6118321,139.7078466,,,,
旗の台北公園,東京都品川区旗の台3-10-15,品川区旗の台3-10-15,35.6056948,139.7046722,,,,
源氏前公園,東京都品川区中延6-4-15,中延 6-4-15,35.6021981,139.7124067,,,,
平塚たけのこ公園,東京都品川区平塚1-17-7,品川区平塚1-17-7,35.612992,139.7135962,,,,
東中はなみずき公園,東京都品川区東中延1-8-9,品川区東中延1-8-9,35.6111469,139.7127157,,,,
延山くすのき公園,東京都品川区西中延3-3-1,品川区西中延3-3-1,35.6082001,139.7090281,,,,
西中お日さま公園,東京都品川区西中延3-10-11,品川区西中延3-10-11,35.6069196,139.7066103,,,,
旗の台なか公園,東京都品川区旗の台3-9-12,品川区旗の台3-9-12,35.6047084,139.7057966,,,,
しいのき公園,東京都品川区荏原5-5-12,品川区荏原5-5-12,35.6149083,139.7032179,,,,
葦山公園,東京都品川区豊町1-6-7,品川区豊町1-6-7,35.6136482,139.7226868,,,,
戸越南公園,東京都品川区戸越6-8-8,品川区戸越6-8-8,35.6073047,139.7185868,,,,
江戸見坂公園,東京都品川区小山6-23-8,品川区小山6-23-8,35.6127928,139.6991778,,,,
旗の台広場公園,東京都品川区旗の台3-1-5,品川区旗の台3-1-5,35.6062347,139.7059768,,,,
あさひ公園,東京都品川区小山2-17-27,品川区小山2-17-27,35.6192809,139.7084085,,,,
二鳳公園,東京都品川区豊町4-19-20,品川区豊町4-19-20,35.6054139,139.7212823,,,,
戸越一丁目緑地,東京都品川区戸越1-27-32,品川区戸越1-27-32,35.6168281,139.7211557,,,,
南品川児童遊園,東京都品川区南品川1-2-29,品川区南品川1-2-29,35.6157021,139.7427125,,,,
北品川三丁目児童遊園,東京都品川区北品川3-7-15,品川区北品川3-7-15,35.618197,139.7402466,,,,
南品川二丁目児童遊園,東京都品川区南品川2-11-5,品川区南品川2-11-5,35.6140925,139.7438683,,,,
百反坂下児童遊園,東京都品川区西品川3-20-22,品川区西品川3-20-22,35.6155212,139.7289159,,,,
五反田児童遊園,東京都品川区東五反田5-21-10,品川区東五反田5-21-10,35.6291462,139.7204851,,,,
上大崎児童遊園,東京都品川区上大崎3-3-15,品川区上大崎3-3-15,35.6334363,139.7181125,,,,
さつき児童遊園,東京都品川区南品川5-8-28,品川区南品川5-8-28,35.6104907,139.7405692,,,,
西五反田六丁目児童遊園,東京都品川区西五反田6-11-7,品川区西五反田6-11-7,35.6208792,139.7174968,,,,
三ツ木児童遊園,東京都品川区西品川2-9-18,品川区西品川2-9-18,35.6133113,139.7239921,,,,
大崎五丁目遊園,東京都品川区大崎5-2-2,品川区大崎5-2-2,35.6228272,139.7257946,,,,
西五反田4丁目遊園,東京都品川区西五反田4-19-7,品川区西五反田4-19-7,35.6254845,139.7081357,,,,
鹿島庚塚児童遊園,東京都品川区大井7-29-11,品川区大井7-29-11,35.5939199,139.7293702,,,,
富士見ケ丘児童遊園,東京都品川区西大井5-7,品川区西大井5-7-3,35.5994266,139.7163581,,,,
北浜川児童遊園,東京都品川区東大井2-25-22,品川区東大井2-25-22,35.5979676,139.7392881,,,,
出石児童遊園,東京都品川区西大井3-1-5,品川区西大井3-1-5,35.5978042,139.7238416,,,,
関ケ原児童遊園,東京都品川区南大井5-2-15,品川区南大井5-2-15,35.6004095,139.7349168,,,,
東大井三丁目児童遊園,東京都品川区東大井3-29-6,品川区東大井3-29-6,35.5989275,139.7370478,,,,
西大井ちびっこ児童遊園,東京都品川区西大井2-24-9,品川区西大井2-24-9,35.5978336,139.7250297,,,,
作守児童遊園,東京都品川区大井4-12-14,品川区大井4-12-14,35.6015866,139.7332105,,,,
大井町緑地児童遊園,東京都品川区大井1-21,品川区大井1-21地先、大井1-7地先,35.6072664,139.7319769,,,,
桜橋児童遊園,東京都品川区東大井3-22-1,品川区東大井3-22-1,35.5998584,139.7358994,,,,
西大井二丁目児童遊園,東京都品川区西大井2-22-7,品川区西大井2-22-7,35.5988159,139.7246907,,,,
森下児童遊園,東京都品川区大井2-1-13,品川区大井2-1-13,35.6062642,139.7293517,,,,
大井倉田児童遊園,東京都品川区大井4-22-30,品川区大井4-22-30,35.6002545,139.7322128,,,,
鈴ケ森道路児童遊園,東京都品川区南大井1-22-1,品川区南大井1-22-1,35.5943422,139.7366713,,,,
みなみ児童遊園,東京都品川区南大井1-13-8,品川区南大井1-13-8、南大井1-12-9,35.5956552,139.7370854,,,,
戸越児童遊園,東京都品川区戸越3-9-20,品川区戸越3-9-20,35.6119106,139.7155939,,,,
旗岡児童遊園,東京都品川区旗の台3-6-12,品川区旗の台3-6-12,35.6045153,139.7085112,,,,
上神明児童遊園,東京都品川区二葉4-26-11,品川区二葉4-26-11、二葉4-3-15,35.6022094,139.7141675,,,,
神明児童遊園,東京都品川区二葉1-4-25,品川区二葉1-4-25,35.6082221,139.7265261,,,,
豊町二丁目児童遊園,東京都品川区豊町2-18-1,品川区豊町2-18-1,35.609262,139.7256453,,,,
武蔵小山児童遊園,東京都品川区小山3-12-6,品川区小山3-12-6,35.6192277,139.7065238,,,,
中延児童遊園,東京都品川区中延1-10-15,品川区中延1-10-15,35.6126071,139.7106657,,,,
荏原児童遊園,東京都品川区荏原1-25-18,品川区荏原1-25-18,35.619576,139.7119598,,,,
荏原2丁目児童遊園,東京都品川区荏原2-16-4,品川区荏原2-16-4,35.6173838,139.7093001,,,,
戸越六丁目児童遊園,東京都品川区戸越6-11-6,品川区戸越6-11-6,35.6075442,139.7154099,,,,
豊町5丁目児童遊園,東京都品川区豊町5-14-3,品川区豊町5-14-3,35.6048754,139.7205924,,,,
荏原4丁目児童遊園,東京都品川区荏原4-10-10,品川区荏原4-10-10,35.6167467,139.7054407,,,,
西中延3丁目児童遊園,東京都品川区西中延3-5-17,品川区西中延3-5-17,35.6075609,139.7086817,,,,
立会川児童遊園(その4),東京都品川区旗の台3-7,品川区旗の台3-7地先、旗の台3-7-3-9地先,35.604264,139.7064216,,,,
立会川児童遊園(その2),東京都品川区旗の台2-7,品川区旗の台2-7地先、旗の台2-7-2-1地先,35.606224,139.7043707,,,,
立会川児童遊園(その3),東京都品川区旗の台3-11,品川区旗の台3-11地先、旗の台3-11-3-10地先,35.6055099,139.7046205,,,,
豊町ちびっこ児童遊園,東京都品川区豊町1-2-3,品川区豊町1-2-3,35.61505,139.723645,,,,
小山四丁目児童遊園,東京都品川区小山4-6-2,品川区小山4-6-2,35.6174477,139.7047386,,,,
小山五丁目児童遊園,東京都品川区小山5-13-4,品川区小山5-13-4,35.6165,139.7019508,,,,
豊町児童遊園,東京都品川区豊町4-1-12,品川区豊町4-1-12,35.6072203,139.7192001,,,,
伊藤児童遊園,東京都品川区西大井6-17-9,品川区西大井6-17-9,35.6001272,139.7158239,,,,
中原児童遊園,東京都品川区平塚2-6-4,品川区平塚2-6-4,35.6178646,139.7153366,,,,
わかば児童遊園,東京都品川区戸越1-29-21,品川区戸越1-29-21,35.6156815,139.7218039,,,,
戸越ひだまり広場,東京都品川区戸越1-4-11,品川区戸越1-4-11,35.6170057,139.7193429,,,,
戸越2丁目広場,東京都品川区戸越2-1-9,品川区戸越2-1-9,35.6144983,139.718529,,,,
荏原一丁目ふれあい広場,東京都品川区荏原1-2-12,品川区荏原1-2-12,35.6213088,139.7131832,,,,
コンテナふ頭公園,東京都品川区八潮2-9-14,品川区八潮2-9-14,35.6028869,139.7617793,,,,
京浜運河緑道公園,東京都品川区八潮1,品川区八潮1、八潮5,35.5970287,139.7489966,,,,
戸越体育館,東京都品川区豊町2-1-17,品川区豊町2-1-17,35.6109014,139.7206443,,,,
コナミスポーツクラブ,東京都品川区東品川4-10-1,品川区東品川4-10-1,35.6079875,139.7459078,,,,
スクエア荏原(荏原平塚総合区民会館),東京都品川区荏原4-5-28,電話:5788-5321交通:東急目黒線武蔵小山駅または東急池上線戸越銀座駅より徒歩10分開館時間:午前9時〜午後9時30分休館日:年末年始(12月29日〜1月3日),35.6156632,139.7075936,,,,
(財)品川区スポーツ協会,東京都品川区東五反田2-11-2,品川区東五反田2-11-2　総合体育館内,35.6245285,139.7279827,,,,
戸越台温水プール,東京都品川区戸越1-15-23,併設戸越台中学校,35.6157971,139.7174902,,,,
しながわ区民公園屋外プール,東京都品川区勝島3-2-2,野球場、庭球場ディキャンプ場あり,35.5933913,139.7397782,,,,
しながわ区民公園,東京都品川区勝島3-2-2,品川区南大井2-3-17品川区勝島3-2-2,35.5925753,139.7388816,,,,
八潮公園多目的広場,東京都品川区八潮5-11-16,,35.6005626,139.7529717,,,,
鮫洲運動公園,東京都品川区東大井1-4-11,品川区東大井1-4-11,35.6062665,139.7448001,,,,
ねむの木の庭,東京都品川区東五反田5丁目19-5,品川区東五反田5丁目19-5,35.6303573,139.7223487,,,,
むつみ児童遊園,東京都品川区南品川5-2-17,南品川5-2-17,35.6119612,139.7408933,,,,
大崎5丁目児童遊園,東京都品川区大崎5-8-5,大崎5-8-5,35.6220026,139.7254599,,,,
大崎橋広場,東京都品川区西五反田1-10-2,西五反田1-10-2,35.6248398,139.7238,,,,
にしよん広場,東京都品川区西五反田4-10-6,西五反田4-10-6,35.6258311,139.7107814,,,,
鮫洲入江広場,東京都品川区東大井1-13,東大井1-13先,35.6031235,139.743636,,,,
わくわく広場,東京都品川区荏原1-4-13,荏原1-4-13,35.6201269,139.7127486,,,,
宮前坂広場,東京都品川区戸越2-6-36,戸越2-6-36,35.6141545,139.7195762,,,,
森前公園,東京都品川区西大井1-1-10,品川区西大井1-1-10,35.6005115,139.7212987,,,,
弁天通り公園,東京都品川区中延5-3-8,品川区中延5-3-8,35.6037519,139.7087449,,,,
庚申公園,東京都品川区中延5-13-17,品川区中延5-13-17,35.6016896,139.7086854,,,,
都立京浜運河緑道公園,東京都品川区八潮1-,品川区八潮1、八潮5,35.5967817,139.7489721,,,,
都立大井ふ頭中央海浜公園,東京都品川区八潮4-1-19,東京都品川区八潮4-1-19,35.592501,139.752291,,,,
Ｏ（オー）美術館,東京都品川区大崎1-6-2大崎ニューシティ２号館,東京都品川区大崎1-6-2大崎ニューシティ２号館,35.620763,139.729299,,,,
きゅりあん（品川区立総合区民会館）,東京都品川区東大井5-18-1,東京都品川区東大井5-18-1,35.606198,139.735946,,,,
六行会ホール,東京都品川区北品川2-32-3,東京都品川区北品川2-32-3,35.61693,139.742471,,,,
八潮学園温水プール,東京都品川区八潮5-11-2,品川区八潮5-11-2　八潮学園内(旧八潮中学校)1階,35.6013431,139.7524228,,,,
こみゅにてぃぷらざ八潮(区民活動交流施設),東京都品川区八潮5-9-11,所在地:八潮5-9-11電話:3799-2021施設内容:第1〜2地域交流室　第1〜4多目的室　講習室　パソコン講習室　講習和室　第1〜2音楽室　美術工芸室　第1〜2健康増進室　託児室　スポーツ室休館日:年末年始・毎月第2火曜日利用時間:午前9時〜午後9時30分,35.5979979,139.7524344,,,,
旗の台東広場,東京都品川区旗の台4-12-16,品川区旗の台4-12-16,35.6021403,139.7038701,,,,
不動前緑道,東京都品川区小山1-10-1,品川区小山1-10-1、小山2-1-1、小山2-5-1、小山2-6-1東急目黒線の地下化に伴い、その上部を利用して造られた児童遊園。季節感のある樹木を多く取り入れながら、全体としてはシンプルですっきりとした感じの緑道。,35.6238741,139.7104671,,,,
武蔵小山緑道,東京都品川区小山4-10-1,品川区小山4-10-1、小山5-4-1、小山5-3-1東急目黒線の地下化に伴い、その上部を利用して造られた児童遊園。ビオトープ風の流れ、健康遊具、鉄道敷地であることを示し電車風のパーゴラなどユニークな施設がある。,35.6185473,139.7013614,,,,
西小山緑道,東京都品川区小山6-11-1,品川区小山6-11-1、小山6-16-1、小山6-27-1東急目黒線の地下化に伴い、その上部を利用して造られた児童遊園。歩く機能優先の緑道で、標準幅員6mの歩行者空間が続く明るいすっきりとしたイメージの緑道。,35.6140921,139.6975337,,,,
街道松の広場,東京都品川区南品川1-8-5,品川区南品川1-8-5,35.6155237,139.744082,,,,
しながわ中央公園,東京都品川区西品川1-27-14,品川区西品川1-27-14、西品川1-28-25、西品川1-20-13,35.609765,139.7289576,,,,
谷山公園,東京都品川区西五反田3-6-15,品川区西五反田3-6-15,35.6278337,139.7183477,,,,
品川南ふ頭公園,東京都品川区東品川5-8-4,品川区東品川5-8-4,35.6224175,139.7547437,,,,
ごこう公園,東京都品川区中延5-9-23,品川区中延5-9-23区へ寄付された用地を公園として整備。周辺に花壇を施したシンプルなつくり。,35.6020623,139.7067971,,,,
東品川ひだまり緑地,東京都品川区東品川3-11-23,品川区東品川3-11-23,35.6147386,139.748782,,,,
ゆたか南公園,東京都品川区豊町6-29-2,品川区豊町6-29-2住宅の密集著しい地区の中にあるため、広場スペースが広く、防災機能を多く取り入れている。,35.6040563,139.7163386,,,,
相生広場,東京都品川区東五反田4-1,品川区東五反田4-1-32民間開発で整備された児童遊園で、港区境近くの勾配地に位置している。急な坂道の途中であり、奥は民間マンションの憩いの広場と一体になっている。,35.6328933,139.7263388,,,,
亀の甲緑地,東京都品川区上大崎4-5-37,品川区上大崎4-5-37,35.6282799,139.7157168,,,,
ひふみ公園,東京都品川区大崎2-2,品川区大崎2-2-11,35.6183548,139.726293,,,,
中六桜広場,東京都品川区中延6-10,品川区中延6-10-3開発行為により整備された公園。当該地には昭和初期より桜の丘があり、地元住民に親しまれていた。地元である中延六丁目町会からの名称提案の中で町会の第一推薦である「中六桜広場」が公園名称として選定された。,35.600899,139.7117144大崎光の滝公園,東京都品川区大崎1-1,品川区大崎1-1-2,35.6239359,139.7256779
荏原さくら公園,東京都品川区荏原1-24,品川区荏原1-24-18旧中原街道と荏原第一中学校に挟まれたところにある広場型の公園。道路側に地元に親しまれたサクラの大木がある。,35.6189295,139.7142068,,,,
品川シーサイド公園,東京都品川区東品川4-12,品川区東品川4-12-13,35.6077732,139.7492718,,,,
天王洲アイル第八公園,東京都品川区東品川2-4,品川区東品川2-4-19,35.6213202,139.7510398,,,,
杜の公園,東京都品川区北品川1-6,品川区北品川1-6-10,35.624669,139.7412033,,,,
西五反田五丁目特定児童遊園,東京都品川区西五反田5-17-7,品川区西五反田5-17-7,35.6234283,139.7142072,,,,
荏原三丁目特定児童遊園,東京都品川区荏原3-4,品川区荏原3-4-3,35.6178543,139.7083208,,,,
戸越一丁目特定児童遊園,東京都品川区戸越1-9,品川区戸越1-9-6,35.6166034,139.7187109,,,,
戸越五丁目特定児童遊園,東京都品川区戸越5-12,品川区戸越5-12-10,35.6096288,139.717144,,,,
西大井四丁目特定児童遊園,東京都品川区西大井4-23-12,品川区西大井4-23-12,35.5929071,139.7193813,,,,
東品川屋上庭園,東京都品川区東品川3-9,品川区東品川3-9-21下水道局東品川ポンプ所の屋上に整備した庭園で、東品川海上公園と一体的に利用できる。草花を主体に植栽した洋風庭園と和風庭園に分かれている。,35.6166431,139.7496172,,,,
東品川健康広場,東京都品川区東品川3-9,品川区東品川3-9-21東品川海上公園に隣接して整備された広場で、子供から高齢者までが楽しめる健康遊具を配している。,35.6169938,139.748772,,,,
中延一丁目特定児童遊園,東京都品川区中延1-4-16,品川区中延1-4-16,35.6127962,139.7114077,,,,
西品川一丁目特定児童遊園,東京都品川区西品川1-14,品川区西品川1-14-13,35.6118561,139.7290282,,,,
南大井四丁目特定児童遊園,東京都品川区南大井4-6,品川区南大井4-6-20,35.5969682,139.7368218,,,,
源氏前特定児童遊園,東京都品川区中延6-4,品川区中延6-4-8,35.6022715,139.712272,,,,
南品川六丁目特定児童遊園,東京都品川区南品川6-13,品川区南品川6-13-3、南品川6-14-1,35.6103387,139.7376463,,,,
大井二丁目特定児童遊園,東京都品川区大井2-5-15,品川区大井2-5-15,35.604237,139.7275635,,,,
西大井六丁目特定児童遊園,東京都品川区西大井6-5-5,西大井6-5-5,35.6011197,139.7186875,,,,
旗の台一丁目特定児童遊園,東京都品川区旗の台1-8,品川区旗の台1-8-5,35.6102892,139.7021082,,,,
西大井三丁目特定児童遊園,東京都品川区西大井3-4-14,品川区西大井3-4-14,35.5969421,139.7239036,,,,
豊町一丁目特定児童遊園,東京都品川区豊町1-13,品川区豊町1-13-5,35.6126741,139.7240389,,,,
荏原一丁目特定児童遊園,東京都品川区荏原1-25,品川区荏原1-25-20,35.6197265,139.7117573,,,,
荏原六丁目特定児童遊園,東京都品川区荏原6-7,品川区荏原6-7-2,35.6131177,139.7053715,,,,
豊四防災広場,東京都品川区豊町4-7-11,品川区豊町4-7-11,35.607273,139.7222886,,,,
豊四中央防災広場,東京都品川区豊町4-17-1,品川区豊町4-17-1,35.6067133,139.7206863,,,,
東品川水辺広場,東京都品川区東品川3-9,品川区東品川3-9-21地先,35.6175169,139.7489446,,,,
天王洲アイル第一水辺広場,東京都品川区東品川2-3,品川区東品川2-3-21地先,35.6247019,139.7518077,,,,
天王洲アイル第二水辺広場,東京都品川区東品川2-2-24,品川区東品川2-2-24地先,35.6237869,139.748958,,,,
天王洲アイル第四水辺広場,東京都品川区東品川2-4,品川区東品川2-4-3地先,35.6191299,139.7514365,,,,
しながわ花海道水辺広場,東京都品川区東大井1-13,品川区東大井1-13先外勝島運河周辺の防潮堤上部。,35.5985983,139.7412459,,,,
品川シーサイド水辺広場,東京都品川区東品川4-13,品川区東品川4-13先品川シーサイド公園東側に位置し、東品川四丁目地区地区計画に基づき整備された水辺広場。,35.6078089,139.7503786,,,,
東八潮緑道公園,東京都品川区東八潮,品川区東八潮,35.6199324,139.7725884,,,,
みなとが丘ふ頭公園,東京都品川区八潮3-1,品川区八潮3-1-11,35.5959274,139.7628812,,,,
大井ふ頭緑道公園,東京都品川区八潮5,品川区八潮5,35.6005284,139.7545537,,,,
潮風公園,東京都品川区東八潮,品川区東八潮1-2,35.6221175,139.7703923,,,,
中延三丁目特定児童遊園,東京都品川区中延3-9,品川区中延3-9-2,35.607748,139.7106261,,,,
御殿山の丘公園,東京都品川区北品川6-6-33,北品川6-6-32,35.624635,139.7331736,,,,
本三くじら広場,東京都品川区西五反田4-4-7,品川区西五反田4-4-7,35.6276077,139.7128381,,,,
後地クマさん広場,東京都品川区小山2-4-13,品川区小山2-4-13、14,35.6214691,139.7080564,,,,
上蛇広場,東京都品川区二葉4-3-10,二葉4-3-10,35.6026579,139.7144346,,,,
東中みんなの広場,東京都品川区東中延1-2-8,東中延1-2-8,35.6117321,139.7136583,,,,
ゆたか防災広場,東京都品川区豊町6-11-1,豊町6-11-1,35.6055947,139.7176567,,,,
五反田ふれあい水辺広場,東京都品川区東五反田2-9-10,品川区東五反田2-9-11,35.6242353,139.7258791,,,,
天王洲運河水辺広場,東京都品川区東品川1-3-3,品川区東品川1-3、1-39,35.6214346,139.7465433,,,,
中二さくらひろば,東京都品川区中延2-9-18,品川区中延2-9-18,35.6103849,139.7106321,,,,
小山台一丁目防災広場,東京都品川区小山台1-7-3,品川区小山1-7-3,35.6243175,139.7059804,,,,
文庫の森,東京都品川区豊町1-16-23,豊町1-16-23,35.6120363,139.7208355,,,,
西大井六丁目ふれあい広場,東京都品川区西大井6-3-1,西大井6-3-1,35.6011759,139.716261,,,,
中三いこいの広場,東京都品川区中延3-7-20,住所　中延3-7-20,35.6082592,139.7113152,,,,
カメさん広場,東京都品川区戸越2-6-20,住所　戸越2-6-20,35.6129291,139.7204135,,,,
ひのみ広場,東京都品川区戸越5-20-15,住所　戸越5-20-15,35.6083419,139.7186389,,,,
かやの木の広場,東京都品川区豊町1-17-2,住所　豊町1-17-2,35.6115694,139.721957,,,,
中延みちしるべ防災広場,東京都品川区中延5-12-11,住所　中延5-12-11,35.6011838,139.7082099,,,,
二葉中央のんき通り広場,東京都品川区二葉3-17-14,住所　二葉3-17-14,35.6041294,139.7214038,,,,
ほうさん広場,東京都品川区豊町3-4-2,住所　豊町3-4-2,35.6085671,139.7207244,,,,
宮前花広場,東京都品川区戸越4-9-19,住所　戸越4-9-19,35.6109848,139.7189959,,,,
勝島かもめ水辺広場,東京都品川区勝島1-4先,勝島1-4先,35.6017375,139.7473536,,,,
ひらさん広場,東京都品川区平塚3-9-1,平塚3-9-1,35.6145088,139.7126284,,,,